id,place_name,address,p_type,sub_type,contact_number,current_status,website,latitude,longitude,created_at,updated_at,action,bkoi_addr,rev_data
33383,Ting Tong,"2412 Al Mutanabbi, Al Malaz, 7261, Riyadh 12831, Saudi Arabia",Food,Bar-B-Q,,,,24.6721787,46.730114,30:34.0,30:34.0,0,.,"{""id"": null, ""area"": null, ""city"": null, ""union"": null, ""address"": null, ""country"": ""Saudi Arabia"", ""district"": null, ""division"": null, ""pauroshova"": null, ""sub_district"": null, ""location_type"": null, ""area_components"": {""area"": null, ""sub_area"": null}, ""address_components"": {""road"": null, ""house"": null, ""place_name"": null}, ""distance_within_meters"": null}"
33384,Afdal Tikka Restaurant,"Jarir St, Al Malaz, Riyadh 12831, Saudi Arabia",Food,Restaurant,,Open ⋅ Closes 2 AM,,24.6706789,46.7294516,32:01.0,32:01.0,0,.,"{""id"": null, ""area"": null, ""city"": null, ""union"": null, ""address"": null, ""country"": ""Saudi Arabia"", ""district"": null, ""division"": null, ""pauroshova"": null, ""sub_district"": null, ""location_type"": null, ""area_components"": {""area"": null, ""sub_area"": null}, ""address_components"": {""road"": null, ""house"": null, ""place_name"": null}, ""distance_within_meters"": null}"
33385,Fatayer Jarir,"Al Malaz, Riyadh 12831, Saudi Arabia",Food,Restaurant,,,drive.google.com,24.6707055,46.7296838,32:47.0,32:47.0,0,.,"{""id"": null, ""area"": null, ""city"": null, ""union"": null, ""address"": null, ""country"": ""Saudi Arabia"", ""district"": null, ""division"": null, ""pauroshova"": null, ""sub_district"": null, ""location_type"": null, ""area_components"": {""area"": null, ""sub_area"": null}, ""address_components"": {""road"": null, ""house"": null, ""place_name"": null}, ""distance_within_meters"": null}"
33386,Al Taam Al Masi Restaurant for Catering,"MPCH+8V5, Jarir St, Al Malaz, Riyadh 12831, Saudi Arabia",Food,Restaurant,,Closes soon ⋅ 2 PM ⋅ Reopens 4 PM,,24.6707502,46.7297388,33:39.0,33:39.0,0,.,"{""id"": null, ""area"": null, ""city"": null, ""union"": null, ""address"": null, ""country"": ""Saudi Arabia"", ""district"": null, ""division"": null, ""pauroshova"": null, ""sub_district"": null, ""location_type"": null, ""area_components"": {""area"": null, ""sub_area"": null}, ""address_components"": {""road"": null, ""house"": null, ""place_name"": null}, ""distance_within_meters"": null}"
33387,Express Restaurant,"2374 شارع جرير، الملز،, Riyadh 12831, Saudi Arabia",Food,Restaurant,,Open ⋅ Closes 12:30 AM,facebook.com,24.6708926,46.7304226,34:29.0,34:29.0,0,.,"{""id"": null, ""area"": null, ""city"": null, ""union"": null, ""address"": null, ""country"": ""Saudi Arabia"", ""district"": null, ""division"": null, ""pauroshova"": null, ""sub_district"": null, ""location_type"": null, ""area_components"": {""area"": null, ""sub_area"": null}, ""address_components"": {""road"": null, ""house"": null, ""place_name"": null}, ""distance_within_meters"": null}"
33388,Madaras Biriyani Restaurant,"Jarir St, Al Malaz, Riyadh 11411, Saudi Arabia",Food,Biryani House,,Open ⋅ Closes 11:30 PM,,24.6710658,46.7306635,34:46.0,34:46.0,0,.,"{""id"": null, ""area"": null, ""city"": null, ""union"": null, ""address"": null, ""country"": ""Saudi Arabia"", ""district"": null, ""division"": null, ""pauroshova"": null, ""sub_district"": null, ""location_type"": null, ""area_components"": {""area"": null, ""sub_area"": null}, ""address_components"": {""road"": null, ""house"": null, ""place_name"": null}, ""distance_within_meters"": null}"
33389,GAD,"MPCJ+99V, Al Malaz, Riyadh 12831, Saudi Arabia",Food,Restaurant,,Open ⋅ Closes 1 AM,,24.6709597,46.7309492,35:11.0,35:11.0,0,.,"{""id"": null, ""area"": null, ""city"": null, ""union"": null, ""address"": null, ""country"": ""Saudi Arabia"", ""district"": null, ""division"": null, ""pauroshova"": null, ""sub_district"": null, ""location_type"": null, ""area_components"": {""area"": null, ""sub_area"": null}, ""address_components"": {""road"": null, ""house"": null, ""place_name"": null}, ""distance_within_meters"": null}"
33390,Meshwi wa Singari,"حي, Jarir St, Al Malaz, Riyadh 12831, Saudi Arabia",Food,Sea Food,,Open ⋅ Closes 12 AM,,24.6710312,46.7313989,36:39.0,36:39.0,0,.,"{""id"": null, ""area"": null, ""city"": null, ""union"": null, ""address"": null, ""country"": ""Saudi Arabia"", ""district"": null, ""division"": null, ""pauroshova"": null, ""sub_district"": null, ""location_type"": null, ""area_components"": {""area"": null, ""sub_area"": null}, ""address_components"": {""road"": null, ""house"": null, ""place_name"": null}, ""distance_within_meters"": null}"
33391,Shawarmer,"Jarir St, Al Malaz, Riyadh 12831, Saudi Arabia",Food,Fast Food,,Open ⋅ Closes 4 AM,smart.link,24.6710615,46.7315464,37:33.0,37:33.0,0,.,"{""id"": null, ""area"": null, ""city"": null, ""union"": null, ""address"": null, ""country"": ""Saudi Arabia"", ""district"": null, ""division"": null, ""pauroshova"": null, ""sub_district"": null, ""location_type"": null, ""area_components"": {""area"": null, ""sub_area"": null}, ""address_components"": {""road"": null, ""house"": null, ""place_name"": null}, ""distance_within_meters"": null}"
33392,Koshary El Tahrir,"7101 Jarir St, Al Malaz، 2567, Riyadh 12836, Saudi Arabia",Food,Restaurant,,Open ⋅ Closes 2 AM,,24.6711013,46.7319382,37:59.0,37:59.0,0,.,"{""id"": null, ""area"": null, ""city"": null, ""union"": null, ""address"": null, ""country"": ""Saudi Arabia"", ""district"": null, ""division"": null, ""pauroshova"": null, ""sub_district"": null, ""location_type"": null, ""area_components"": {""area"": null, ""sub_area"": null}, ""address_components"": {""road"": null, ""house"": null, ""place_name"": null}, ""distance_within_meters"": null}"
33393,Domino's Pizza,"Jarir St, Al Malaz, Riyadh 12831, Saudi Arabia",Food,Pizza Place,,Open ⋅ Closes 3:30 AM,dominos.sa,24.6711775,46.732235,38:12.0,38:12.0,0,.,"{""id"": null, ""area"": null, ""city"": null, ""union"": null, ""address"": null, ""country"": ""Saudi Arabia"", ""district"": null, ""division"": null, ""pauroshova"": null, ""sub_district"": null, ""location_type"": null, ""area_components"": {""area"": null, ""sub_area"": null}, ""address_components"": {""road"": null, ""house"": null, ""place_name"": null}, ""distance_within_meters"": null}"
33394,Riyad Bank,"MPCJ+FX, جرير, Al Malaz, 2576 Jarir Street, Riyadh 12831, Saudi Arabia",Bank,Bank Branch,,Open ⋅ Closes 4:30 PM,riyadbank.com,24.6711875,46.7324375,38:33.0,38:33.0,0,.,"{""id"": null, ""area"": null, ""city"": null, ""union"": null, ""address"": null, ""country"": ""Saudi Arabia"", ""district"": null, ""division"": null, ""pauroshova"": null, ""sub_district"": null, ""location_type"": null, ""area_components"": {""area"": null, ""sub_area"": null}, ""address_components"": {""road"": null, ""house"": null, ""place_name"": null}, ""distance_within_meters"": null}"
33395,Bayt Al Shawaya,"Jarir St, Al Malaz, Riyadh 12831, Saudi Arabia",Food,Restaurant,,,shawayahouse.com.sa,24.671343,46.73334,39:19.0,39:19.0,0,.,"{""id"": null, ""area"": null, ""city"": null, ""union"": null, ""address"": null, ""country"": ""Saudi Arabia"", ""district"": null, ""division"": null, ""pauroshova"": null, ""sub_district"": null, ""location_type"": null, ""area_components"": {""area"": null, ""sub_area"": null}, ""address_components"": {""road"": null, ""house"": null, ""place_name"": null}, ""distance_within_meters"": null}"
33396,Café Toledo 2,"7197 Jarir St, Al Malaz، REMA2752، 2752, Riyadh 12831, Saudi Arabia",Food,Restaurant,,Open 24 hours,facebook.com,24.671502,46.7338547,40:00.0,40:00.0,0,.,"{""id"": null, ""area"": null, ""city"": null, ""union"": null, ""address"": null, ""country"": ""Saudi Arabia"", ""district"": null, ""division"": null, ""pauroshova"": null, ""sub_district"": null, ""location_type"": null, ""area_components"": {""area"": null, ""sub_area"": null}, ""address_components"": {""road"": null, ""house"": null, ""place_name"": null}, ""distance_within_meters"": null}"
33397,Cafe Misr El Gedida,"Jarir St, Al Malaz, Riyadh 12831, Saudi Arabia",Food,Cafe,,Open ⋅ Closes 3 AM,,24.6715584,46.7342557,40:47.0,40:47.0,0,.,"{""id"": null, ""area"": null, ""city"": null, ""union"": null, ""address"": null, ""country"": ""Saudi Arabia"", ""district"": null, ""division"": null, ""pauroshova"": null, ""sub_district"": null, ""location_type"": null, ""area_components"": {""area"": null, ""sub_area"": null}, ""address_components"": {""road"": null, ""house"": null, ""place_name"": null}, ""distance_within_meters"": null}"
33423,MERAS International Investment Company,"Salah Ad Din Al Ayyubi Rd, Al Malaz, Riyadh 11461, Saudi Arabia",Office,Financial Institutions,,Open ⋅ Closes 5 PM,meras-ksa.com,24.6695502,46.728138,50:18.0,50:18.0,0,.,"{""id"": null, ""area"": null, ""city"": null, ""union"": null, ""address"": null, ""country"": ""Saudi Arabia"", ""district"": null, ""division"": null, ""pauroshova"": null, ""sub_district"": null, ""location_type"": null, ""area_components"": {""area"": null, ""sub_area"": null}, ""address_components"": {""road"": null, ""house"": null, ""place_name"": null}, ""distance_within_meters"": null}"
33426,Dolce Coffee and  Chocolate,"صلاح الدين, Al Malaz, Riyadh 12627, Saudi Arabia",Food,Cafe,,,smomedia.com,24.6689503,46.7290099,54:00.0,54:00.0,0,.,"{""id"": null, ""area"": null, ""city"": null, ""union"": null, ""address"": null, ""country"": ""Saudi Arabia"", ""district"": null, ""division"": null, ""pauroshova"": null, ""sub_district"": null, ""location_type"": null, ""area_components"": {""area"": null, ""sub_area"": null}, ""address_components"": {""road"": null, ""house"": null, ""place_name"": null}, ""distance_within_meters"": null}"
33425,Masraf Al Rajhi,"Salah Ad Din Al Ayyubi Rd, Al Malaz, Riyadh 12627, Saudi Arabia",Bank,Bank Branch,,Open ⋅ Closes 4:30 PM,alrajhibank.com.sa,24.6689794,46.728964,51:55.0,51:55.0,0,.,"{""id"": null, ""area"": null, ""city"": null, ""union"": null, ""address"": null, ""country"": ""Saudi Arabia"", ""district"": null, ""division"": null, ""pauroshova"": null, ""sub_district"": null, ""location_type"": null, ""area_components"": {""area"": null, ""sub_area"": null}, ""address_components"": {""road"": null, ""house"": null, ""place_name"": null}, ""distance_within_meters"": null}"
33427,Kiba,"MP9H+CHJ, Salah Ad Din Al Ayyubi Rd, Al Malaz, Riyadh 12629, Saudi Arabia",Office,Construction Company,,Open ⋅ Closes 5 PM,34.90.216.67,24.668588,46.7289016,54:36.0,54:36.0,0,.,"{""id"": null, ""area"": null, ""city"": null, ""union"": null, ""address"": null, ""country"": ""Saudi Arabia"", ""district"": null, ""division"": null, ""pauroshova"": null, ""sub_district"": null, ""location_type"": null, ""area_components"": {""area"": null, ""sub_area"": null}, ""address_components"": {""road"": null, ""house"": null, ""place_name"": null}, ""distance_within_meters"": null}"
33428,SEIBA HOTEl MALAz,"Al Malaz, Riyadh 12627, Saudi Arabia",Hotel,4 Star,,,enala.sa,24.6684981,46.7293288,54:59.0,54:59.0,0,.,"{""id"": null, ""area"": null, ""city"": null, ""union"": null, ""address"": null, ""country"": ""Saudi Arabia"", ""district"": null, ""division"": null, ""pauroshova"": null, ""sub_district"": null, ""location_type"": null, ""area_components"": {""area"": null, ""sub_area"": null}, ""address_components"": {""road"": null, ""house"": null, ""place_name"": null}, ""distance_within_meters"": null}"
33435,Nesto Hypermarket Malaz,"Al Zafaran St, Al Malaz, Riyadh 12836, Saudi Arabia",Commercial,Market,,Open ⋅ Closes 2 AM,nestooffers.com,24.6699905,46.738404,02:40.0,02:40.0,0,.,"{""id"": null, ""area"": null, ""city"": null, ""union"": null, ""address"": null, ""country"": ""Saudi Arabia"", ""district"": null, ""division"": null, ""pauroshova"": null, ""sub_district"": null, ""location_type"": null, ""area_components"": {""area"": null, ""sub_area"": null}, ""address_components"": {""road"": null, ""house"": null, ""place_name"": null}, ""distance_within_meters"": null}"
33429,Space Arabia Company LLC,"4147-4169 Khalid Ibn Junadah, Al Malaz, Riyadh 12627, Saudi Arabia",Office,Interior Design,,Open ⋅ Closes 5:30 PM,spacearabia.sa,24.6676282,46.7292046,55:26.0,55:26.0,0,.,"{""id"": null, ""area"": null, ""city"": null, ""union"": null, ""address"": null, ""country"": ""Saudi Arabia"", ""district"": null, ""division"": null, ""pauroshova"": null, ""sub_district"": null, ""location_type"": null, ""area_components"": {""area"": null, ""sub_area"": null}, ""address_components"": {""road"": null, ""house"": null, ""place_name"": null}, ""distance_within_meters"": null}"
33436,Rasimah Pharmacy,"7794 Arwa Bint Abd Al Mouttaleb, Al Malaz, Riyadh 12841, Saudi Arabia",Shop,Pharmacy,,Open ⋅ Closes 2 AM,,24.6555902,46.7440665,03:05.0,03:05.0,0,.,"{""id"": null, ""area"": null, ""city"": null, ""union"": null, ""address"": null, ""country"": ""Saudi Arabia"", ""district"": null, ""division"": null, ""pauroshova"": null, ""sub_district"": null, ""location_type"": null, ""area_components"": {""area"": null, ""sub_area"": null}, ""address_components"": {""road"": null, ""house"": null, ""place_name"": null}, ""distance_within_meters"": null}"
33437,Danat Al Sham,"حي، 7728 Zeid Ibn Al Khattab, Al Malaz, Riyadh 12841, Saudi Arabia",Food,Restaurant,,Open ⋅ Closes 1:30 AM,,24.6550776,46.7440065,03:22.0,03:22.0,0,.,"{""id"": null, ""area"": null, ""city"": null, ""union"": null, ""address"": null, ""country"": ""Saudi Arabia"", ""district"": null, ""division"": null, ""pauroshova"": null, ""sub_district"": null, ""location_type"": null, ""area_components"": {""area"": null, ""sub_area"": null}, ""address_components"": {""road"": null, ""house"": null, ""place_name"": null}, ""distance_within_meters"": null}"
33430,Nalko li Ta'jeer Al Sayyarat,"الإدارة العامة, Prince Fahad Ibn Ibrahim Al Saud St, Al Malaz, Riyadh 12629, Saudi Arabia",Shop,Car Rental,,Open ⋅ Closes 11 PM,nlco.sa,24.6675078,46.7279557,56:38.0,56:38.0,0,.,"{""id"": null, ""area"": null, ""city"": null, ""union"": null, ""address"": null, ""country"": ""Saudi Arabia"", ""district"": null, ""division"": null, ""pauroshova"": null, ""sub_district"": null, ""location_type"": null, ""area_components"": {""area"": null, ""sub_area"": null}, ""address_components"": {""road"": null, ""house"": null, ""place_name"": null}, ""distance_within_meters"": null}"
33431,Al Muhaidib lil Wahdat al Sakaniyah,4258 طريق صلاح الدين الأيوبي، 7518 Saudi Arabia,Hotel,3 Star,,,ewaahotels.com,24.6669361,46.7303296,58:10.0,58:10.0,0,.,"{""id"": null, ""area"": null, ""city"": null, ""union"": null, ""address"": null, ""country"": ""Saudi Arabia"", ""district"": null, ""division"": null, ""pauroshova"": null, ""sub_district"": null, ""location_type"": null, ""area_components"": {""area"": null, ""sub_area"": null}, ""address_components"": {""road"": null, ""house"": null, ""place_name"": null}, ""distance_within_meters"": null}"
33432,Creative Rokz,"4234 Ibn Zaidoun St, Al Malaz, Riyadh 12629, Saudi Arabia",Office,Corporate Office,+966 11 291 2314,Open ⋅ Closes 7 PM,creativerokz.com,24.6665253,46.730079,58:25.0,58:25.0,0,.,"{""id"": null, ""area"": null, ""city"": null, ""union"": null, ""address"": null, ""country"": ""Saudi Arabia"", ""district"": null, ""division"": null, ""pauroshova"": null, ""sub_district"": null, ""location_type"": null, ""area_components"": {""area"": null, ""sub_area"": null}, ""address_components"": {""road"": null, ""house"": null, ""place_name"": null}, ""distance_within_meters"": null}"
33433,Sulaiman Al Dikhayyel Masjid,"4069 Al Nuwairy St, Al Malaz, Riyadh 12629, Saudi Arabia",Religious Place,Masjid,,,moia.gov.sa,24.6659928,46.7290438,58:42.0,58:42.0,0,.,"{""id"": null, ""area"": null, ""city"": null, ""union"": null, ""address"": null, ""country"": ""Saudi Arabia"", ""district"": null, ""division"": null, ""pauroshova"": null, ""sub_district"": null, ""location_type"": null, ""area_components"": {""area"": null, ""sub_area"": null}, ""address_components"": {""road"": null, ""house"": null, ""place_name"": null}, ""distance_within_meters"": null}"
33434,Al Kenani Advocates & Legal Consultants,"Prince Fahad Ibn Ibrahim Al Saud St, Al Malaz, Riyadh 12629, Saudi Arabia",Office,Law Firm,+966 50 008 5082,Open ⋅ Closes 5 PM,alkenanilaw.com,24.6655528,46.7281764,59:07.0,59:07.0,0,.,"{""id"": null, ""area"": null, ""city"": null, ""union"": null, ""address"": null, ""country"": ""Saudi Arabia"", ""district"": null, ""division"": null, ""pauroshova"": null, ""sub_district"": null, ""location_type"": null, ""area_components"": {""area"": null, ""sub_area"": null}, ""address_components"": {""road"": null, ""house"": null, ""place_name"": null}, ""distance_within_meters"": null}"
33438,Ministry of Finance,"7HP8MP39+C2, طريق عمر بن الخطاب،, Al Malaz, Riyadh 12641, Saudi Arabia",Government,Ministry,,Closed ⋅ Opens 8 AM Mon,mof.gov.sa,24.6535625,46.7175625,04:15.0,04:15.0,0,.,"{""id"": null, ""area"": null, ""city"": null, ""union"": null, ""address"": null, ""country"": ""Saudi Arabia"", ""district"": null, ""division"": null, ""pauroshova"": null, ""sub_district"": null, ""location_type"": null, ""area_components"": {""area"": null, ""sub_area"": null}, ""address_components"": {""road"": null, ""house"": null, ""place_name"": null}, ""distance_within_meters"": null}"
33441,Al Maqbara,"MP29+PR6, Al Malaz, Riyadh 12641, Saudi Arabia",Religious Place,Graveyard,,,,24.6517875,46.7195217,07:02.0,07:02.0,0,.,"{""id"": null, ""area"": null, ""city"": null, ""union"": null, ""address"": null, ""country"": ""Saudi Arabia"", ""district"": null, ""division"": null, ""pauroshova"": null, ""sub_district"": null, ""location_type"": null, ""area_components"": {""area"": null, ""sub_area"": null}, ""address_components"": {""road"": null, ""house"": null, ""place_name"": null}, ""distance_within_meters"": null}"
33439,Vision Realization Office,"8639, 2219, Al Malaz, Riyadh 12641, Saudi Arabia",Government,Government Office,,,mof.gov.sa,24.6538052,46.7176009,04:40.0,04:40.0,0,.,"{""id"": null, ""area"": null, ""city"": null, ""union"": null, ""address"": null, ""country"": ""Saudi Arabia"", ""district"": null, ""division"": null, ""pauroshova"": null, ""sub_district"": null, ""location_type"": null, ""area_components"": {""area"": null, ""sub_area"": null}, ""address_components"": {""road"": null, ""house"": null, ""place_name"": null}, ""distance_within_meters"": null}"
33442,Sath Al Malaz,"Omar Ibn Al Khattab Rd, Al Malaz, Riyadh 12641, Saudi Arabia",Transportation,Transport Agency,+966 57 520 4049,Open 24 hours,,24.6502786,46.7203223,07:51.0,07:51.0,0,.,"{""id"": null, ""area"": null, ""city"": null, ""union"": null, ""address"": null, ""country"": ""Saudi Arabia"", ""district"": null, ""division"": null, ""pauroshova"": null, ""sub_district"": null, ""location_type"": null, ""area_components"": {""area"": null, ""sub_area"": null}, ""address_components"": {""road"": null, ""house"": null, ""place_name"": null}, ""distance_within_meters"": null}"
33443,Aldrees,"Omar Ibn Al Khattab Rd, Al Malaz, Riyadh 12641, Saudi Arabia",Fuel,Oil,,Open 24 hours,aldrees.com,24.6494726,46.723857,08:37.0,08:37.0,0,.,"{""id"": null, ""area"": null, ""city"": null, ""union"": null, ""address"": null, ""country"": ""Saudi Arabia"", ""district"": null, ""division"": null, ""pauroshova"": null, ""sub_district"": null, ""location_type"": null, ""area_components"": {""area"": null, ""sub_area"": null}, ""address_components"": {""road"": null, ""house"": null, ""place_name"": null}, ""distance_within_meters"": null}"
33440,Dunkin,"Al Malaz, REMA8424, 8424 Bilal Ibn Salim, 2341, Al Malaz District, Riyadh 12641, Saudi Arabia",Food,Cafe,,Closes soon ⋅ 4 PM ⋅ Opens 6 AM Mon,dunkinksa.com,24.6518214,46.7185614,05:25.0,05:25.0,0,.,"{""id"": null, ""area"": null, ""city"": null, ""union"": null, ""address"": null, ""country"": ""Saudi Arabia"", ""district"": null, ""division"": null, ""pauroshova"": null, ""sub_district"": null, ""location_type"": null, ""area_components"": {""area"": null, ""sub_area"": null}, ""address_components"": {""road"": null, ""house"": null, ""place_name"": null}, ""distance_within_meters"": null}"
33444,Idarat Al Mashari' Al Mu'assasah Al Ammah lil Ta'leem Al Taqni wal Mahani,"JPXH+C3W, Al Malaz, Riyadh 12644, Saudi Arabia",Government,Government Office,,,tvtc.gov.sa,24.6486145,46.7277154,10:32.0,10:32.0,0,.,"{""id"": null, ""area"": null, ""city"": null, ""union"": null, ""address"": null, ""country"": ""Saudi Arabia"", ""district"": null, ""division"": null, ""pauroshova"": null, ""sub_district"": null, ""location_type"": null, ""area_components"": {""area"": null, ""sub_area"": null}, ""address_components"": {""road"": null, ""house"": null, ""place_name"": null}, ""distance_within_meters"": null}"
33445,Al-Idarah Al Ammah lil Marafiq wal Siyanah bil Malaz,3280 طريق عمر بن الخطاب، الملز، الرياض 12644 8088، Saudi Arabia,Government,Government Office,,,,24.6487502,46.7278016,08:57.0,08:57.0,0,.,"{""id"": null, ""area"": null, ""city"": null, ""union"": null, ""address"": null, ""country"": ""Saudi Arabia"", ""district"": null, ""division"": null, ""pauroshova"": null, ""sub_district"": null, ""location_type"": null, ""area_components"": {""area"": null, ""sub_area"": null}, ""address_components"": {""road"": null, ""house"": null, ""place_name"": null}, ""distance_within_meters"": null}"
33449,Al Quwat Al Khasah lil Amn wal Himayah,"REMA3690، 8114 Omar Ibn Al Khattab Rd, Al Sina'iyah، 3690, Riyadh 12644, Saudi Arabia",Government,Government Office,,,,24.6491814,46.7319576,12:01.0,12:01.0,0,.,"{""id"": null, ""area"": null, ""city"": null, ""union"": null, ""address"": null, ""country"": ""Saudi Arabia"", ""district"": null, ""division"": null, ""pauroshova"": null, ""sub_district"": null, ""location_type"": null, ""area_components"": {""area"": null, ""sub_area"": null}, ""address_components"": {""road"": null, ""house"": null, ""place_name"": null}, ""distance_within_meters"": null}"
33446,Nisma Al Bahja Contracting,"3403 Prince Fahad Ibn Ibrahim Al Saud St, Al Malaz, Riyadh 12644, Saudi Arabia",Office,Construction Company,+966 11 229 8108,Open ⋅ Closes 5 PM,,24.6485296,46.7287743,09:35.0,09:35.0,0,.,"{""id"": null, ""area"": null, ""city"": null, ""union"": null, ""address"": null, ""country"": ""Saudi Arabia"", ""district"": null, ""division"": null, ""pauroshova"": null, ""sub_district"": null, ""location_type"": null, ""area_components"": {""area"": null, ""sub_area"": null}, ""address_components"": {""road"": null, ""house"": null, ""place_name"": null}, ""distance_within_meters"": null}"
33447,Autopro,"JPXH+GMW, Al Malaz, Riyadh 12644, Saudi Arabia",Transportation,Transport Agency,,,,24.6488717,46.7292017,10:03.0,10:03.0,0,.,"{""id"": null, ""area"": null, ""city"": null, ""union"": null, ""address"": null, ""country"": ""Saudi Arabia"", ""district"": null, ""division"": null, ""pauroshova"": null, ""sub_district"": null, ""location_type"": null, ""area_components"": {""area"": null, ""sub_area"": null}, ""address_components"": {""road"": null, ""house"": null, ""place_name"": null}, ""distance_within_meters"": null}"
33448,RIYAT MITSUBISHI ARAC BAKIM SERVISI,"8245 Umm Al Ala Bint Al Hafidh, 3517, Al Malaz, 8169، Riyadh 12644, Saudi Arabia",Office,Corporate Office,,Open ⋅ Closes 4:30 PM,,24.6501907,46.7299859,11:08.0,11:08.0,0,.,"{""id"": null, ""area"": null, ""city"": null, ""union"": null, ""address"": null, ""country"": ""Saudi Arabia"", ""district"": null, ""division"": null, ""pauroshova"": null, ""sub_district"": null, ""location_type"": null, ""area_components"": {""area"": null, ""sub_area"": null}, ""address_components"": {""road"": null, ""house"": null, ""place_name"": null}, ""distance_within_meters"": null}"
33450,Mahatat Abar Al Dhahab li Khadamat Al Sayarat,"8384 الظهران الفرعي, Al Malaz, 3905، Riyadh 12644, Saudi Arabia",Fuel,Oil,,Open ⋅ Closes 11:30 PM,,24.6513126,46.7340361,14:11.0,14:11.0,0,.,"{""id"": null, ""area"": null, ""city"": null, ""union"": null, ""address"": null, ""country"": ""Saudi Arabia"", ""district"": null, ""division"": null, ""pauroshova"": null, ""sub_district"": null, ""location_type"": null, ""area_components"": {""area"": null, ""sub_area"": null}, ""address_components"": {""road"": null, ""house"": null, ""place_name"": null}, ""distance_within_meters"": null}"
33451,Al Sharikah Al Saudiyyah lil Kahraba' A'mal Al Mintaqah Al Wusta,"8576 الظهران، 3804, Al Malaz, Riyadh 12642, Saudi Arabia",Utility,Power Station,+966 9200 01100,Open 24 hours,,24.652926,46.7333936,15:58.0,15:58.0,0,.,"{""id"": null, ""area"": null, ""city"": null, ""union"": null, ""address"": null, ""country"": ""Saudi Arabia"", ""district"": null, ""division"": null, ""pauroshova"": null, ""sub_district"": null, ""location_type"": null, ""area_components"": {""area"": null, ""sub_area"": null}, ""address_components"": {""road"": null, ""house"": null, ""place_name"": null}, ""distance_within_meters"": null}"
33452,Al Dharan 101,"Al Malaz, Riyadh 12642, Saudi Arabia",Transportation,Bus Stand,,,,24.6532261,46.7344754,16:33.0,16:33.0,0,.,"{""id"": null, ""area"": null, ""city"": null, ""union"": null, ""address"": null, ""country"": ""Saudi Arabia"", ""district"": null, ""division"": null, ""pauroshova"": null, ""sub_district"": null, ""location_type"": null, ""area_components"": {""area"": null, ""sub_area"": null}, ""address_components"": {""road"": null, ""house"": null, ""place_name"": null}, ""distance_within_meters"": null}"
33453,MANS SAUDI COMPANY FOR TRADING,"8786 الظهران، 3966, Al Malaz, Riyadh 12642, Saudi Arabia",Construction,Hardware,+966 11 478 0352,,,24.6550425,46.7347036,18:26.0,18:26.0,0,.,"{""id"": null, ""area"": null, ""city"": null, ""union"": null, ""address"": null, ""country"": ""Saudi Arabia"", ""district"": null, ""division"": null, ""pauroshova"": null, ""sub_district"": null, ""location_type"": null, ""area_components"": {""area"": null, ""sub_area"": null}, ""address_components"": {""road"": null, ""house"": null, ""place_name"": null}, ""distance_within_meters"": null}"
33454,Masjid Al Malaz Al Janoubi,"3852 Abi Bakr Al Harani, Al Malaz Riyadh 12642 8731 Abi Bakr Al Harani, 8731, Al Malaz, Riyadh 12642, Saudi Arabia",Religious Place,Masjid,,,,24.6545261,46.7340317,19:22.0,19:22.0,0,.,"{""id"": null, ""area"": null, ""city"": null, ""union"": null, ""address"": null, ""country"": ""Saudi Arabia"", ""district"": null, ""division"": null, ""pauroshova"": null, ""sub_district"": null, ""location_type"": null, ""area_components"": {""area"": null, ""sub_area"": null}, ""address_components"": {""road"": null, ""house"": null, ""place_name"": null}, ""distance_within_meters"": null}"
33455,Makhbaz Tamees,"Prince Fahad Ibn Ibrahim Al Saud St Prince Fahad Ibn Ibrahim Al Saud St, Al Malaz, Riyadh 12642, Saudi Arabia",Food,Bakery,,Open ⋅ Closes 11 PM,,24.6562224,46.7306551,20:33.0,20:33.0,0,.,"{""id"": null, ""area"": null, ""city"": null, ""union"": null, ""address"": null, ""country"": ""Saudi Arabia"", ""district"": null, ""division"": null, ""pauroshova"": null, ""sub_district"": null, ""location_type"": null, ""area_components"": {""area"": null, ""sub_area"": null}, ""address_components"": {""road"": null, ""house"": null, ""place_name"": null}, ""distance_within_meters"": null}"
33456,POOL TAWA,"MP4J+F6J, Al Malaz, Riyadh 12642, Saudi Arabia",Food,Restaurant,,,,24.6562047,46.7305281,22:41.0,22:41.0,0,.,"{""id"": null, ""area"": null, ""city"": null, ""union"": null, ""address"": null, ""country"": ""Saudi Arabia"", ""district"": null, ""division"": null, ""pauroshova"": null, ""sub_district"": null, ""location_type"": null, ""area_components"": {""area"": null, ""sub_area"": null}, ""address_components"": {""road"": null, ""house"": null, ""place_name"": null}, ""distance_within_meters"": null}"
33457,Sign Blocks,"Al manaka, Al Malaz, Riyadh 12642, Saudi Arabia",Office,Advertising Agency,,Open 24 hours,advsignblocks.com,24.6571248,46.7309264,23:00.0,23:00.0,0,.,"{""id"": null, ""area"": null, ""city"": null, ""union"": null, ""address"": null, ""country"": ""Saudi Arabia"", ""district"": null, ""division"": null, ""pauroshova"": null, ""sub_district"": null, ""location_type"": null, ""area_components"": {""area"": null, ""sub_area"": null}, ""address_components"": {""road"": null, ""house"": null, ""place_name"": null}, ""distance_within_meters"": null}"
33458,Prince Sultan bin Abdulaziz College for Emergency Medical Services,"9063 Prince Fahad bin Ibrahim Street, Al Malaz District 12642 - 3569, Riyadh Saudi Arabia",Education,College,,Closed ⋅ Opens 8 AM,pscems.ksu.edu.sa,24.6576831,46.730824,23:24.0,23:24.0,0,.,"{""id"": null, ""area"": null, ""city"": null, ""union"": null, ""address"": null, ""country"": ""Saudi Arabia"", ""district"": null, ""division"": null, ""pauroshova"": null, ""sub_district"": null, ""location_type"": null, ""area_components"": {""area"": null, ""sub_area"": null}, ""address_components"": {""road"": null, ""house"": null, ""place_name"": null}, ""distance_within_meters"": null}"
33459,Jami'at Al Malik Saud,"MP5J+39Q, Prince Fahad Ibn Ibrahim Al Saud St, Al Malaz, Riyadh 12642, Saudi Arabia",Education,University,+966 11 805 9250,Opens soon ⋅ 7:30 AM,pscems.ksu.edu.sa,24.6577125,46.7309697,25:19.0,25:19.0,0,.,"{""id"": null, ""area"": null, ""city"": null, ""union"": null, ""address"": null, ""country"": ""Saudi Arabia"", ""district"": null, ""division"": null, ""pauroshova"": null, ""sub_district"": null, ""location_type"": null, ""area_components"": {""area"": null, ""sub_area"": null}, ""address_components"": {""road"": null, ""house"": null, ""place_name"": null}, ""distance_within_meters"": null}"
33460,Aljomaih Mosque,"MP5J+54J, Al Malaz, Riyadh 12642, Saudi Arabia",Religious Place,Masjid,,,,24.6579611,46.7302686,25:30.0,25:30.0,0,.,"{""id"": null, ""area"": null, ""city"": null, ""union"": null, ""address"": null, ""country"": ""Saudi Arabia"", ""district"": null, ""division"": null, ""pauroshova"": null, ""sub_district"": null, ""location_type"": null, ""area_components"": {""area"": null, ""sub_area"": null}, ""address_components"": {""road"": null, ""house"": null, ""place_name"": null}, ""distance_within_meters"": null}"
33461,Othaim Market,"ابن إبراهيم, شارع الأمير فهد, Riyadh Saudi Arabia",Commercial,Market,,Open ⋅ Closes 1:45 AM,othaimmarkets.com,24.659421,46.730035,26:47.0,27:05.0,2,.,"{""id"": null, ""area"": null, ""city"": null, ""union"": null, ""address"": null, ""country"": ""Saudi Arabia"", ""district"": null, ""division"": null, ""pauroshova"": null, ""sub_district"": null, ""location_type"": null, ""area_components"": {""area"": null, ""sub_area"": null}, ""address_components"": {""road"": null, ""house"": null, ""place_name"": null}, ""distance_within_meters"": null}"
33462,Othaim Markets,"ابن إبراهيم, شارع الأمير فهد, Riyadh Saudi Arabia",Shop,Super Shop,,Open ⋅ Closes 1:45 AM,othaimmarkets.com,24.659421,46.730035,27:25.0,27:25.0,0,.,"{""id"": null, ""area"": null, ""city"": null, ""union"": null, ""address"": null, ""country"": ""Saudi Arabia"", ""district"": null, ""division"": null, ""pauroshova"": null, ""sub_district"": null, ""location_type"": null, ""area_components"": {""area"": null, ""sub_area"": null}, ""address_components"": {""road"": null, ""house"": null, ""place_name"": null}, ""distance_within_meters"": null}"
33463,Imarat Al Othaim,"3473 Prince Fahad Ibn Ibrahim Al Saud St, Al Malaz, 9259, Riyadh 12642, Saudi Arabia",Hotel,2 Star,,,,24.6592622,46.7299096,29:01.0,29:01.0,0,.,"{""id"": null, ""area"": null, ""city"": null, ""union"": null, ""address"": null, ""country"": ""Saudi Arabia"", ""district"": null, ""division"": null, ""pauroshova"": null, ""sub_district"": null, ""location_type"": null, ""area_components"": {""area"": null, ""sub_area"": null}, ""address_components"": {""road"": null, ""house"": null, ""place_name"": null}, ""distance_within_meters"": null}"
33424,GeoTech Co,"Joundab Ibn Kaab, Al Malaz، الملز شارع الستين بالقرب من تقاطع الستين مع جرير, Riyadh 12629, Saudi Arabia",Office,Corporate Office,,Open ⋅ Closes 5:30 PM,geotech-sa.com,24.6689297,46.7283867,50:49.0,50:49.0,0,.,"{""id"": null, ""area"": null, ""city"": null, ""union"": null, ""address"": null, ""country"": ""Saudi Arabia"", ""district"": null, ""division"": null, ""pauroshova"": null, ""sub_district"": null, ""location_type"": null, ""area_components"": {""area"": null, ""sub_area"": null}, ""address_components"": {""road"": null, ""house"": null, ""place_name"": null}, ""distance_within_meters"": null}"
33464,Funduq Al Ayon,"MP6H+3V4, Al Malaz, Riyadh 12642, Saudi Arabia",Hotel,2 Star,,,,24.6601439,46.7297032,30:35.0,30:35.0,0,.,"{""id"": null, ""area"": null, ""city"": null, ""union"": null, ""address"": null, ""country"": ""Saudi Arabia"", ""district"": null, ""division"": null, ""pauroshova"": null, ""sub_district"": null, ""location_type"": null, ""area_components"": {""area"": null, ""sub_area"": null}, ""address_components"": {""road"": null, ""house"": null, ""place_name"": null}, ""distance_within_meters"": null}"
33465,64 Primary School,"MP6J+HGM, Prince Thamar Bin Abdulaziz St, Al Malaz, Riyadh 12642, Saudi Arabia",Education,School,+966 11 255 2111,,moe.gov.sa,24.6614581,46.7313015,31:10.0,31:10.0,0,.,"{""id"": null, ""area"": null, ""city"": null, ""union"": null, ""address"": null, ""country"": ""Saudi Arabia"", ""district"": null, ""division"": null, ""pauroshova"": null, ""sub_district"": null, ""location_type"": null, ""area_components"": {""area"": null, ""sub_area"": null}, ""address_components"": {""road"": null, ""house"": null, ""place_name"": null}, ""distance_within_meters"": null}"
33469,Rasimah Pharmacy,"7794 Arwa Bint Abd Al Mouttaleb, Al Malaz, Riyadh 12841, Saudi Arabia",Shop,Pharmacy,,Open ⋅ Closes 2 AM,,24.6555902,46.7440665,14:20.0,14:20.0,0,.,"{""id"": null, ""area"": null, ""city"": null, ""union"": null, ""address"": null, ""country"": ""Saudi Arabia"", ""district"": null, ""division"": null, ""pauroshova"": null, ""sub_district"": null, ""location_type"": null, ""area_components"": {""area"": null, ""sub_area"": null}, ""address_components"": {""road"": null, ""house"": null, ""place_name"": null}, ""distance_within_meters"": null}"
33471,Masjid,"2820 Ibn Al Mudhazali, Al Malaz, Riyadh 12841, Saudi Arabia",Religious Place,Masjid,,,,24.6544834,46.741381,16:56.0,16:56.0,0,.,"{""id"": null, ""area"": null, ""city"": null, ""union"": null, ""address"": null, ""country"": ""Saudi Arabia"", ""district"": null, ""division"": null, ""pauroshova"": null, ""sub_district"": null, ""location_type"": null, ""area_components"": {""area"": null, ""sub_area"": null}, ""address_components"": {""road"": null, ""house"": null, ""place_name"": null}, ""distance_within_meters"": null}"
33466,"Ikhtibar Al Tahseeli wal Qudrat, Kulliyat Al Mujtama' (Jadid)",3707 الجامعة، الملز الرياض 12642 Saudi Arabia,Education,University,,,,24.6626007,46.7322453,35:15.0,35:15.0,0,.,"{""id"": null, ""area"": null, ""city"": null, ""union"": null, ""address"": null, ""country"": ""Saudi Arabia"", ""district"": null, ""division"": null, ""pauroshova"": null, ""sub_district"": null, ""location_type"": null, ""area_components"": {""area"": null, ""sub_area"": null}, ""address_components"": {""road"": null, ""house"": null, ""place_name"": null}, ""distance_within_meters"": null}"
33470,Jami' Al Amir Mutaib Al Gharbi,"7656 Abdul Rahman Ibn Al Imam, Al Malaz, Riyadh 12841, Saudi Arabia",Religious Place,Masjid,,,,24.6545291,46.7417738,15:03.0,15:03.0,0,.,"{""id"": null, ""area"": null, ""city"": null, ""union"": null, ""address"": null, ""country"": ""Saudi Arabia"", ""district"": null, ""division"": null, ""pauroshova"": null, ""sub_district"": null, ""location_type"": null, ""area_components"": {""area"": null, ""sub_area"": null}, ""address_components"": {""road"": null, ""house"": null, ""place_name"": null}, ""distance_within_meters"": null}"
33467,King Saud University,"MP7J+4MW, Shaddad Al Fahri, Al Malaz, Riyadh 12642, Saudi Arabia",Education,University,+966 11 805 8801,,rcc.ksu.edu.sa,24.6628502,46.7316918,36:06.0,36:06.0,0,.,"{""id"": null, ""area"": null, ""city"": null, ""union"": null, ""address"": null, ""country"": ""Saudi Arabia"", ""district"": null, ""division"": null, ""pauroshova"": null, ""sub_district"": null, ""location_type"": null, ""area_components"": {""area"": null, ""sub_area"": null}, ""address_components"": {""road"": null, ""house"": null, ""place_name"": null}, ""distance_within_meters"": null}"
33472,Masjid Al Ghufais,"2656 Ibn Widaa, 2656، 7653, Riyadh 12841, Saudi Arabia",Religious Place,Masjid,,,,24.6545471,46.7397136,17:38.0,17:38.0,0,.,"{""id"": null, ""area"": null, ""city"": null, ""union"": null, ""address"": null, ""country"": ""Saudi Arabia"", ""district"": null, ""division"": null, ""pauroshova"": null, ""sub_district"": null, ""location_type"": null, ""area_components"": {""area"": null, ""sub_area"": null}, ""address_components"": {""road"": null, ""house"": null, ""place_name"": null}, ""distance_within_meters"": null}"
33474,Manzil Yahya Al Sarkhi,"Dhahran St, Al Malaz, Riyadh 12841, Saudi Arabia",Residential,Hostel,,,,24.6561066,46.7372654,19:55.0,19:55.0,0,.,"{""id"": null, ""area"": null, ""city"": null, ""union"": null, ""address"": null, ""country"": ""Saudi Arabia"", ""district"": null, ""division"": null, ""pauroshova"": null, ""sub_district"": null, ""location_type"": null, ""area_components"": {""area"": null, ""sub_area"": null}, ""address_components"": {""road"": null, ""house"": null, ""place_name"": null}, ""distance_within_meters"": null}"
33475,Masjid Jarallah Al Eid,"الخفجي Al Khafaji, 7862, Al Malaz, Riyadh 12841, Saudi Arabia",Religious Place,Masjid,,,,24.6563574,46.7369714,20:26.0,20:26.0,0,.,"{""id"": null, ""area"": null, ""city"": null, ""union"": null, ""address"": null, ""country"": ""Saudi Arabia"", ""district"": null, ""division"": null, ""pauroshova"": null, ""sub_district"": null, ""location_type"": null, ""area_components"": {""area"": null, ""sub_area"": null}, ""address_components"": {""road"": null, ""house"": null, ""place_name"": null}, ""distance_within_meters"": null}"
33476,Musalla Al Nisa,"2577 Prince Abdul Muhsin Bin Abdulaziz Rd, 7960, Al Malaz, Riyadh 12841, Saudi Arabia",Religious Place,Masjid,,,,24.6572516,46.7390427,21:24.0,21:24.0,0,.,"{""id"": null, ""area"": null, ""city"": null, ""union"": null, ""address"": null, ""country"": ""Saudi Arabia"", ""district"": null, ""division"": null, ""pauroshova"": null, ""sub_district"": null, ""location_type"": null, ""area_components"": {""area"": null, ""sub_area"": null}, ""address_components"": {""road"": null, ""house"": null, ""place_name"": null}, ""distance_within_meters"": null}"
33473,Maktab Al Muhami Nasser bin Rajeh Al Otaibi lil Muhamah wal Istisharat Al Qanuniyyah,"Omar Ibn Al Khattab Rd, Al Malaz, Riyadh 14713, Saudi Arabia",Office,Law Firm,+966 53 375 0530,Open ⋅ Closes 6 PM,,24.6532991,46.7402988,19:09.0,19:09.0,0,.,"{""id"": null, ""area"": null, ""city"": null, ""union"": null, ""address"": null, ""country"": ""Saudi Arabia"", ""district"": null, ""division"": null, ""pauroshova"": null, ""sub_district"": null, ""location_type"": null, ""area_components"": {""area"": null, ""sub_area"": null}, ""address_components"": {""road"": null, ""house"": null, ""place_name"": null}, ""distance_within_meters"": null}"
33477,"International Indian School, Riyadh (Girl's Section)","3029 Al Safrat, Al Malaz, Riyadh 12641, Saudi Arabia",Education,School,,Open ⋅ Closes 2 PM,iisriyadh.com,24.6551349,46.7259988,22:47.0,22:47.0,0,.,"{""id"": null, ""area"": null, ""city"": null, ""union"": null, ""address"": null, ""country"": ""Saudi Arabia"", ""district"": null, ""division"": null, ""pauroshova"": null, ""sub_district"": null, ""location_type"": null, ""area_components"": {""area"": null, ""sub_area"": null}, ""address_components"": {""road"": null, ""house"": null, ""place_name"": null}, ""distance_within_meters"": null}"
33478,Masjid Al Alawi,"MP4R+J74, Al Malaz, Riyadh 12841, Saudi Arabia",Religious Place,Masjid,+966 55 587 3694,Open 24 hours,,24.6565098,46.740696,23:55.0,23:55.0,0,.,"{""id"": null, ""area"": null, ""city"": null, ""union"": null, ""address"": null, ""country"": ""Saudi Arabia"", ""district"": null, ""division"": null, ""pauroshova"": null, ""sub_district"": null, ""location_type"": null, ""area_components"": {""area"": null, ""sub_area"": null}, ""address_components"": {""road"": null, ""house"": null, ""place_name"": null}, ""distance_within_meters"": null}"
33479,King Abdullah Park,"Al Ameen Abdullah Al Ali Al Naeem St, Al Malaz, Riyadh 12836, Saudi Arabia",Recreation,Park,,Closed ⋅ Opens 1 PM,,24.6663657,46.7371594,24:21.0,24:21.0,0,.,"{""id"": null, ""area"": null, ""city"": null, ""union"": null, ""address"": null, ""country"": ""Saudi Arabia"", ""district"": null, ""division"": null, ""pauroshova"": null, ""sub_district"": null, ""location_type"": null, ""area_components"": {""area"": null, ""sub_area"": null}, ""address_components"": {""road"": null, ""house"": null, ""place_name"": null}, ""distance_within_meters"": null}"
33480,Prince Faisal Bin Fahd Stadium,"من, Al Ameen Abdullah Al Ali Al Naeem St، طريق صلاح الدين الايوبي, Riyadh 12836, Saudi Arabia",Recreation,Stadium,+966 11 478 2222,,mos.gov.sa,24.6626929,46.739759,24:45.0,24:45.0,0,.,"{""id"": null, ""area"": null, ""city"": null, ""union"": null, ""address"": null, ""country"": ""Saudi Arabia"", ""district"": null, ""division"": null, ""pauroshova"": null, ""sub_district"": null, ""location_type"": null, ""area_components"": {""area"": null, ""sub_area"": null}, ""address_components"": {""road"": null, ""house"": null, ""place_name"": null}, ""distance_within_meters"": null}"
33481,Aldrees,"شارع الظهران،جنوب استاد الامير فيصل بن فهد، الملز،, Riyadh 12841, Saudi Arabia",Fuel,Oil,,Open 24 hours,aldrees.com,24.6581146,46.735875,26:35.0,26:35.0,0,.,"{""id"": null, ""area"": null, ""city"": null, ""union"": null, ""address"": null, ""country"": ""Saudi Arabia"", ""district"": null, ""division"": null, ""pauroshova"": null, ""sub_district"": null, ""location_type"": null, ""area_components"": {""area"": null, ""sub_area"": null}, ""address_components"": {""road"": null, ""house"": null, ""place_name"": null}, ""distance_within_meters"": null}"
33484,Corner Bukhari Restaurant,"9366 الظهران, Al Malaz, Riyadh 12642, Saudi Arabia",Food,Restaurant,+966 11 479 2214,Closed ⋅ Opens 8 PM,,24.6600864,46.7355455,27:43.0,27:43.0,0,.,"{""id"": null, ""area"": null, ""city"": null, ""union"": null, ""address"": null, ""country"": ""Saudi Arabia"", ""district"": null, ""division"": null, ""pauroshova"": null, ""sub_district"": null, ""location_type"": null, ""area_components"": {""area"": null, ""sub_area"": null}, ""address_components"": {""road"": null, ""house"": null, ""place_name"": null}, ""distance_within_meters"": null}"
33485,Mat'am Nadi Al Furusiyyah,"6199 شارع الأمين عبدالله العلي النعيم،، الملز،, Riyadh 12836،, Saudi Arabia",Food,Restaurant,,,,24.6636656,46.7348561,28:36.0,28:36.0,0,.,"{""id"": null, ""area"": null, ""city"": null, ""union"": null, ""address"": null, ""country"": ""Saudi Arabia"", ""district"": null, ""division"": null, ""pauroshova"": null, ""sub_district"": null, ""location_type"": null, ""area_components"": {""area"": null, ""sub_area"": null}, ""address_components"": {""road"": null, ""house"": null, ""place_name"": null}, ""distance_within_meters"": null}"
33491,Madrassat Umm Yazid Bint Al Harith lil Tufulah Al Mubakkirah,"Al Malaz, Riyadh 11101, Saudi Arabia",Education,School,,Open ⋅ Closes 12 PM,,24.6681242,46.7440798,31:17.0,31:17.0,0,.,"{""id"": null, ""area"": null, ""city"": null, ""union"": null, ""address"": null, ""country"": ""Saudi Arabia"", ""district"": null, ""division"": null, ""pauroshova"": null, ""sub_district"": null, ""location_type"": null, ""area_components"": {""area"": null, ""sub_area"": null}, ""address_components"": {""road"": null, ""house"": null, ""place_name"": null}, ""distance_within_meters"": null}"
33482,Fast Coffee,"MP5P+57Q حي, Dhahran St, Al Malaz, Riyadh 12841, Saudi Arabia",Food,Cafe,,Open 24 hours,,24.6579711,46.7357205,26:51.0,26:51.0,0,.,"{""id"": null, ""area"": null, ""city"": null, ""union"": null, ""address"": null, ""country"": ""Saudi Arabia"", ""district"": null, ""division"": null, ""pauroshova"": null, ""sub_district"": null, ""location_type"": null, ""area_components"": {""area"": null, ""sub_area"": null}, ""address_components"": {""road"": null, ""house"": null, ""place_name"": null}, ""distance_within_meters"": null}"
33486,Malaz Clinic,"6772 Al Imam Ali Ibn Abi Taleb, 4125, Al Malaz, Riyadh 12836, Saudi Arabia",Healthcare,Clinic,,,,24.6676781,46.7474144,28:59.0,28:59.0,0,.,"{""id"": null, ""area"": null, ""city"": null, ""union"": null, ""address"": null, ""country"": ""Saudi Arabia"", ""district"": null, ""division"": null, ""pauroshova"": null, ""sub_district"": null, ""location_type"": null, ""area_components"": {""area"": null, ""sub_area"": null}, ""address_components"": {""road"": null, ""house"": null, ""place_name"": null}, ""distance_within_meters"": null}"
33483,Lagate,"MP5P+775, Dhahran St, Al Malaz, Riyadh 12841, Saudi Arabia",Shop,Super Shop,,Open 24 hours,lagate.sa,24.6582348,46.7358828,27:22.0,27:22.0,0,.,"{""id"": null, ""area"": null, ""city"": null, ""union"": null, ""address"": null, ""country"": ""Saudi Arabia"", ""district"": null, ""division"": null, ""pauroshova"": null, ""sub_district"": null, ""location_type"": null, ""area_components"": {""area"": null, ""sub_area"": null}, ""address_components"": {""road"": null, ""house"": null, ""place_name"": null}, ""distance_within_meters"": null}"
33487,Smart Controls Systems Company,"7047 Al Amir Saud Ibn Abdul Rahman, Jarir, Riyadh 12837, Saudi Arabia",Office,Corporate Office,,,,24.6681327,46.7470741,29:14.0,29:14.0,0,.,"{""id"": null, ""area"": null, ""city"": null, ""union"": null, ""address"": null, ""country"": ""Saudi Arabia"", ""district"": null, ""division"": null, ""pauroshova"": null, ""sub_district"": null, ""location_type"": null, ""area_components"": {""area"": null, ""sub_area"": null}, ""address_components"": {""road"": null, ""house"": null, ""place_name"": null}, ""distance_within_meters"": null}"
33488,Al Yasmin International School,"Ibn Fares, Street، Riyadh 12836, Saudi Arabia",Education,School,+966 9200 00451,Open ⋅ Closes 1:30 PM,alyasmin.edu.sa,24.6660275,46.7436318,29:38.0,29:38.0,0,.,"{""id"": null, ""area"": null, ""city"": null, ""union"": null, ""address"": null, ""country"": ""Saudi Arabia"", ""district"": null, ""division"": null, ""pauroshova"": null, ""sub_district"": null, ""location_type"": null, ""area_components"": {""area"": null, ""sub_area"": null}, ""address_components"": {""road"": null, ""house"": null, ""place_name"": null}, ""distance_within_meters"": null}"
33492,Idarat Al Adillah Al Jina'iyyah,"3866 ابن قيم الجوزية، 7066، الملز،, Riyadh 12836, Saudi Arabia",Government,Government Office,,Open ⋅ Closes 2:15 PM,,24.6704134,46.7447564,31:55.0,31:55.0,0,.,"{""id"": null, ""area"": null, ""city"": null, ""union"": null, ""address"": null, ""country"": ""Saudi Arabia"", ""district"": null, ""division"": null, ""pauroshova"": null, ""sub_district"": null, ""location_type"": null, ""area_components"": {""area"": null, ""sub_area"": null}, ""address_components"": {""road"": null, ""house"": null, ""place_name"": null}, ""distance_within_meters"": null}"
33489,General Directorate of Criminal Evidence,"Ibn Qaim Al Jouziyah, Al Malaz, Riyadh 12836, Saudi Arabia",Government,Government Office,,Open ⋅ Closes 2 PM,,24.6684802,46.74473,30:14.0,30:14.0,0,.,"{""id"": null, ""area"": null, ""city"": null, ""union"": null, ""address"": null, ""country"": ""Saudi Arabia"", ""district"": null, ""division"": null, ""pauroshova"": null, ""sub_district"": null, ""location_type"": null, ""area_components"": {""area"": null, ""sub_area"": null}, ""address_components"": {""road"": null, ""house"": null, ""place_name"": null}, ""distance_within_meters"": null}"
33490,KAMputer Interactive & 3D Interiors,"Ibn Abi Ar Raja, Al Malaz, Riyadh 12836, Saudi Arabia",Office,Software Company,+966 54 725 1944,Opens soon ⋅ 9 AM,,24.6685007,46.7438683,30:27.0,30:27.0,0,.,"{""id"": null, ""area"": null, ""city"": null, ""union"": null, ""address"": null, ""country"": ""Saudi Arabia"", ""district"": null, ""division"": null, ""pauroshova"": null, ""sub_district"": null, ""location_type"": null, ""area_components"": {""area"": null, ""sub_area"": null}, ""address_components"": {""road"": null, ""house"": null, ""place_name"": null}, ""distance_within_meters"": null}"
33493,Police Clearance Office,"7055 Ibn Qaim Al Jouziyah, Al Malaz, 3816, Riyadh 12836, Saudi Arabia",Government,Police Office,,Open ⋅ Closes 2 PM,,24.6702371,46.7443411,32:10.0,32:18.0,2,.,"{""id"": null, ""area"": null, ""city"": null, ""union"": null, ""address"": null, ""country"": ""Saudi Arabia"", ""district"": null, ""division"": null, ""pauroshova"": null, ""sub_district"": null, ""location_type"": null, ""area_components"": {""area"": null, ""sub_area"": null}, ""address_components"": {""road"": null, ""house"": null, ""place_name"": null}, ""distance_within_meters"": null}"
33494,Police Clearance Office,"7055 Ibn Qaim Al Jouziyah, Al Malaz, 3816, Riyadh 12836, Saudi Arabia",Government,Government Office,,Open ⋅ Closes 2 PM,,24.6702371,46.7443411,32:35.0,32:35.0,0,.,"{""id"": null, ""area"": null, ""city"": null, ""union"": null, ""address"": null, ""country"": ""Saudi Arabia"", ""district"": null, ""division"": null, ""pauroshova"": null, ""sub_district"": null, ""location_type"": null, ""area_components"": {""area"": null, ""sub_area"": null}, ""address_components"": {""road"": null, ""house"": null, ""place_name"": null}, ""distance_within_meters"": null}"
33500,SNB AlAhli,"MP4R+W7, Prince Abdul Muhsin Bin Abdulaziz Rd, Al Malaz, Riyadh 12841, Saudi Arabia",Bank,Bank Branch,,Closed ⋅ Opens 9:30 AM,alahli.com,24.6572907,46.7406688,34:31.0,34:31.0,0,.,"{""id"": null, ""area"": null, ""city"": null, ""union"": null, ""address"": null, ""country"": ""Saudi Arabia"", ""district"": null, ""division"": null, ""pauroshova"": null, ""sub_district"": null, ""location_type"": null, ""area_components"": {""area"": null, ""sub_area"": null}, ""address_components"": {""road"": null, ""house"": null, ""place_name"": null}, ""distance_within_meters"": null}"
33495,Riyad Bank ATM,"مبنى الغامدي, 3827 Jarir Street MPFV+5Q Al Malaz, Riyadh Saudi Arabia Al Ghamdi Building, Riyadh 12836, Saudi Arabia",Bank,ATM,,Open 24 hours,riyadbank.com,24.6729,46.7444,33:04.0,33:04.0,0,.,"{""id"": null, ""area"": null, ""city"": null, ""union"": null, ""address"": null, ""country"": ""Saudi Arabia"", ""district"": null, ""division"": null, ""pauroshova"": null, ""sub_district"": null, ""location_type"": null, ""area_components"": {""area"": null, ""sub_area"": null}, ""address_components"": {""road"": null, ""house"": null, ""place_name"": null}, ""distance_within_meters"": null}"
33501,Riyad Bank ATM,"7205 المهندس عمر قاضي, Al Malaz, Riyadh 12831, Saudi Arabia",Bank,ATM,,Open 24 hours,riyadbank.com,24.672455,46.7322668,35:07.0,35:07.0,0,.,"{""id"": null, ""area"": null, ""city"": null, ""union"": null, ""address"": null, ""country"": ""Saudi Arabia"", ""district"": null, ""division"": null, ""pauroshova"": null, ""sub_district"": null, ""location_type"": null, ""area_components"": {""area"": null, ""sub_area"": null}, ""address_components"": {""road"": null, ""house"": null, ""place_name"": null}, ""distance_within_meters"": null}"
33496,Bank Albilad,"MPCH+CC, Salah Ad Din Al Ayyubi Rd, Al Malaz، 7143 Salah Ad Din Al Ayyubi Road, Riyadh 12831, Saudi Arabia",Bank,Bank Branch,,Closed ⋅ Opens 9:30 AM,,24.6710625,46.7285625,33:14.0,33:14.0,0,.,"{""id"": null, ""area"": null, ""city"": null, ""union"": null, ""address"": null, ""country"": ""Saudi Arabia"", ""district"": null, ""division"": null, ""pauroshova"": null, ""sub_district"": null, ""location_type"": null, ""area_components"": {""area"": null, ""sub_area"": null}, ""address_components"": {""road"": null, ""house"": null, ""place_name"": null}, ""distance_within_meters"": null}"
33502,SNB AlAhli,"MP39+C8, Bilal Ibn Salim, Al Malaz, Riyadh 12641, Saudi Arabia",Bank,Bank Branch,,Closed ⋅ Opens 9:30 AM,alahli.com,24.6535625,46.7183125,35:34.0,35:34.0,0,.,"{""id"": null, ""area"": null, ""city"": null, ""union"": null, ""address"": null, ""country"": ""Saudi Arabia"", ""district"": null, ""division"": null, ""pauroshova"": null, ""sub_district"": null, ""location_type"": null, ""area_components"": {""area"": null, ""sub_area"": null}, ""address_components"": {""road"": null, ""house"": null, ""place_name"": null}, ""distance_within_meters"": null}"
33503,Kayan Care Pharmacy‎,"Zeid Ibn Al Khattab, Al Malaz, Riyadh 12841, Saudi Arabia",Shop,Pharmacy,,Open 24 hours,,24.6562998,46.7441442,36:14.0,36:14.0,0,.,"{""id"": null, ""area"": null, ""city"": null, ""union"": null, ""address"": null, ""country"": ""Saudi Arabia"", ""district"": null, ""division"": null, ""pauroshova"": null, ""sub_district"": null, ""location_type"": null, ""area_components"": {""area"": null, ""sub_area"": null}, ""address_components"": {""road"": null, ""house"": null, ""place_name"": null}, ""distance_within_meters"": null}"
33497,SNB AlAhli,"MPGH+43, Salah Ad Din Al Ayyubi Rd, Al Malaz, Riyadh 12831, Saudi Arabia",Bank,Bank Branch,,Closed ⋅ Opens 9:30 AM,alahli.com,24.675312,46.7277162,33:33.0,33:33.0,0,.,"{""id"": null, ""area"": null, ""city"": null, ""union"": null, ""address"": null, ""country"": ""Saudi Arabia"", ""district"": null, ""division"": null, ""pauroshova"": null, ""sub_district"": null, ""location_type"": null, ""area_components"": {""area"": null, ""sub_area"": null}, ""address_components"": {""road"": null, ""house"": null, ""place_name"": null}, ""distance_within_meters"": null}"
33504,Rasimah Pharmacy,"7794 Arwa Bint Abd Al Mouttaleb, Al Malaz, Riyadh 12841, Saudi Arabia",Shop,Pharmacy,,Open ⋅ Closes 2 AM,,24.6555902,46.7440665,36:23.0,36:23.0,0,.,"{""id"": null, ""area"": null, ""city"": null, ""union"": null, ""address"": null, ""country"": ""Saudi Arabia"", ""district"": null, ""division"": null, ""pauroshova"": null, ""sub_district"": null, ""location_type"": null, ""area_components"": {""area"": null, ""sub_area"": null}, ""address_components"": {""road"": null, ""house"": null, ""place_name"": null}, ""distance_within_meters"": null}"
33505,Sceco office,"MP2G+XGH, Al Malaz, Riyadh 12644, Saudi Arabia",Government,Government Office,,,,24.6524256,46.7263593,37:15.0,37:15.0,0,.,"{""id"": null, ""area"": null, ""city"": null, ""union"": null, ""address"": null, ""country"": ""Saudi Arabia"", ""district"": null, ""division"": null, ""pauroshova"": null, ""sub_district"": null, ""location_type"": null, ""area_components"": {""area"": null, ""sub_area"": null}, ""address_components"": {""road"": null, ""house"": null, ""place_name"": null}, ""distance_within_meters"": null}"
33498,The Saudi Investment Bank,"4076 Umar Ibn Abdul Aziz Br Rd, Ar Rabwah, Riyadh 12815, Saudi Arabia",Bank,Bank Branch,,Closed ⋅ Opens 9:30 AM,saib.com.sa,24.684401,46.743464,33:55.0,33:55.0,0,.,"{""id"": null, ""area"": null, ""city"": null, ""union"": null, ""address"": null, ""country"": ""Saudi Arabia"", ""district"": null, ""division"": null, ""pauroshova"": null, ""sub_district"": null, ""location_type"": null, ""area_components"": {""area"": null, ""sub_area"": null}, ""address_components"": {""road"": null, ""house"": null, ""place_name"": null}, ""distance_within_meters"": null}"
33506,ANM Plant Office,"MP6V+873, Al Malaz, Riyadh 12841, Saudi Arabia",Office,Construction Company,+966 55 768 1341,Open 24 hours,,24.6607587,46.7431741,38:20.0,38:20.0,0,.,"{""id"": null, ""area"": null, ""city"": null, ""union"": null, ""address"": null, ""country"": ""Saudi Arabia"", ""district"": null, ""division"": null, ""pauroshova"": null, ""sub_district"": null, ""location_type"": null, ""area_components"": {""area"": null, ""sub_area"": null}, ""address_components"": {""road"": null, ""house"": null, ""place_name"": null}, ""distance_within_meters"": null}"
33499,Riyad Bank,"6916 614,P358+28 Ras Tanura, riyadh 12815, Saudi Arabia",Bank,Bank Branch,,Closed ⋅ Opens 9:30 AM,riyadbank.com,24.6855386,46.7333461,34:03.0,34:03.0,0,.,"{""id"": null, ""area"": null, ""city"": null, ""union"": null, ""address"": null, ""country"": ""Saudi Arabia"", ""district"": null, ""division"": null, ""pauroshova"": null, ""sub_district"": null, ""location_type"": null, ""area_components"": {""area"": null, ""sub_area"": null}, ""address_components"": {""road"": null, ""house"": null, ""place_name"": null}, ""distance_within_meters"": null}"
33512,Mutanabi Park,"زيد بن ثابت Zaid Ibn Thabit, 2492, Al Malaz, Riyadh 12831, Saudi Arabia",Recreation,Park,,,,24.6758559,46.7313413,41:41.0,41:41.0,0,.,"{""id"": null, ""area"": null, ""city"": null, ""union"": null, ""address"": null, ""country"": ""Saudi Arabia"", ""district"": null, ""division"": null, ""pauroshova"": null, ""sub_district"": null, ""location_type"": null, ""area_components"": {""area"": null, ""sub_area"": null}, ""address_components"": {""road"": null, ""house"": null, ""place_name"": null}, ""distance_within_meters"": null}"
33508,Aryaf Al Mamlaka Restaurant,"Mustafa Radwan, Al Malaz, Riyadh 12841, Saudi Arabia",Food,Restaurant,,Closed ⋅ Opens 11 AM,,24.6606951,46.7428243,38:47.0,38:58.0,2,.,"{""id"": null, ""area"": null, ""city"": null, ""union"": null, ""address"": null, ""country"": ""Saudi Arabia"", ""district"": null, ""division"": null, ""pauroshova"": null, ""sub_district"": null, ""location_type"": null, ""area_components"": {""area"": null, ""sub_area"": null}, ""address_components"": {""road"": null, ""house"": null, ""place_name"": null}, ""distance_within_meters"": null}"
33513,Masjid Zaid bin Thabit Al Malaz,"MPGJ+G8P, Al Malaz, Riyadh 12831, Saudi Arabia",Religious Place,Masjid,,,,24.676326,46.7308267,42:10.0,42:10.0,0,.,"{""id"": null, ""area"": null, ""city"": null, ""union"": null, ""address"": null, ""country"": ""Saudi Arabia"", ""district"": null, ""division"": null, ""pauroshova"": null, ""sub_district"": null, ""location_type"": null, ""area_components"": {""area"": null, ""sub_area"": null}, ""address_components"": {""road"": null, ""house"": null, ""place_name"": null}, ""distance_within_meters"": null}"
33514,Compui,"2371 Al Katani, Al Malaz, Riyadh 12831, Saudi Arabia",Office,Software Company,+966 53 936 3299,Opens soon ⋅ 9 AM,compui.com.sa,24.676434,46.7301109,42:52.0,42:52.0,0,.,"{""id"": null, ""area"": null, ""city"": null, ""union"": null, ""address"": null, ""country"": ""Saudi Arabia"", ""district"": null, ""division"": null, ""pauroshova"": null, ""sub_district"": null, ""location_type"": null, ""area_components"": {""area"": null, ""sub_area"": null}, ""address_components"": {""road"": null, ""house"": null, ""place_name"": null}, ""distance_within_meters"": null}"
33516,SITCO Pharma,"MPFP+V64, Al Ihsaa, Al Malaz, Riyadh 12831, Saudi Arabia",Office,Corporate Office,+966 11 475 7500,Open ⋅ Closes 3 PM,sitcopharma.com,24.6746342,46.7355928,44:13.0,44:13.0,0,..,"{""id"": null, ""area"": null, ""city"": null, ""union"": null, ""address"": null, ""country"": ""Saudi Arabia"", ""district"": null, ""division"": null, ""pauroshova"": null, ""sub_district"": null, ""location_type"": null, ""area_components"": {""area"": null, ""sub_area"": null}, ""address_components"": {""road"": null, ""house"": null, ""place_name"": null}, ""distance_within_meters"": null}"
33517,Al Esaa Press,"Omar Ibn Al Khattab Rd, Al Malaz, Riyadh 12842, Saudi Arabia",Shop,Printing,+966 11 473 5456,Closed ⋅ Opens 9:30 AM,,24.6540211,46.7532716,49:05.0,49:05.0,0,.,"{""id"": null, ""area"": null, ""city"": null, ""union"": null, ""address"": null, ""country"": ""Saudi Arabia"", ""district"": null, ""division"": null, ""pauroshova"": null, ""sub_district"": null, ""location_type"": null, ""area_components"": {""area"": null, ""sub_area"": null}, ""address_components"": {""road"": null, ""house"": null, ""place_name"": null}, ""distance_within_meters"": null}"
33509,Aryaf Al Mamlaka Restaurant,"Mustafa Radwan, Al Malaz, Riyadh 12841, Saudi Arabia",Food,Restaurant,,Closed ⋅ Opens 11 AM,,24.6606951,46.7428243,38:47.0,38:47.0,0,.,"{""id"": null, ""area"": null, ""city"": null, ""union"": null, ""address"": null, ""country"": ""Saudi Arabia"", ""district"": null, ""division"": null, ""pauroshova"": null, ""sub_district"": null, ""location_type"": null, ""area_components"": {""area"": null, ""sub_area"": null}, ""address_components"": {""road"": null, ""house"": null, ""place_name"": null}, ""distance_within_meters"": null}"
33515,First Flag,"Al Malaz, Riyadh 12831, Saudi Arabia",Shop,Clothing,+966 55 345 5343,Closed ⋅ Opens 9:30 AM,,24.6763125,46.7295625,43:08.0,43:08.0,0,.,"{""id"": null, ""area"": null, ""city"": null, ""union"": null, ""address"": null, ""country"": ""Saudi Arabia"", ""district"": null, ""division"": null, ""pauroshova"": null, ""sub_district"": null, ""location_type"": null, ""area_components"": {""area"": null, ""sub_area"": null}, ""address_components"": {""road"": null, ""house"": null, ""place_name"": null}, ""distance_within_meters"": null}"
33507,Aryaf Al Mamlaka Restaurant,"Mustafa Radwan, Al Malaz, Riyadh 12841, Saudi Arabia",Food,Restaurant,,Closed ⋅ Opens 11 AM,,24.6606951,46.7428243,38:47.0,38:56.0,2,.,"{""id"": null, ""area"": null, ""city"": null, ""union"": null, ""address"": null, ""country"": ""Saudi Arabia"", ""district"": null, ""division"": null, ""pauroshova"": null, ""sub_district"": null, ""location_type"": null, ""area_components"": {""area"": null, ""sub_area"": null}, ""address_components"": {""road"": null, ""house"": null, ""place_name"": null}, ""distance_within_meters"": null}"
33468,Sharikat Turki Abdullah Al Eid,"مكتب 2، الملز، المملكة العربية السعودية الرياض حي الملز عمارة العليان الدور الاول، 12841،, Riyadh 12632, Saudi Arabia",Office,Corporate Office,+966 55 420 1135,Open 24 hours,,24.6524914,46.7352315,57:44.0,57:44.0,0,.,"{""id"": null, ""area"": null, ""city"": null, ""union"": null, ""address"": null, ""country"": ""Saudi Arabia"", ""district"": null, ""division"": null, ""pauroshova"": null, ""sub_district"": null, ""location_type"": null, ""area_components"": {""area"": null, ""sub_area"": null}, ""address_components"": {""road"": null, ""house"": null, ""place_name"": null}, ""distance_within_meters"": null}"
33510,BAZY Track Solution,"MP6R+7VG, Salah Ad Din Al Ayyubi Rd, Al Malaz, Riyadh 12841, Saudi Arabia",Office,IT Firm,+966 50 666 3619,Open ⋅ Closes 5 PM,sa.bazytrack.com,24.6606799,46.74219,39:19.0,39:19.0,0,.,"{""id"": null, ""area"": null, ""city"": null, ""union"": null, ""address"": null, ""country"": ""Saudi Arabia"", ""district"": null, ""division"": null, ""pauroshova"": null, ""sub_district"": null, ""location_type"": null, ""area_components"": {""area"": null, ""sub_area"": null}, ""address_components"": {""road"": null, ""house"": null, ""place_name"": null}, ""distance_within_meters"": null}"
33511,Salahuddin Al Ayubi 16 A,"Al Malaz, Riyadh 12841, Saudi Arabia",Transportation,Bus Stand,,,,24.6608922,46.7413744,40:02.0,40:02.0,0,.,"{""id"": null, ""area"": null, ""city"": null, ""union"": null, ""address"": null, ""country"": ""Saudi Arabia"", ""district"": null, ""division"": null, ""pauroshova"": null, ""sub_district"": null, ""location_type"": null, ""area_components"": {""area"": null, ""sub_area"": null}, ""address_components"": {""road"": null, ""house"": null, ""place_name"": null}, ""distance_within_meters"": null}"
33518,Ali bin abi Talib station 18B,RESA6085، 6085 علي بن أبي طالب، 2655، حي الصفا، الرياض 12854، Saudi Arabia,Transportation,Bus Stand,,,,24.6546852,46.7543028,49:29.0,49:29.0,0,.,"{""id"": null, ""area"": null, ""city"": null, ""union"": null, ""address"": null, ""country"": ""Saudi Arabia"", ""district"": null, ""division"": null, ""pauroshova"": null, ""sub_district"": null, ""location_type"": null, ""area_components"": {""area"": null, ""sub_area"": null}, ""address_components"": {""road"": null, ""house"": null, ""place_name"": null}, ""distance_within_meters"": null}"
33519,Subaie Car Wash,"7670 Al Imam Ali Ibn Abi Taleb, Al Malaz, Riyadh 12842, Saudi Arabia",Shop,Car & Motorcycle Wash,,Open ⋅ Closes 2 PM ⋅ Reopens 4 PM,,24.6545584,46.7537881,49:43.0,49:43.0,0,.,"{""id"": null, ""area"": null, ""city"": null, ""union"": null, ""address"": null, ""country"": ""Saudi Arabia"", ""district"": null, ""division"": null, ""pauroshova"": null, ""sub_district"": null, ""location_type"": null, ""area_components"": {""area"": null, ""sub_area"": null}, ""address_components"": {""road"": null, ""house"": null, ""place_name"": null}, ""distance_within_meters"": null}"
33520,Al Muhammadi,4023 المحمدي، الملز، الرياض 12842 7665، Saudi Arabia,Religious Place,Masjid,,,,24.6543885,46.7532369,50:11.0,50:11.0,0,.,"{""id"": null, ""area"": null, ""city"": null, ""union"": null, ""address"": null, ""country"": ""Saudi Arabia"", ""district"": null, ""division"": null, ""pauroshova"": null, ""sub_district"": null, ""location_type"": null, ""area_components"": {""area"": null, ""sub_area"": null}, ""address_components"": {""road"": null, ""house"": null, ""place_name"": null}, ""distance_within_meters"": null}"
33521,SHASCO,"Omar ibn elkhattab street, Al Malaz, Riyadh 12842, Saudi Arabia",Office,IT Firm,+966 9200 12552,Open ⋅ Closes 5 PM,shascotel.net,24.6540328,46.7527527,50:27.0,50:27.0,0,.,"{""id"": null, ""area"": null, ""city"": null, ""union"": null, ""address"": null, ""country"": ""Saudi Arabia"", ""district"": null, ""division"": null, ""pauroshova"": null, ""sub_district"": null, ""location_type"": null, ""area_components"": {""area"": null, ""sub_area"": null}, ""address_components"": {""road"": null, ""house"": null, ""place_name"": null}, ""distance_within_meters"": null}"
33522,Abdullah al Dakhil Mosque,"3992 Makki Ibn Sawadah, Al Malaz, Riyadh 12842, Saudi Arabia",Religious Place,Masjid,,Open 24 hours,,24.6547321,46.7529641,50:40.0,50:40.0,0,.,"{""id"": null, ""area"": null, ""city"": null, ""union"": null, ""address"": null, ""country"": ""Saudi Arabia"", ""district"": null, ""division"": null, ""pauroshova"": null, ""sub_district"": null, ""location_type"": null, ""area_components"": {""area"": null, ""sub_area"": null}, ""address_components"": {""road"": null, ""house"": null, ""place_name"": null}, ""distance_within_meters"": null}"
33523,McDonald's,"REMA3954، 3954 Arwa Bint Abdul Moteleb, Al Malaz، 7854, Riyadh 12842, Saudi Arabia",Food,Fast Food,,Open ⋅ Closes 4 AM,,24.6561005,46.7529714,51:01.0,51:01.0,0,.,"{""id"": null, ""area"": null, ""city"": null, ""union"": null, ""address"": null, ""country"": ""Saudi Arabia"", ""district"": null, ""division"": null, ""pauroshova"": null, ""sub_district"": null, ""location_type"": null, ""area_components"": {""area"": null, ""sub_area"": null}, ""address_components"": {""road"": null, ""house"": null, ""place_name"": null}, ""distance_within_meters"": null}"
33352,Majestic Lights for Oud,"Al Malaz، طريق عمر بن عبدالعزيز جنوب المستشفي الوطني, Riyadh Saudi Arabia",Shop,Cosmetics,+966 11 472 1571,Open ⋅ Closes 11:30 PM,,24.6787732,46.727135,55:12.0,55:12.0,0,.,"{""id"": null, ""area"": null, ""city"": null, ""union"": null, ""address"": null, ""country"": ""Saudi Arabia"", ""district"": null, ""division"": null, ""pauroshova"": null, ""sub_district"": null, ""location_type"": null, ""area_components"": {""area"": null, ""sub_area"": null}, ""address_components"": {""road"": null, ""house"": null, ""place_name"": null}, ""distance_within_meters"": null}"
33353,Al Hazimi Pharmacy,"2051 Umar Ibn Abdul Aziz Br Rd, Al Malaz, Riyadh 12831, Saudi Arabia",Shop,Pharmacy,,Open 24 hours,lemon.sa,24.6786284,46.727019,56:57.0,56:57.0,0,.,"{""id"": null, ""area"": null, ""city"": null, ""union"": null, ""address"": null, ""country"": ""Saudi Arabia"", ""district"": null, ""division"": null, ""pauroshova"": null, ""sub_district"": null, ""location_type"": null, ""area_components"": {""area"": null, ""sub_area"": null}, ""address_components"": {""road"": null, ""house"": null, ""place_name"": null}, ""distance_within_meters"": null}"
33524,Masjid Al Amirah Haya Bint Turki Al Turki,7928، 3885 الخفجي، الملز الرياض 12842 Saudi Arabia,Religious Place,Masjid,,,,24.656774,46.751911,51:35.0,51:35.0,0,.,"{""id"": null, ""area"": null, ""city"": null, ""union"": null, ""address"": null, ""country"": ""Saudi Arabia"", ""district"": null, ""division"": null, ""pauroshova"": null, ""sub_district"": null, ""location_type"": null, ""area_components"": {""area"": null, ""sub_area"": null}, ""address_components"": {""road"": null, ""house"": null, ""place_name"": null}, ""distance_within_meters"": null}"
33525,LuLu Hypermarket,"Ali Ibn Abi Talib Branch Rd, Al Malaz, Riyadh 12842, Saudi Arabia",Commercial,Shopping Mall,,Open ⋅ Closes 12 AM,luluhypermarket.com,24.6593904,46.7512699,51:56.0,51:56.0,0,.,"{""id"": null, ""area"": null, ""city"": null, ""union"": null, ""address"": null, ""country"": ""Saudi Arabia"", ""district"": null, ""division"": null, ""pauroshova"": null, ""sub_district"": null, ""location_type"": null, ""area_components"": {""area"": null, ""sub_area"": null}, ""address_components"": {""road"": null, ""house"": null, ""place_name"": null}, ""distance_within_meters"": null}"
33354,Subway,"Building No. 434, Salah Ad Din Al Ayyubi Rd, Al Malaz, Riyadh 12831, Saudi Arabia",Food,Fast Food,+966 9200 12782,Open ⋅ Closes 12:45 AM,subwayarabia.com,24.6785527,46.7268378,57:29.0,57:29.0,0,.,"{""id"": null, ""area"": null, ""city"": null, ""union"": null, ""address"": null, ""country"": ""Saudi Arabia"", ""district"": null, ""division"": null, ""pauroshova"": null, ""sub_district"": null, ""location_type"": null, ""area_components"": {""area"": null, ""sub_area"": null}, ""address_components"": {""road"": null, ""house"": null, ""place_name"": null}, ""distance_within_meters"": null}"
33526,Dosa Corner,"Lulu Malaz Food Court, Ali Ibn Abi Talib Branch Rd, Al Malaz, Riyadh 12842, Saudi Arabia",Food,Fast Food,,Closed ⋅ Opens 12 PM,,24.6590424,46.7509091,52:04.0,52:04.0,0,.,"{""id"": null, ""area"": null, ""city"": null, ""union"": null, ""address"": null, ""country"": ""Saudi Arabia"", ""district"": null, ""division"": null, ""pauroshova"": null, ""sub_district"": null, ""location_type"": null, ""area_components"": {""area"": null, ""sub_area"": null}, ""address_components"": {""road"": null, ""house"": null, ""place_name"": null}, ""distance_within_meters"": null}"
33355,Indigo Airlines,"2374 جرير، 7118, Riyadh 12831, Saudi Arabia",Office,Office,+966 11 291 3812,Closes soon ⋅ 1 PM ⋅ Reopens 2 PM,goindigo.in,24.6787505,46.7269608,57:49.0,57:49.0,0,.,"{""id"": null, ""area"": null, ""city"": null, ""union"": null, ""address"": null, ""country"": ""Saudi Arabia"", ""district"": null, ""division"": null, ""pauroshova"": null, ""sub_district"": null, ""location_type"": null, ""area_components"": {""area"": null, ""sub_area"": null}, ""address_components"": {""road"": null, ""house"": null, ""place_name"": null}, ""distance_within_meters"": null}"
33356,Dnata Travel,"Salah Ad Din Al Ayyubi Rd, Al Malaz, Building No. 434, Riyadh 12831, Saudi Arabia",Office,Travel Agency,+966 11 291 4432,Open ⋅ Closes 6 PM,dnatatravel.com,24.6785543,46.7268866,58:18.0,58:18.0,0,.,"{""id"": null, ""area"": null, ""city"": null, ""union"": null, ""address"": null, ""country"": ""Saudi Arabia"", ""district"": null, ""division"": null, ""pauroshova"": null, ""sub_district"": null, ""location_type"": null, ""area_components"": {""area"": null, ""sub_area"": null}, ""address_components"": {""road"": null, ""house"": null, ""place_name"": null}, ""distance_within_meters"": null}"
33357,Innova Pharmacy,"MPHH+H5, Al Malaz, Riyadh 12831, Saudi Arabia",Shop,Pharmacy,+966 9200 08391,Open ⋅ Closes 3 AM,,24.6789375,46.7279375,59:42.0,59:42.0,0,.,"{""id"": null, ""area"": null, ""city"": null, ""union"": null, ""address"": null, ""country"": ""Saudi Arabia"", ""district"": null, ""division"": null, ""pauroshova"": null, ""sub_district"": null, ""location_type"": null, ""area_components"": {""area"": null, ""sub_area"": null}, ""address_components"": {""road"": null, ""house"": null, ""place_name"": null}, ""distance_within_meters"": null}"
33358,Aspire Technologies LLC,"7982 Umar Ibn Abdul Aziz Br Rd, Al Malaz, 2099, Riyadh 12831, Saudi Arabia",Office,IT Firm,+966 11 473 6060,Open ⋅ Closes 6 PM,,24.6787096,46.7278515,00:27.0,00:27.0,0,.,"{""id"": null, ""area"": null, ""city"": null, ""union"": null, ""address"": null, ""country"": ""Saudi Arabia"", ""district"": null, ""division"": null, ""pauroshova"": null, ""sub_district"": null, ""location_type"": null, ""area_components"": {""area"": null, ""sub_area"": null}, ""address_components"": {""road"": null, ""house"": null, ""place_name"": null}, ""distance_within_meters"": null}"
33359,Riya The Travel Expert,"2168 Umar Ibn Abdul Aziz Br Rd, Al Malaz, Riyadh 12831, Saudi Arabia",Office,Travel Agency,+966 50 048 9092,Open ⋅ Closes 6:30 PM,riya.travel,24.6789229,46.7283374,01:01.0,01:01.0,0,.,"{""id"": null, ""area"": null, ""city"": null, ""union"": null, ""address"": null, ""country"": ""Saudi Arabia"", ""district"": null, ""division"": null, ""pauroshova"": null, ""sub_district"": null, ""location_type"": null, ""area_components"": {""area"": null, ""sub_area"": null}, ""address_components"": {""road"": null, ""house"": null, ""place_name"": null}, ""distance_within_meters"": null}"
33360,Alf Qissa Salon for Men’s Haircuts,"Umar Ibn Abdul Aziz Br Rd, Al Malaz, Riyadh 12831, Saudi Arabia",Shop,Saloon,+966 51 128 0828,Open ⋅ Closes 11:30 PM,,24.67895,46.7284377,11:41.0,11:41.0,0,",","{""id"": null, ""area"": null, ""city"": null, ""union"": null, ""address"": null, ""country"": ""Saudi Arabia"", ""district"": null, ""division"": null, ""pauroshova"": null, ""sub_district"": null, ""location_type"": null, ""area_components"": {""area"": null, ""sub_area"": null}, ""address_components"": {""road"": null, ""house"": null, ""place_name"": null}, ""distance_within_meters"": null}"
33366,Al Rugaib Holding Company,"MPHH+JHH, Umar Ibn Abdul Aziz Br Rd, Al Malaz, Riyadh 11421, Saudi Arabia",Office,Corporate Office,+966 11 477 8381,Open ⋅ Closes 4:30 PM,,24.6790633,46.7290168,14:56.0,14:56.0,0,.,"{""id"": null, ""area"": null, ""city"": null, ""union"": null, ""address"": null, ""country"": ""Saudi Arabia"", ""district"": null, ""division"": null, ""pauroshova"": null, ""sub_district"": null, ""location_type"": null, ""area_components"": {""area"": null, ""sub_area"": null}, ""address_components"": {""road"": null, ""house"": null, ""place_name"": null}, ""distance_within_meters"": null}"
33367,Al Malaz Electric and Plumbing,"8024 Umar Ibn Abdul Aziz Br Rd, Al Malaz, 2283, Riyadh 12831, Saudi Arabia",Shop,Hardware,,,,24.679108,46.7292349,16:08.0,16:08.0,0,.,"{""id"": null, ""area"": null, ""city"": null, ""union"": null, ""address"": null, ""country"": ""Saudi Arabia"", ""district"": null, ""division"": null, ""pauroshova"": null, ""sub_district"": null, ""location_type"": null, ""area_components"": {""area"": null, ""sub_area"": null}, ""address_components"": {""road"": null, ""house"": null, ""place_name"": null}, ""distance_within_meters"": null}"
33369,Wadi Al Nahl,"2077 Umar Ibn Abdul Aziz Br Rd, Al Malaz, Riyadh 12831, Saudi Arabia",Shop,Cosmetics,+966 57 605 4162,,,24.6792688,46.7300143,18:41.0,18:41.0,0,.,"{""id"": null, ""area"": null, ""city"": null, ""union"": null, ""address"": null, ""country"": ""Saudi Arabia"", ""district"": null, ""division"": null, ""pauroshova"": null, ""sub_district"": null, ""location_type"": null, ""area_components"": {""area"": null, ""sub_area"": null}, ""address_components"": {""road"": null, ""house"": null, ""place_name"": null}, ""distance_within_meters"": null}"
33370,Matba'at Shirkat Zed lil Tiba'ah Al Raqmiyyah,"2383 Umar Ibn Abdul Aziz Br Rd, 8043, Al Malaz, Riyadh 12831, Saudi Arabia",Shop,Printing,+966 11 474 4321,Closed ⋅ Opens 4 PM,,24.6792343,46.7303267,20:01.0,20:01.0,0,.,"{""id"": null, ""area"": null, ""city"": null, ""union"": null, ""address"": null, ""country"": ""Saudi Arabia"", ""district"": null, ""division"": null, ""pauroshova"": null, ""sub_district"": null, ""location_type"": null, ""area_components"": {""area"": null, ""sub_area"": null}, ""address_components"": {""road"": null, ""house"": null, ""place_name"": null}, ""distance_within_meters"": null}"
33371,Asian Taste Restaurant,"Umar Ibn Abdul Aziz Br Rd, Al Malaz, Riyadh 12831, Saudi Arabia",Food,Restaurant,,Open ⋅ Closes 1 AM,instagram.com,24.6793506,46.7305577,23:57.0,23:57.0,0,.,"{""id"": null, ""area"": null, ""city"": null, ""union"": null, ""address"": null, ""country"": ""Saudi Arabia"", ""district"": null, ""division"": null, ""pauroshova"": null, ""sub_district"": null, ""location_type"": null, ""area_components"": {""area"": null, ""sub_area"": null}, ""address_components"": {""road"": null, ""house"": null, ""place_name"": null}, ""distance_within_meters"": null}"
33373,Mhyar Al Khaleej for Logistics Services,"حي, Al Malaz، طريق عمر بن عبدالعزيز الفرعي, Riyadh 12411, Saudi Arabia",Transportation,Transport Agency,+966 53 910 3808,Open ⋅ Closes 5 PM,,24.6792444,46.7307175,26:11.0,26:11.0,0,.,"{""id"": null, ""area"": null, ""city"": null, ""union"": null, ""address"": null, ""country"": ""Saudi Arabia"", ""district"": null, ""division"": null, ""pauroshova"": null, ""sub_district"": null, ""location_type"": null, ""area_components"": {""area"": null, ""sub_area"": null}, ""address_components"": {""road"": null, ""house"": null, ""place_name"": null}, ""distance_within_meters"": null}"
33361,Alf Qissa Salon for Men’s Haircuts,"Umar Ibn Abdul Aziz Br Rd, Al Malaz, Riyadh 12831, Saudi Arabia",Shop,Saloon,+966 51 128 0828,Open ⋅ Closes 11:30 PM,,24.67895,46.7284377,11:41.0,11:41.0,0,",","{""id"": null, ""area"": null, ""city"": null, ""union"": null, ""address"": null, ""country"": ""Saudi Arabia"", ""district"": null, ""division"": null, ""pauroshova"": null, ""sub_district"": null, ""location_type"": null, ""area_components"": {""area"": null, ""sub_area"": null}, ""address_components"": {""road"": null, ""house"": null, ""place_name"": null}, ""distance_within_meters"": null}"
33368,Al Oroubaa Grill,"2177 Iyad Ibn Hanif, Al Malaz, Riyadh 12831, Saudi Arabia",Food,Restaurant,,Open ⋅ Closes 12:30 AM,,24.6793571,46.7300849,16:22.0,16:22.0,0,.,"{""id"": null, ""area"": null, ""city"": null, ""union"": null, ""address"": null, ""country"": ""Saudi Arabia"", ""district"": null, ""division"": null, ""pauroshova"": null, ""sub_district"": null, ""location_type"": null, ""area_components"": {""area"": null, ""sub_area"": null}, ""address_components"": {""road"": null, ""house"": null, ""place_name"": null}, ""distance_within_meters"": null}"
33372,Egyptair,"2429 Umar Ibn Abdul Aziz Br Rd, Al Malaz, Riyadh 12831, Saudi Arabia",Office,Branch Office,+966 12 229 7777,Open ⋅ Closes 4 PM,egyptair.com,24.6794267,46.7307512,24:22.0,24:22.0,0,.,"{""id"": null, ""area"": null, ""city"": null, ""union"": null, ""address"": null, ""country"": ""Saudi Arabia"", ""district"": null, ""division"": null, ""pauroshova"": null, ""sub_district"": null, ""location_type"": null, ""area_components"": {""area"": null, ""sub_area"": null}, ""address_components"": {""road"": null, ""house"": null, ""place_name"": null}, ""distance_within_meters"": null}"
33374,Al Dafwa Restaurant,"Umar Ibn Abdul Aziz Br Rd, Al Malaz, Riyadh 12831, Saudi Arabia",Food,Restaurant,,Open ⋅ Closes 2 AM,instagram.com,24.6799277,46.7336186,26:53.0,26:53.0,0,.,"{""id"": null, ""area"": null, ""city"": null, ""union"": null, ""address"": null, ""country"": ""Saudi Arabia"", ""district"": null, ""division"": null, ""pauroshova"": null, ""sub_district"": null, ""location_type"": null, ""area_components"": {""area"": null, ""sub_area"": null}, ""address_components"": {""road"": null, ""house"": null, ""place_name"": null}, ""distance_within_meters"": null}"
33398,Al Naslah Restaurant,"Jarir St, Al Malaz, Riyadh 12831, Saudi Arabia",Food,Restaurant,,Open ⋅ Closes 3:30 PM ⋅ Reopens 6:30 PM,intercityhotel.com,24.6718373,46.7361947,41:15.0,41:15.0,0,.,"{""id"": null, ""area"": null, ""city"": null, ""union"": null, ""address"": null, ""country"": ""Saudi Arabia"", ""district"": null, ""division"": null, ""pauroshova"": null, ""sub_district"": null, ""location_type"": null, ""area_components"": {""area"": null, ""sub_area"": null}, ""address_components"": {""road"": null, ""house"": null, ""place_name"": null}, ""distance_within_meters"": null}"
33527,Madar Electrical Materials,"شارع الأمير عبد المحسن،, Al Malaz, Riyadh 12842, Saudi Arabia",Shop,Electronics,,Open ⋅ Closes 12 PM ⋅ Reopens 4 PM,madaronline.com,24.6582122,46.7500287,52:22.0,52:22.0,0,.,"{""id"": null, ""area"": null, ""city"": null, ""union"": null, ""address"": null, ""country"": ""Saudi Arabia"", ""district"": null, ""division"": null, ""pauroshova"": null, ""sub_district"": null, ""location_type"": null, ""area_components"": {""area"": null, ""sub_area"": null}, ""address_components"": {""road"": null, ""house"": null, ""place_name"": null}, ""distance_within_meters"": null}"
33362,Alsakhrah Restaurants,"MPHH+HCH, Umar Ibn Abdul Aziz Br Rd, Al Malaz, Riyadh 12831, Saudi Arabia",Food,Restaurant,+966 11 476 6609,Temporarily closed,,24.6789357,46.7285978,12:07.0,12:07.0,0,.,"{""id"": null, ""area"": null, ""city"": null, ""union"": null, ""address"": null, ""country"": ""Saudi Arabia"", ""district"": null, ""division"": null, ""pauroshova"": null, ""sub_district"": null, ""location_type"": null, ""area_components"": {""area"": null, ""sub_area"": null}, ""address_components"": {""road"": null, ""house"": null, ""place_name"": null}, ""distance_within_meters"": null}"
33375,Al Mas Family Restaurant,"Near National Care Hospital, Al Hawwari, Al Malaz, Riyadh 12831, Saudi Arabia",Food,Restaurant,,Open ⋅ Closes 12 AM,,24.6781631,46.7275555,27:10.0,27:10.0,0,.,"{""id"": null, ""area"": null, ""city"": null, ""union"": null, ""address"": null, ""country"": ""Saudi Arabia"", ""district"": null, ""division"": null, ""pauroshova"": null, ""sub_district"": null, ""location_type"": null, ""area_components"": {""area"": null, ""sub_area"": null}, ""address_components"": {""road"": null, ""house"": null, ""place_name"": null}, ""distance_within_meters"": null}"
33399,TANDOOR RESTAURANT,"6566 Al Ihsaa, Az Zahra, Riyadh 12812, Saudi Arabia",Food,Indian Restaurant,,Open ⋅ Closes 1 AM,instagram.com,24.6839115,46.7336522,41:51.0,41:51.0,0,.,"{""id"": null, ""area"": null, ""city"": null, ""union"": null, ""address"": null, ""country"": ""Saudi Arabia"", ""district"": null, ""division"": null, ""pauroshova"": null, ""sub_district"": null, ""location_type"": null, ""area_components"": {""area"": null, ""sub_area"": null}, ""address_components"": {""road"": null, ""house"": null, ""place_name"": null}, ""distance_within_meters"": null}"
33401,Bahrya Al Malaz,"Jarir St, Al Malaz, Riyadh 12832, Saudi Arabia",Food,Sea Food,,Open ⋅ Closes 12:30 AM,,24.6726661,46.7406413,11:12.0,11:12.0,0,.,"{""id"": null, ""area"": null, ""city"": null, ""union"": null, ""address"": null, ""country"": ""Saudi Arabia"", ""district"": null, ""division"": null, ""pauroshova"": null, ""sub_district"": null, ""location_type"": null, ""area_components"": {""area"": null, ""sub_area"": null}, ""address_components"": {""road"": null, ""house"": null, ""place_name"": null}, ""distance_within_meters"": null}"
33402,Halawiyat CACAONA,"Jarir St, Al Malaz, Riyadh 12837, Saudi Arabia",Food,Sweets,,Closed ⋅ Opens 3:30 PM,salla.sa,24.6727108,46.7411155,14:56.0,14:56.0,0,.,"{""id"": null, ""area"": null, ""city"": null, ""union"": null, ""address"": null, ""country"": ""Saudi Arabia"", ""district"": null, ""division"": null, ""pauroshova"": null, ""sub_district"": null, ""location_type"": null, ""area_components"": {""area"": null, ""sub_area"": null}, ""address_components"": {""road"": null, ""house"": null, ""place_name"": null}, ""distance_within_meters"": null}"
33403,Lahore Restaurant,"3830 Al Imam Ali Ibn Abi Taleb, 3830, 7534, Riyadh 12832, Saudi Arabia",Food,Restaurant,,Open ⋅ Closes 1:30 AM,,24.6744354,46.7445935,16:34.0,16:34.0,0,.,"{""id"": null, ""area"": null, ""city"": null, ""union"": null, ""address"": null, ""country"": ""Saudi Arabia"", ""district"": null, ""division"": null, ""pauroshova"": null, ""sub_district"": null, ""location_type"": null, ""area_components"": {""area"": null, ""sub_area"": null}, ""address_components"": {""road"": null, ""house"": null, ""place_name"": null}, ""distance_within_meters"": null}"
33404,Kailash Parbat Indian Vegetarain,"7551 3803 Al Imam Ali Ibn Abi Taleb, Al Malaz, Riyadh 12832, Saudi Arabia",Food,Restaurant,,Open ⋅ Closes 11 PM,kailashparbat.sa,24.6746917,46.7445077,17:37.0,17:37.0,0,.,"{""id"": null, ""area"": null, ""city"": null, ""union"": null, ""address"": null, ""country"": ""Saudi Arabia"", ""district"": null, ""division"": null, ""pauroshova"": null, ""sub_district"": null, ""location_type"": null, ""area_components"": {""area"": null, ""sub_area"": null}, ""address_components"": {""road"": null, ""house"": null, ""place_name"": null}, ""distance_within_meters"": null}"
33405,Nirala Sweets,"MPGV+JF7, Al Malaz, Riyadh 12832, Saudi Arabia",Food,Sweets,,,,24.6764917,46.7437038,18:13.0,18:13.0,0,.,"{""id"": null, ""area"": null, ""city"": null, ""union"": null, ""address"": null, ""country"": ""Saudi Arabia"", ""district"": null, ""division"": null, ""pauroshova"": null, ""sub_district"": null, ""location_type"": null, ""area_components"": {""area"": null, ""sub_area"": null}, ""address_components"": {""road"": null, ""house"": null, ""place_name"": null}, ""distance_within_meters"": null}"
33406,Ghazi Resturant,"MPGV+R9Q, Al Imam Ali Ibn Abi Taleb, Al Malaz, Riyadh 12832, Saudi Arabia",Food,Restaurant,,Open ⋅ Closes 11:30 PM,,24.6770999,46.7434895,19:19.0,19:19.0,0,.,"{""id"": null, ""area"": null, ""city"": null, ""union"": null, ""address"": null, ""country"": ""Saudi Arabia"", ""district"": null, ""division"": null, ""pauroshova"": null, ""sub_district"": null, ""location_type"": null, ""area_components"": {""area"": null, ""sub_area"": null}, ""address_components"": {""road"": null, ""house"": null, ""place_name"": null}, ""distance_within_meters"": null}"
33407,Mataem Durrat Al Tayseer lil Mashwiyat wal Bahriyat,"7998 طريق علي بن ابي طالب،, Al Malaz, Riyadh 12832, Saudi Arabia",Food,Restaurant,,Open ⋅ Closes 2 AM,doraaltyseer.foodics.online,24.678767,46.7428039,21:26.0,21:26.0,0,.,"{""id"": null, ""area"": null, ""city"": null, ""union"": null, ""address"": null, ""country"": ""Saudi Arabia"", ""district"": null, ""division"": null, ""pauroshova"": null, ""sub_district"": null, ""location_type"": null, ""area_components"": {""area"": null, ""sub_area"": null}, ""address_components"": {""road"": null, ""house"": null, ""place_name"": null}, ""distance_within_meters"": null}"
33408,Mat'am Badour Mohammed Ibrahim Al Sakaker Restaurant,"8077 Ibn Ar Ramli, Al Malaz, 3424, Riyadh 12832, Saudi Arabia",Food,Restaurant,,Open ⋅ Closes 7 PM,,24.6794933,46.7405533,22:41.0,22:41.0,0,.,"{""id"": null, ""area"": null, ""city"": null, ""union"": null, ""address"": null, ""country"": ""Saudi Arabia"", ""district"": null, ""division"": null, ""pauroshova"": null, ""sub_district"": null, ""location_type"": null, ""area_components"": {""area"": null, ""sub_area"": null}, ""address_components"": {""road"": null, ""house"": null, ""place_name"": null}, ""distance_within_meters"": null}"
33363,Spears Middle East Co Ltd,"MPHH+JHH, Umar Ibn Abdul Aziz Br Rd, Al Malaz, Riyadh 11421, Saudi Arabia",Office,Office,,Open ⋅ Closes 5 PM,spears-me.com,24.6790608,46.7289774,12:32.0,12:32.0,0,.,"{""id"": null, ""area"": null, ""city"": null, ""union"": null, ""address"": null, ""country"": ""Saudi Arabia"", ""district"": null, ""division"": null, ""pauroshova"": null, ""sub_district"": null, ""location_type"": null, ""area_components"": {""area"": null, ""sub_area"": null}, ""address_components"": {""road"": null, ""house"": null, ""place_name"": null}, ""distance_within_meters"": null}"
33376,Al Mas Family Restaurant,"Near National Care Hospital, Al Hawwari, Al Malaz, Riyadh 12831, Saudi Arabia",Food,Restaurant,,Open ⋅ Closes 12 AM,,24.6781631,46.7275555,27:10.0,27:10.0,0,.,"{""id"": null, ""area"": null, ""city"": null, ""union"": null, ""address"": null, ""country"": ""Saudi Arabia"", ""district"": null, ""division"": null, ""pauroshova"": null, ""sub_district"": null, ""location_type"": null, ""area_components"": {""area"": null, ""sub_area"": null}, ""address_components"": {""road"": null, ""house"": null, ""place_name"": null}, ""distance_within_meters"": null}"
33400,Sham Zaman,"Jarir St, Jarir, Riyadh 12832, Saudi Arabia",Food,Restaurant,,Open ⋅ Closes 12 AM,,24.6724528,46.7394635,06:52.0,06:52.0,0,.,"{""id"": null, ""area"": null, ""city"": null, ""union"": null, ""address"": null, ""country"": ""Saudi Arabia"", ""district"": null, ""division"": null, ""pauroshova"": null, ""sub_district"": null, ""location_type"": null, ""area_components"": {""area"": null, ""sub_area"": null}, ""address_components"": {""road"": null, ""house"": null, ""place_name"": null}, ""distance_within_meters"": null}"
33409,Ceylon Resturant,"7960 شارع مصعب بن عمير،, Al Malaz, Riyadh 12832, Saudi Arabia",Food,Restaurant,,Open ⋅ Closes 12 AM,,24.6783258,46.7409796,23:04.0,23:04.0,0,.,"{""id"": null, ""area"": null, ""city"": null, ""union"": null, ""address"": null, ""country"": ""Saudi Arabia"", ""district"": null, ""division"": null, ""pauroshova"": null, ""sub_district"": null, ""location_type"": null, ""area_components"": {""area"": null, ""sub_area"": null}, ""address_components"": {""road"": null, ""house"": null, ""place_name"": null}, ""distance_within_meters"": null}"
33411,Ayskirim Dhikraa,"MPGQ+F2X, Al Malaz, Riyadh 12832, Saudi Arabia",Food,Ice Cream Parlour,,,,24.6758611,46.7376389,26:52.0,26:52.0,0,.,"{""id"": null, ""area"": null, ""city"": null, ""union"": null, ""address"": null, ""country"": ""Saudi Arabia"", ""district"": null, ""division"": null, ""pauroshova"": null, ""sub_district"": null, ""location_type"": null, ""area_components"": {""area"": null, ""sub_area"": null}, ""address_components"": {""road"": null, ""house"": null, ""place_name"": null}, ""distance_within_meters"": null}"
33528,Prince Miteb bin Abdulaziz Al Saud Masjid,"MQ62+93X, Al Imam Ali Ibn Abi Taleb, Al Malaz, Riyadh 12842, Saudi Arabia",Religious Place,Masjid,,,,24.6609999,46.7502487,52:46.0,52:46.0,0,.,"{""id"": null, ""area"": null, ""city"": null, ""union"": null, ""address"": null, ""country"": ""Saudi Arabia"", ""district"": null, ""division"": null, ""pauroshova"": null, ""sub_district"": null, ""location_type"": null, ""area_components"": {""area"": null, ""sub_area"": null}, ""address_components"": {""road"": null, ""house"": null, ""place_name"": null}, ""distance_within_meters"": null}"
33364,Mille Feuille Bakery,"Umar Ibn Abdul Aziz Br Rd, Al Malaz, Riyadh 12831, Saudi Arabia",Food,Bakery,+966 55 123 4498,Open ⋅ Closes 12 AM,millefeuilleksa.com,24.6791005,46.7291039,13:04.0,13:04.0,0,.,"{""id"": null, ""area"": null, ""city"": null, ""union"": null, ""address"": null, ""country"": ""Saudi Arabia"", ""district"": null, ""division"": null, ""pauroshova"": null, ""sub_district"": null, ""location_type"": null, ""area_components"": {""area"": null, ""sub_area"": null}, ""address_components"": {""road"": null, ""house"": null, ""place_name"": null}, ""distance_within_meters"": null}"
33377,Almas Juice and Falooda Center,"2112 Al Hawwari, Al Malaz, REMC7918, 7918, Riyadh 12831, Saudi Arabia",Food,Juice Bar,,,,24.6780629,46.7275437,27:37.0,27:37.0,0,.,"{""id"": null, ""area"": null, ""city"": null, ""union"": null, ""address"": null, ""country"": ""Saudi Arabia"", ""district"": null, ""division"": null, ""pauroshova"": null, ""sub_district"": null, ""location_type"": null, ""area_components"": {""area"": null, ""sub_area"": null}, ""address_components"": {""road"": null, ""house"": null, ""place_name"": null}, ""distance_within_meters"": null}"
33410,Amal Fast Food Lulu Restaurant,"7936 Mosab Ibn Umair St, Al Malaz, 3420, Riyadh 12832, Saudi Arabia",Food,Restaurant,,Open ⋅ Closes 11:30 PM,,24.677977,46.740524,24:02.0,24:02.0,0,.,"{""id"": null, ""area"": null, ""city"": null, ""union"": null, ""address"": null, ""country"": ""Saudi Arabia"", ""district"": null, ""division"": null, ""pauroshova"": null, ""sub_district"": null, ""location_type"": null, ""area_components"": {""area"": null, ""sub_area"": null}, ""address_components"": {""road"": null, ""house"": null, ""place_name"": null}, ""distance_within_meters"": null}"
33412,Zoo Grill Resturant,"MPGP+RFX, Al Ihsaa, Al Malaz, Riyadh 12832, Saudi Arabia",Food,Restaurant,,Open 24 hours,,24.6771002,46.7362314,27:45.0,27:45.0,0,.,"{""id"": null, ""area"": null, ""city"": null, ""union"": null, ""address"": null, ""country"": ""Saudi Arabia"", ""district"": null, ""division"": null, ""pauroshova"": null, ""sub_district"": null, ""location_type"": null, ""area_components"": {""area"": null, ""sub_area"": null}, ""address_components"": {""road"": null, ""house"": null, ""place_name"": null}, ""distance_within_meters"": null}"
33413,KUDU,"3026 Al Ihsaa, Al Malaz, 7799, Riyadh 12832, Saudi Arabia",Food,Restaurant,,Open ⋅ Closes 4 PM,,24.677127,46.7366494,29:09.0,29:09.0,0,.,"{""id"": null, ""area"": null, ""city"": null, ""union"": null, ""address"": null, ""country"": ""Saudi Arabia"", ""district"": null, ""division"": null, ""pauroshova"": null, ""sub_district"": null, ""location_type"": null, ""area_components"": {""area"": null, ""sub_area"": null}, ""address_components"": {""road"": null, ""house"": null, ""place_name"": null}, ""distance_within_meters"": null}"
33414,Yellow Cab Pizza Co,"3026 Al Ihsaa, Al Malaz, 7799, Riyadh 12832, Saudi Arabia",Food,Pizza Place,,Open ⋅ Closes 6:30 PM,,24.6770551,46.7365922,29:49.0,29:49.0,0,.,"{""id"": null, ""area"": null, ""city"": null, ""union"": null, ""address"": null, ""country"": ""Saudi Arabia"", ""district"": null, ""division"": null, ""pauroshova"": null, ""sub_district"": null, ""location_type"": null, ""area_components"": {""area"": null, ""sub_area"": null}, ""address_components"": {""road"": null, ""house"": null, ""place_name"": null}, ""distance_within_meters"": null}"
33415,Cafe du Jardin,"MPGP+QJ3, Al Malaz, Riyadh 12832, Saudi Arabia",Food,Cafe,,,,24.6768921,46.736561,30:14.0,30:14.0,0,.,"{""id"": null, ""area"": null, ""city"": null, ""union"": null, ""address"": null, ""country"": ""Saudi Arabia"", ""district"": null, ""division"": null, ""pauroshova"": null, ""sub_district"": null, ""location_type"": null, ""area_components"": {""area"": null, ""sub_area"": null}, ""address_components"": {""road"": null, ""house"": null, ""place_name"": null}, ""distance_within_meters"": null}"
33416,Aseerat Al Dhahiya,"3084 Al Ihsaa, Al Malaz، REMB7801، 7801, Riyadh 12832, Saudi Arabia",Food,Cafe,,,,24.6769582,46.7370733,31:26.0,31:26.0,0,.,"{""id"": null, ""area"": null, ""city"": null, ""union"": null, ""address"": null, ""country"": ""Saudi Arabia"", ""district"": null, ""division"": null, ""pauroshova"": null, ""sub_district"": null, ""location_type"": null, ""area_components"": {""area"": null, ""sub_area"": null}, ""address_components"": {""road"": null, ""house"": null, ""place_name"": null}, ""distance_within_meters"": null}"
33417,Al Nahdi Pharmacy,"Al Malaz, Riyadh 12831, Saudi Arabia",Shop,Pharmacy,,Open ⋅ Closes 3 AM,nahdionline.com,24.677639,46.727115,38:00.0,38:00.0,0,.,"{""id"": null, ""area"": null, ""city"": null, ""union"": null, ""address"": null, ""country"": ""Saudi Arabia"", ""district"": null, ""division"": null, ""pauroshova"": null, ""sub_district"": null, ""location_type"": null, ""area_components"": {""area"": null, ""sub_area"": null}, ""address_components"": {""road"": null, ""house"": null, ""place_name"": null}, ""distance_within_meters"": null}"
33529,Ramdoun HK International Group,"Salah Ad Din Al Ayyubi Rd, Al Malaz, Riyadh 12842, Saudi Arabia",Office,Corporate Office,+966 11 473 6600,Open ⋅ Closes 9 PM,rhkigl.com,24.66248,46.746049,53:24.0,53:24.0,0,.,"{""id"": null, ""area"": null, ""city"": null, ""union"": null, ""address"": null, ""country"": ""Saudi Arabia"", ""district"": null, ""division"": null, ""pauroshova"": null, ""sub_district"": null, ""location_type"": null, ""area_components"": {""area"": null, ""sub_area"": null}, ""address_components"": {""road"": null, ""house"": null, ""place_name"": null}, ""distance_within_meters"": null}"
33365,Infix Advertising,"MPHH+HH9, Al Malaz, Riyadh 12831, Saudi Arabia",Office,Advertising Agency,+966 11 476 7347,Open ⋅ Closes 4:30 AM Mon,infixad.com,24.6789248,46.7289819,13:30.0,13:30.0,0,.,"{""id"": null, ""area"": null, ""city"": null, ""union"": null, ""address"": null, ""country"": ""Saudi Arabia"", ""district"": null, ""division"": null, ""pauroshova"": null, ""sub_district"": null, ""location_type"": null, ""area_components"": {""area"": null, ""sub_area"": null}, ""address_components"": {""road"": null, ""house"": null, ""place_name"": null}, ""distance_within_meters"": null}"
33378,Dusru,"7933 Salah Ad Din Al Ayyubi Rd, 2056, Riyadh 12831, Saudi Arabia",Food,Restaurant,,Open ⋅ Closes 11:30 PM,,24.6783054,46.7270264,27:57.0,27:57.0,0,.,"{""id"": null, ""area"": null, ""city"": null, ""union"": null, ""address"": null, ""country"": ""Saudi Arabia"", ""district"": null, ""division"": null, ""pauroshova"": null, ""sub_district"": null, ""location_type"": null, ""area_components"": {""area"": null, ""sub_area"": null}, ""address_components"": {""road"": null, ""house"": null, ""place_name"": null}, ""distance_within_meters"": null}"
33418,Lorenzo Pizza,"MPGG+9XV, Salah Ad Din Ayyubi Rd, Al Malaz, Riyadh 12831, Saudi Arabia",Food,Pizza Place,,Open ⋅ Closes 2 AM,lorenzo.com.sa,24.6759143,46.7274222,40:04.0,40:04.0,0,.,"{""id"": null, ""area"": null, ""city"": null, ""union"": null, ""address"": null, ""country"": ""Saudi Arabia"", ""district"": null, ""division"": null, ""pauroshova"": null, ""sub_district"": null, ""location_type"": null, ""area_components"": {""area"": null, ""sub_area"": null}, ""address_components"": {""road"": null, ""house"": null, ""place_name"": null}, ""distance_within_meters"": null}"
33379,Taste India Restaurant,"Al Mutanabbi, Al Malaz, Riyadh 12831, Saudi Arabia",Food,Restaurant,,Open ⋅ Closes 11:30 PM,tasteinr.com,24.6745343,46.729668,28:23.0,28:23.0,0,.,"{""id"": null, ""area"": null, ""city"": null, ""union"": null, ""address"": null, ""country"": ""Saudi Arabia"", ""district"": null, ""division"": null, ""pauroshova"": null, ""sub_district"": null, ""location_type"": null, ""area_components"": {""area"": null, ""sub_area"": null}, ""address_components"": {""road"": null, ""house"": null, ""place_name"": null}, ""distance_within_meters"": null}"
33419,Al Dawaa Pharmacy,"MPHM+7W8، 2839 شارع الأحساء, Al Malaz، REMA7930, 7930 Al Ihsaa, Riyadh 12831, Saudi Arabia",Shop,Pharmacy,,Open ⋅ Closes 1 AM,al-dawaa.com,24.6781671,46.7347807,40:49.0,40:49.0,0,.,"{""id"": null, ""area"": null, ""city"": null, ""union"": null, ""address"": null, ""country"": ""Saudi Arabia"", ""district"": null, ""division"": null, ""pauroshova"": null, ""sub_district"": null, ""location_type"": null, ""area_components"": {""area"": null, ""sub_area"": null}, ""address_components"": {""road"": null, ""house"": null, ""place_name"": null}, ""distance_within_meters"": null}"
33380,Delicious Meal At Serendib Restaurant,"7394 Rafi Ibn Al Ali، 2413-2447, Riyadh 12831, Saudi Arabia",Food,Restaurant,,Open ⋅ Closes 11:30 PM,,24.673555,46.7308504,28:42.0,28:42.0,0,.,"{""id"": null, ""area"": null, ""city"": null, ""union"": null, ""address"": null, ""country"": ""Saudi Arabia"", ""district"": null, ""division"": null, ""pauroshova"": null, ""sub_district"": null, ""location_type"": null, ""area_components"": {""area"": null, ""sub_area"": null}, ""address_components"": {""road"": null, ""house"": null, ""place_name"": null}, ""distance_within_meters"": null}"
33420,Zoo Pharmacy,"7816 Mosab Ibn Umair St, 3327, Al Malaz, Riyadh 12832, Saudi Arabia",Shop,Pharmacy,,Open ⋅ Closes 11:45 PM,,24.6771449,46.7397016,46:07.0,46:07.0,0,.,"{""id"": null, ""area"": null, ""city"": null, ""union"": null, ""address"": null, ""country"": ""Saudi Arabia"", ""district"": null, ""division"": null, ""pauroshova"": null, ""sub_district"": null, ""location_type"": null, ""area_components"": {""area"": null, ""sub_area"": null}, ""address_components"": {""road"": null, ""house"": null, ""place_name"": null}, ""distance_within_meters"": null}"
33381,Zafaran Al Arab Restaurant,"12831, Riyadh 12831, Saudi Arabia",Food,Restaurant,,Open ⋅ Closes 1 AM,,24.6732968,46.7295134,29:34.0,29:34.0,0,.,"{""id"": null, ""area"": null, ""city"": null, ""union"": null, ""address"": null, ""country"": ""Saudi Arabia"", ""district"": null, ""division"": null, ""pauroshova"": null, ""sub_district"": null, ""location_type"": null, ""area_components"": {""area"": null, ""sub_area"": null}, ""address_components"": {""road"": null, ""house"": null, ""place_name"": null}, ""distance_within_meters"": null}"
33421,Zahrat Alrwadah Pharmacy,"8011 Mosab Ibn Umair St, Al Malaz, Riyadh 12833, Saudi Arabia",Shop,Pharmacy,,Open ⋅ Closes 3 AM,,24.6791937,46.742498,47:46.0,47:46.0,0,.,"{""id"": null, ""area"": null, ""city"": null, ""union"": null, ""address"": null, ""country"": ""Saudi Arabia"", ""district"": null, ""division"": null, ""pauroshova"": null, ""sub_district"": null, ""location_type"": null, ""area_components"": {""area"": null, ""sub_area"": null}, ""address_components"": {""road"": null, ""house"": null, ""place_name"": null}, ""distance_within_meters"": null}"
33382,Thambis Restaurant & Cafe,"Al Shawiar, Al Malaz, Riyadh 12831, Saudi Arabia",Food,Restaurant,,Open ⋅ Closes 11:30 PM,,24.671785,46.7300748,29:56.0,29:56.0,0,.,"{""id"": null, ""area"": null, ""city"": null, ""union"": null, ""address"": null, ""country"": ""Saudi Arabia"", ""district"": null, ""division"": null, ""pauroshova"": null, ""sub_district"": null, ""location_type"": null, ""area_components"": {""area"": null, ""sub_area"": null}, ""address_components"": {""road"": null, ""house"": null, ""place_name"": null}, ""distance_within_meters"": null}"
33422,Cafe Al Malaz,"4873 Prince Fahad Ibn Ibrahim Al Saud St, Al Malaz, 6563، Riyadh 12627, Saudi Arabia",Food,Restaurant,,,,24.6697337,46.7279099,49:59.0,49:59.0,0,.,"{""id"": null, ""area"": null, ""city"": null, ""union"": null, ""address"": null, ""country"": ""Saudi Arabia"", ""district"": null, ""division"": null, ""pauroshova"": null, ""sub_district"": null, ""location_type"": null, ""area_components"": {""area"": null, ""sub_area"": null}, ""address_components"": {""road"": null, ""house"": null, ""place_name"": null}, ""distance_within_meters"": null}"
