#,Region,Region,المنطقة,المنطقة,City,المدينة,Remote/Main,SID,Old Name,New Name,External Code,Anydesk ID,English Display Name - New,Arabic Display Name - New,latitude,longitude,Google Maps Link,Glass Room,Location Owner,SIM SN,Retail / LM,Short Address,Buliding NO.,Street Name,Street Name Arabic,District Eng,District Arabic,Zip code,Additional No.,Address,Main Modules,Adder Modules,Working Hours,Order #,Installed
1,Central,,الوسطى,,Riyadh,الرياض,Main,PSRU1001,221235,225875,221053,1268892963,Al Yasmeen Parcel Station - Riyadh - SPL,محطة طرود الياسمين - الرياض - سبل,24.83177,46.636671,https://goo.gl/maps/mwhu9q2JRcbadpr4A,NO,SPL Retail,899664181911765,Retail,RAYA8418,8418,King Abdulaziz Road,طريق الملك عبد العزيز,Al Yasmeen Dist.,,13325,4272,"8418 King Abdulaziz Road, Al Yasmeen Dist., Riyadh, 13325 - 4272",1,4,24 Hours,Old SPL Machines,Completed
2,Central,,الوسطى,,Riyadh,الرياض,Main,PSRU1002,220534,225876,25800,1121550209,Al Rawdah Parcel Station - Riyadh - SPL,محطة طرود الروضة - الرياض - سبل,24.730285,46.773525,https://goo.gl/maps/vqk9DyQX19VP5MvK8,NO,SPL Retail,8.99664181911766E+018,Retail,RFRA7779,7779,Zainab Bint Jahash Street,طريق زينب بنت جحش,,,13211,3846,Address Incomplete,1,8,24 Hours,Old SPL Machines,Completed
3,Central,,الوسطى,,Riyadh,الرياض,Main,PSRU1003,223202,225877,-,1844120588,Al Maather Parcel Station - Riyadh - King Faisal Specialist Hospital,محطة طرود المعذر - الرياض - مستشفى الملك فيصل التخصصي,24.671833,46.676642,https://goo.gl/maps/TbeewngQ22DRPHSp8,NO,King Faisal Hospital,8.99664181911766E+018,LM,RBMA2613,2613,Makkah Al Mukarramah Street,طريق مكة المكرمة,,,12713,7625,Address Incomplete,1,4,,Old SPL Machines,Completed
4,Central,,الوسطى,,Majmaa,المجمعة,Remote,PSMJ1004,221074,225878,21000,1660056189,Al Fayha Parcel Station - Majmaa - SPL,محطة طرود الفيحاء - المجمعة - سبل,25.902987,45.354468,https://goo.gl/maps/2pcH8hgJsavFRw2N8,YES,SPL Retail,8.99664181911766E+018,Retail,LMPB3488,3488,Ibn Arar Street,طريق ابن عرعر,,,15362,6895,Address Incomplete,1,4,24 Hours,Old SPL Machines,Completed
5,Central,,الوسطى,,Zelfy,الزلفي,Remote,PSZF1005,,225879,21100,1547208024,Al Farooq Parcel Station - Zelfy - SPL,محطة طرود الفاروق - الزلفي - سبل,26.302963,44.819104,https://goo.gl/maps/24WFpu65H3maTGZm7,YES,SPL Retail,8.99664181911766E+018,Retail,LZSA4884,4884,King Fahad Street,طريق الملك فهد,,,15971,7171,Address Incomplete,1,4,24 Hours,Old SPL Machines,Completed
6,Central,,الوسطى,,Buraydah,بريدة,Remote,PSBR1006,,225880,72505,1095193178,Al Iskan Parcel Station - Buraydah - SPL,محطة طرود الإسكان - بريدة - سبل,26.371672,43.934822,https://goo.gl/maps/dUVMdKaen1WpRXPU7,YES,SPL Retail,8.99664181911766E+018,Retail,QBWA2804,2804,Al Iskan Street,طريق الإسكان,,,52384,6800,Address Incomplete,1,4,24 Hours,Old SPL Machines,Completed
7,Central,,الوسطى,,Buraydah,بريدة,Remote,PSBR1007,,225881,70015,1782865141,Al Mawta Parcel Station - Buraydah - SPL,محطة طرود الموطاء - بريدة - سبل,26.322197,43.960933,https://goo.gl/maps/CStGprfHCVFvNB4VA,YES,SPL Retail,8.99664181911766E+018,Retail,QBMB2875,2875,Siraj Saleh Malaikah Street,طريق سراج صالح ملائكة,,,52355,7545,Address Incomplete,1,4,24 Hours,Old SPL Machines,Completed
8,Central,,الوسطى,,Unayzah,عنيزة,Remote,PSON1008,,225882,70400,1377410318,Al Muntazah Parcel Station - Unayzah - SPL,محطة طرود المنتزه - عنيزة - سبل,26.112479,43.983888,https://goo.gl/maps/YV5HQuypEsy84Lny5,YES,SPL Retail,8.99664181911766E+018,Retail,QAGA8385,8385,King Abdulaziz Street,طريق الملك عبد العزيز,,,56434,2101,Address Incomplete,1,4,24 Hours,Old SPL Machines,Completed
9,Central,,الوسطى,,Al Rass,الرس,Remote,PSRS1009,,225883,70500,1010539077,King Faisal Parcel Station - Al Rass - SPL,محطة طرود الملك فيصل - الرس - سبل,25.880763,43.491824,https://goo.gl/maps/rWfdx7ED9u1EihCr8,YES,SPL Retail,8.99664181911766E+018,Retail,QOUA7864,7864,Tariq Ibn Ziyad Street,طريق طارق بن زياد,,,58883,4184,Address Incomplete,1,4,24 Hours,Old SPL Machines,Completed
10,Northern,,الشمالية,,Tabuk,تبوك,Remote,PSTB1010,,225884,141100,1413595611,Al Faisaliyah Parcel Station - Tabuk - SPL,محطة طرود الفيصلية - تبوك - سبل,28.392968,36.564122,https://goo.gl/maps/bzMh8J4qy9UTZTpz5,YES,SPL Retail,8.99664181911766E+018,Retail,KGAC3087,3087,Khaled Ibn Abdulaziz Street,طريق خالد بن عبد العزيز,,,47912,6796,Address Incomplete,1,4,24 Hours,Old SPL Machines,Completed
11,Northern,,الشمالية,,Sakaka,سكاكا,Remote,PSSK1011,,225885,80900,619578773,Ahad Parcel Station - Sakaka - SPL,محطة طرود أحد - سكاكا - سبل,29.959092,40.194995,https://goo.gl/maps/ZTqKnTc71PWmwx1T8,YES,SPL Retail,8.99664181911766E+018,Retail,WRJB2712,2712,Prince Mansour Ibn Abdulaziz Street,طريق الأمير منصور ابن عبد العزيز,,,72341,7408,Address Incomplete,1,4,24 Hours,Old SPL Machines,Completed
12,Northern,Northern Borders,الشمالية,منطقة الحدود الشمالية,Arar,عرعر,Remote,PSAR1012,,225886,216991,1163579977,An Nasiriyah Parcel Station - Arar - SPL,محطة طرود حي الناصرية - عرعر - سبل,30.96913,41.03149,https://maps.app.goo.gl/qHZpZ8yHSM2n1GN57,No,SPL Retail,8.99664181911766E+018,Retail,SMJA7968,7968,Al Ameer Metib Bin Abdulaziz Rd,طريق الامير متعب بن عبدالعزيز,An Nasiriyah Dist.,حى الناصرية,73241,2605,"7968 Al Ameer Metib Bin Abdulaziz Rd, An Nasiriyah Dist., Arar, 73241 - 2605",1,4,24 Hours,Old SPL Machines,Completed
13,Northern,,الشمالية,,Turaif,طريف,Remote,PSTR1013,,225887,150400,1601221166,Old Industrial Area Parcel Station - Turaif - SPL,محطة طرود الصناعية القديمة - طريف - سبل,31.672869,38.662917,https://goo.gl/maps/3KdUzYjJSU4Yeng7A,YES,SPL Retail,8.99664181911766E+018,Retail,SCJA3487,3487,Omar Ibn Al Khattab Street,طريق عمر بن الخطاب,,,75311,8030,Address Incomplete,1,4,24 Hours,Old SPL Machines,Completed
14,Northern,,الشمالية,,Hail,حائل,Remote,PSHA1014,,225888,216947,1984449513,Al Matar Parcel Station - Hail - SPL,محطة طرود حي المطار - حائل - سبل,27.494722,41.697377,https://goo.gl/maps/Ys2JKJLfEgrqY6qD6,YES,SPL Retail,8.99664181911766E+018,Retail,HADC7554,7554,Al Jamaaieen 2 Street,طريق الجامعيين 2,,,55421,5073,Address Incomplete,1,4,24 Hours,Old SPL Machines,Completed
15,Central,,الوسطى,,Riyadh,الرياض,Main,PSRU1015,220797,225889,215521,1101590368,Al Amal Parcel Station - Riyadh - SPL,محطة طرود حي العمل - الرياض - سبل,24.650767,46.716447,https://goo.gl/maps/Qc6f5uCTUamEj9QV6,YES,SPL Retail,8.99664181911766E+018,Retail,RCSA8228,8228,King Abdulaziz Road,طريق الملك عبدالعزيز,,,12643,2121,Address Incomplete,1,4,24 Hours,Old SPL Machines,Completed
16,Central,,الوسطى,,Riyadh,الرياض,Main,PSRU1017,220535,225890,152211,177383632,Al Shifa Parcel Station - Riyadh - SPL,محطة طرود الشفا - الرياض - سبل ,24.575591,46.69744,https://maps.app.goo.gl/K7wagoMVinuNR4TN6,YES,SPL Retail,8.99664181911766E+018,Retail,RLFA2263,2263,Ibrahim Ibn Jumaiah Street,طريق إبراهيم بن جميعة,,,14712,7488,Address Incomplete,1,4,24 Hours,Old SPL Machines,Completed
17,Central,,الوسطى,,Riyadh,الرياض,Main,PSRU1018,220536,225891,25810,736749129,Al Olaya Parcel Station 1 - Riyadh - SPL,محطة طرود العليا 1 - الرياض - سبل,24.673609,46.694234,https://goo.gl/maps/3b3tADreEzFEtp6j7,YES,SPL Retail,8.99664181911766E+018,Retail,RHOB2555,8544,Abdul Malik Ibn Marwan Street,طريق عبد الملك بن مروان,,,12611,2555,Address Incomplete,1,4,24 Hours,Old SPL Machines,Completed
18,Central,,الوسطى,,Riyadh,الرياض,Main,PSRU1019,221024,225892,25810,1339113950,Al Olaya Parcel Station 2 - Riyadh - SPL,محطة طرود العليا 2 - الرياض - سبل,24.673609,46.694234,https://goo.gl/maps/3b3tADreEzFEtp6j7,YES,SPL Retail,8.99664181911766E+018,Retail,RHOB2555,8544,Abdul Malik Ibn Marwan Street,طريق عبد الملك بن مروان,,,12611,2555,Address Incomplete,1,4,24 Hours,Old SPL Machines,Completed
19,Central,,الوسطى,,Riyadh,الرياض,Main,PSRU1020,220689,225893,152215,166127851,West Nassem Parcel Station 1 - Riyadh - SPL,محطة طرود النسيم الغربية 1 - الرياض - سبل,24.729468,46.822832,https://goo.gl/maps/h7Ao5XSNtsVQUVLQA,YES,SPL Retail,8.99664181911766E+018,Retail,RQNA2753,2753, Al Imam Ahmad Bin Hanbal Street,طريق الإمام أحمد بن حنبل,,,14233,8929,Address Incomplete,1,4,24 Hours,Old SPL Machines,Completed
20,Central,,الوسطى,,Riyadh,الرياض,Main,PSRU1021,221073,225894,152215,1651039951,West Nassem Parcel Station 2 - Riyadh - SPL,محطة طرود النسيم الغربية 2 - الرياض - سبل,24.729371,46.822664,https://goo.gl/maps/h7Ao5XSNtsVQUVLQA,YES,SPL Retail,8.99664181911766E+018,Retail,RQNA2753,2753,Al Imam Ahmad Bin Hanbal Street,طريق الإمام أحمد بن حنبل,,,14233,8929,Address Incomplete,1,4,24 Hours,Old SPL Machines,Completed
21,Central,,الوسطى,,Riyadh,الرياض,Main,PSRU1024,,225896,-,166127851,Al Bayan Parcel Station - Riyadh - Aldress,محطة طرود البيان - الرياض - الدريس,24.685375,46.822239,https://goo.gl/maps/aBo3nmtEszJxuZhL8,YES,Aldress,8.99664181911766E+018,LM,RQFA4644,4644,Al Bayan Street,طريق البيان,,,14253,7931,Address Incomplete,1,4,24 Hours,Old SPL Machines,Completed
22,Central,,الوسطى,,Riyadh,الرياض,Main,PSRU1025,,225897,-,1767929001,Al Nadheem Parcel Station - Riyadh - Aldress,محطة طرود النظيم - الرياض - الدريس,24.813274,46.878199,https://goo.gl/maps/1YqRTi1ymZhvnfxT7,YES,Aldress,8.99664181911766E+018,LM,RSNA7401,7401,Khurais Street,طريق خريص,,,14814,2279,Address Incomplete,1,4,24 Hours,Old SPL Machines,Completed
23,Central,,الوسطى,,Riyadh,الرياض,Main,PSRU1026,,225898,-,1551199912,Al Badiah Parcel Station - Riyadh - Aldress,محطة طرود البديعة - الرياض - الدريس,24.616919,46.675413,https://goo.gl/maps/emwzFpSiz2fnd7ou6,YES,Aldress,8.99664181911766E+018,LM,RBBA6440,6440,Prince Fahad Ibn Faisal Ibn Farhan Saud Street,طريق الأمير فهد ابن فيصل ابن فرحان سعود,,,12755,3865,Address Incomplete,1,4,24 Hours,Old SPL Machines,Completed
24,Central,,الوسطى,,Riyadh,الرياض,Main,PSRU1027,221022,225899,152210,1216788552,Al Badiah Parcel Station - Riyadh - SPL,محطة طرود البديعة - الرياض - سبل,24.587466,46.603632,https://goo.gl/maps/9nzC6tH6mDGpssP57,YES,SPL Retail,8.99664181911766E+018,Retail,RIUE7197,7197,Prince Mussaed Ibn Abdulrahman Ibn Faisal Street,طريق الأمير مساعد بن عبدالرحمن بن فيصل,,,12977,2890,Address Incomplete,1,4,24 Hours,Old SPL Machines,Completed
25,Central,,الوسطى,,Riyadh,الرياض,Main,PSRU1028,220693,225900,152204,1851932586,Al Malaz Parcel Station - Riyadh - SPL,محطة طرود الملز - الرياض - سبل,24.670376,46.729341,https://goo.gl/maps/ZH4moWvghmrB3Pm48,YES,SPL Retail,8.99664181911766E+018,Retail,REMA2309,2309,Jarir Street,طريق جرير,,,12836,7050,Address Incomplete,1,4,24 Hours,Old SPL Machines,Completed
26,Central,,الوسطى,,Riyadh,الرياض,Main,PSRU1029,,225901,20334,1276313182,Al Sinaiyah Parcel Station - Riyadh - SPL,محطة طرود الصناعية - الرياض - سبل,24.645313,46.737934,https://goo.gl/maps/tDrWed7FwWy4NfAy9,YES,SPL Retail,8.99664181911766E+018,Retail,RENB2495,2495,Muhammad Ibn Muaeqil Street,طريق محمد بن معيقل,,,12843,6639,Address Incomplete,1,4,24 Hours,Old SPL Machines,Completed
27,Central,,الوسطى,,Riyadh,الرياض,Main,PSRU1030,,225902,223112,1430704465,Al Woroud Parcel Station - Riyadh - SPL,محطة طرود الورود - الرياض - سبل,24.734289,46.680506,https://maps.app.goo.gl/jPRALwF7aNChfeVs6,No,SPL Retail,8.99664181911766E+018,Retail,RHWA3337,3337,King Abdullah Ibn Abdulaziz Saud Branch,طريق الملك عبدالله الفرعي,Al Woroud Dist.,حي الورود,12254,8292,"3337 King Abdullah Ibn Abdulaziz Saud Branch, Al Woroud Dist., Riyadh, 12254 - 8292",1,4,24 Hours,Old SPL Machines,Completed
28,Central,,الوسطى,,Riyadh,الرياض,Main,PSRU1031,,225903,-,1512116037,Al Rayan Parcel Station - Riyadh - Al Dawaa,محطة طرود الريان - الرياض - الدواء,24.699946,46.772092,https://goo.gl/maps/A5ozZKfhA9TupqqH6,NO,Al Dawaa,8.99664181911766E+018,LM,RQRA6595,6595,Eastern Ring Branch Street,طريق الدائري الشرقي الفرعي,,,14213,3096,Address Incomplete,1,4,,Old SPL Machines,Completed
29,Central,,الوسطى,,Riyadh,الرياض,Main,PSRU1033,,225905,-,1195694185,Qurtobah Parcel Station - Riyadh - Al Nakhla Residential Resort,محطة طرود قرطبة - الرياض - مجمع النخلة السكني,24.809623,46.733735,https://goo.gl/maps/4sZUB3QErjYfaEbF7,YES,Alnakhla Resident,8.99664181911766E+018,LM,RUQB7892,7892,Al Sayouf Street,,,,13244,3936,Address Incomplete,1,4,24 Hours,Old SPL Machines,Completed
30,Central,,الوسطى,,Riyadh,الرياض,Main,PSRU1034,,225906,-,1282702121,Digital City Parcel Station - Riyadh - Digital City,محطة طرود المدينة الرقمية - الرياض - المدينة الرقمية,24.740153,46.639317,https://goo.gl/maps/L9hUYKUTAfv8W7VWA,YES,Digital City,8.99664181911766E+018,LM,RGNA6534,6534,Al Thaghr Street,طريق الثغر,,,12382,4208,Address Incomplete,1,4,,Old SPL Machines,Completed
31,Central,,الوسطى,,Riyadh,الرياض,Main,PSRU1035,,225907,-,693932913,Ar Rimayah Parcel Station - Riyadh - King Saud Bin Abdulaziz University,محطة طرود الرماية - الرياض - جامعة الملك سعود للعلوم الصحية,24.754538,46.852709,https://goo.gl/maps/CVAXfwvVkQx71L5E7,NO,KSU-Health Sciences,8.99664181911766E+018,LM,RSRB7555,7555,Prince Muteb Ibn Abdullah Ibn Abdulaziz Street,طريق الأمير متعب بن عبدالله بن عبد العزيز,,,14611,3067,Address Incomplete,1,4,,Old SPL Machines,Completed
32,Central,,الوسطى,,Riyadh,الرياض,Main,PSRU1036,,225908,-,1889640953,Al Sulaimaniyah Parcel Station - Riyadh - SPL,محطة طرود السليمانية - الرياض - سبل,24.707988,46.704609,https://goo.gl/maps/RBfmYBaUvyecHSvN8,YES,SPL LM,8.99664181911766E+018,LM,RHSA7289,7289,Ibn Al Rabie Street,طريق ابن الربيع,,,12243,4984,Address Incomplete,1,4,24 Hours,Old SPL Machines,Completed
33,Central,,الوسطى,,Dariaa,الدرعية,Remote,PSDR1037,,225909,23200,1986301583,Al Faisaliyah Parcel Station - Dariaa - SPL,محطة طرود الفيصلية - الدرعية - سبل ,24.7452,46.573478,https://goo.gl/maps/BqCixKsYZ6pgmh4y5,YES,SPL Retail,8.99664181911766E+018,Retail,RDFA8257,8257,Al Faisaliyah 50 Street,طريق الفيصلية 50,,,13712,3113,Address Incomplete,1,4,24 Hours,Old SPL Machines,Completed
34,Central,,الوسطى,,Al Kharj,الخرج,Remote,PSKA1038,221031,225910,20500,436803983,Al Wurud Parcel Station - Al Kharj - SPL,محطة طرود الورود - الخرج - سبل,24.165499,47.297639,https://goo.gl/maps/WRsgpCDm8nMyeap5A,YES,SPL Retail,8.99664181911766E+018,Retail,OKSA8455,8455,Ibn Badran Street,طريق ابن بدران,,,16278,2273,Address Incomplete,1,4,24 Hours,Old SPL Machines,Completed
35,Central,,الوسطى,,Shaqra,شقراء,Remote,PSSQ1039,,225911,20600,1651901263,Al Washm Parcel Station - Shaqra - SPL,محطة طرود الوشم - شقراء - سبل,25.251834,45.258492,https://goo.gl/maps/z9ABMVfcgs62jY8m9,YES,SPL Retail,8.99664181911766E+018,Retail,LSSA8155,8155,Al Nakheel Street,طريق النخيل,,,15573,2346,Address Incomplete,1,4,24 Hours,Old SPL Machines,Completed
36,Central,,الوسطى,,Dwadmi,الدوادمي,Remote,PSDW1040,,225912,20700,1202848539,Al Nahdah Parcel Station - Dwadmi - SPL,محطة طرود النهضة - الدوادمي - سبل,24.519358,44.416957,https://goo.gl/maps/tA9E7bCN4U4Sg3p1A,YES,SPL Retail,8.99664181911766E+018,Retail,LDMB6891,6891, Hakeem Ibn Hazam Street,طريق حكيم بن حزام,,,17452,4250,Address Incomplete,1,4,24 Hours,Old SPL Machines,Completed
37,Eastern,,الشرقية,,Dammam,الدمام,Main,PSDM1041,,225913,46560,1483197271,Prince Muhammed Ibn Saud Parcel Station - Dammam - SPL,محطة طرود حي الأمير محمد بن سعود - الدمام - سبل ,26.435904,50.107937,https://goo.gl/maps/Xoc47Qp9Wsn1c2sp6,YES,SPL Retail,8.99664181911766E+018,Retail,EDJA7843,7843,9Th Street,طريق التاسع,,,32241,4621,Address Incomplete,1,4,24 Hours,Old SPL Machines,Completed
38,Eastern,,الشرقية,,Dammam,الدمام,Main,PSDM1042,,225997,-,1836201133,Az Zuhur Parcel Station - Dammam - Al Dawaa,محطة طرود الزهور - الدمام - الدواء,26.458636,50.083343,https://maps.app.goo.gl/Zv2qRc55AZU2Yna19,NO,Al Dawaa,8.99664181911766E+018,LM,EMDA4195,4195,Al Khalij Rd,طريق الخليج,Az Zuhur Dist.,,32423,7943,"4195 Al Khalij Rd, Az Zuhur Dist., Dammam, 32423 - 7943",1,4,,Old SPL Machines,Completed
39,Eastern,,الشرقية,,Dammam,الدمام,Main,PSDM1043,,225914,40650,1108033294,Al Itisalat Parcel Station - Dammam - SPL,محطة طرود حي اللإتصالات - الدمام - سبل ,26.407269,50.082624,https://goo.gl/maps/NDvg9NUG1krgDxjC6,YES,SPL Retail,8.99664181911766E+018,Retail,EDMC3510,3510,Eighteenth Street,طريق الثامن عشر,,,32257,7827,Address Incomplete,1,4,24 Hours,Old SPL Machines,Completed
40,Eastern,,الشرقية,,Khobar,الخبر,Main,PSKH1044,,225915,40900,1051303648,Al Khubar Al Janubiyah Parcel Station 1 - Khobar - SPL,محطة طرود الخبر الجنوبية 1 - الخبر - سبل,26.280833,50.206448,https://goo.gl/maps/iFqW42AfsWmWfzJH9,YES,SPL Retail,8.99664181911766E+018,Retail,EEDB5089,5089,Khadem Al Haramain Al Sharefeen Street,طريق خادم الحرمين الشريفين,,,34621,8429,Address Incomplete,1,4,24 Hours,Old SPL Machines,Completed
41,Eastern,,الشرقية,,Khobar,الخبر,Main,PSKH1045,,225916,40900,1146181482,Al Khubar Al Janubiyah Parcel Station 2 - Khobar - SPL,محطة طرود الخبر الجنوبية 2 - الخبر - سبل,26.280799,50.206565,https://goo.gl/maps/iFqW42AfsWmWfzJH9,YES,SPL Retail,8.99664181911766E+018,Retail,EEDB5089,5089,Khadem Al Haramain Al Sharefeen Street,طريق خادم الحرمين الشريفين,,,34621,8429,Address Incomplete,1,4,24 Hours,Old SPL Machines,Completed
42,Eastern,,الشرقية,,Khobar,الخبر,Main,PSKH1046,,225917,41111,1273257114,Al Aqrabiyah Parcel Station - Khobar - SPL,محطة طرود العقربية - الخبر - سبل,26.296688,50.200049,https://goo.gl/maps/2qNDQGqX1aLbK1KeA,NO,SPL Retail,8.99664181911766E+018,Retail,EKJA7580,7580,Riyadh Street,طريق الرياض,,,34446,3972,Address Incomplete,1,4,24 Hours,Old SPL Machines,Completed
43,Eastern,,الشرقية,,Khobar,الخبر,Main,PSKH1047,,225918,-,1524842601,Ar Rawabi Parcel Station - Khobar - Extra Mall,محطة طرود الروابي - الخبر - اكسترا مول,26.33421,50.212041,https://goo.gl/maps/oVzXEKGjR3QFrSH57,NO,Extra,8.99664181911766E+018,LM,EKDA8868,8868,King Faisal Street,طريق الملك فيصل ,,,34421,3176,Address Incomplete,1,4,,Old SPL Machines,Completed
44,Eastern,,الشرقية,,Khobar,الخبر,Main,PSKH1048,,225919,40250,1852903007,Ar Rakah Al Janubiyah Parcel Station - Khobar - SPL,محطة طرود الراكة - الخبر - سبل,26.338211,50.207216,https://goo.gl/maps/XHnF52Xc43qK2upQA,NO,SPL Retail,8.99664181911766E+018,Retail,EADA3292,3292, Prince Sultan Street,طريق الأمير سلطان,,,34227,6179,Address Incomplete,1,4,24 Hours,Old SPL Machines,Completed
45,Eastern,,الشرقية,,Jubail,الجبيل,Remote,PSJU1049,,225920,42200,1576972201,Al Huwaylat Parcel Station - Jubail - SPL,محطة طرود الحويلات - الجبيل - سبل,27.099601,49.572455,https://goo.gl/maps/ArwQU4fgjwGHdNKc9,YES,SPL Retail,8.99664181911766E+018,Retail,EJAA4357,4357,Al Dairie Street,طريق الدائري,,,35718,7560,Address Incomplete,1,4,24 Hours,Old SPL Machines,Completed
46,Eastern,,الشرقية,,Qatif,القطيف,Remote,PSQT1050,,225921,41000,1938130994,Al Madaris Parcel Station - Qatif - SPL,محطة طرود المدارس - القطيف - سبل,26.556147,50.001406,https://goo.gl/maps/C77vj1atN8erRVNE9,YES,SPL Retail,8.99664181911766E+018,Retail,EGGA7204,7204,Al Imam Ali Ibn Abi Talib Street,طريق الإمام علي بن أبي طالب,,,32636,2458,Address Incomplete,1,4,24 Hours,Old SPL Machines,Completed
47,Eastern,,الشرقية,,Ras Tanura,راس تنورة,Remote,PSRT1051,,225922,41200,1585620262,Ar Rawdah Parcel Station - Ras Tanura - SPL,محطة طرود الروضة - راس تنورة - سبل,26.709396,50.070775,https://goo.gl/maps/Fe6PmVye7Bb7mT1R6,YES,SPL Retail,8.99664181911766E+018,Retail,ERAA4085,4085,Demashq Street,طريق دمشق,,,32817,7091,Address Incomplete,1,4,24 Hours,Old SPL Machines,Completed
48,Eastern,,الشرقية,,Buqayq,بقيق,Remote,PSBQ1052,,225923,41400,1987658282,Al Madina Parcel Station - Buqayq - SPL,محطة طرود المدينة - بقيق - سبل,25.926936,49.662114,https://goo.gl/maps/4DKjMEvD1TagJvu57,YES,SPL Retail,8.99664181911766E+018,Retail,FBPA5128,5128,Jeddah Street,طريق جدة,,,33261,7424,Address Incomplete,1,4,24 Hours,Old SPL Machines,Completed
49,Eastern,,الشرقية,,Dhahran,الظهران,Main,PSDH1053,,225924,-,1792422599,Al Mujamma Parcel Station - Dhahran - Aramco Camp,محطة طرود المجمع - الظهران - مجمع أرامكو,26.309247,50.130092,https://goo.gl/maps/Afx2nrRKVoQ6uaYKA,YES,Aramco,8.99664181911766E+018,LM,EKPB4297,4297,Eastern Ave Street,طريق الجادة الشرقية,,,34465,8091,Address Incomplete,1,4,24 Hours,Old SPL Machines,Completed
50,Eastern,,الشرقية,,Dhahran,الظهران,Main,PSDH1054,,225925,-,1986796285,Munira Plaza Parcel Station - Dhahran - Aramco Camp,محطة طرود منيرة بلازا - الظهران - مجمع أرامكو,26.315298,50.131743,https://goo.gl/maps/jMKKfWbjvx3tQMfJ9,YES,Aramco,8.99664181911766E+018,LM,EKPA2818,2818,Al Dhahran West 169 Street,,,,34462,7278,Address Incomplete,1,4,24 Hours,Old SPL Machines,Completed
51,Eastern,,الشرقية,,Dhahran,الظهران,Main,PSDH1055,,225926,-,1111751351,Jabel Heights Parcel Station - Dhahran - Aramco Camp,محطة طرود جبل هايتس - الظهران - مجمع أرامكو,26.289389,50.101278,https://goo.gl/maps/gm9wPhYwK9pb9d1bA,YES,Aramco,8.99664181911766E+018,LM,,,Al Dhahran West 11 Street,,,,34473,,Address Incomplete,1,4,24 Hours,Old SPL Machines,Completed
52,Eastern,,الشرقية,,Al Hofuf,الهفوف,Remote,PSHU1056,,225927,40800,1424260463,Al Mubrraz Parcel Station - Al Hofuf - SPL,محطة طرود المبرز - الهفوف - سبل,25.386137,49.562712,https://goo.gl/maps/9dBtFcFcKtN6uUbBA,YES,SPL Retail,8.99664181911766E+018,Retail,FMDA4967,4967,Umm Kulthoum Bint Ali Street,طريق أم كلثوم بنت علي,,,36421,9328,Address Incomplete,1,4,24 Hours,Old SPL Machines,Completed
53,Eastern,,الشرقية,,Al Hofuf,الهفوف,Remote,PSHU1057,,225928,41119,1716657875,Al Faisaliyah Parcel Station - Al Hofuf - SPL,محطة طرود الفيصلية - الهفوف - سبل,25.390009,49.59911,https://goo.gl/maps/sa8HwGYouxiYpryRA,YES,SPL Retail,8.99664181911766E+018,Retail,FHDD9453,9453,Prince Saud Al Faisal Street,طريق الأمير سعود الفيصل,,,36364,2296,Address Incomplete,1,4,24 Hours,Old SPL Machines,Completed
54,Southern,,الجنوبية,,Abha,أبها,Remote,PSAB1058,,225929,216677,1619137788,An Nasb Parcel Station - Abha - SPL,محطة طرود النصب - أبها - سبل,18.220742,42.510392,https://goo.gl/maps/vKkEDMjidNhhTBEMA,YES,SPL Retail,8.99664181911766E+018,Retail,ABDD4443,4443, Makkah Almukarama Street,طريق مكة المكرمة,,,62521,8315,Address Incomplete,1,4,24 Hours,Old SPL Machines,Completed
55,Southern,,الجنوبية,,Khamis Mushait,خميس مشيط,Remote,PSKM1059,,225930,51800,1538262861,Tayib Al Ism Parcel Station - Khamis Mushait - SPL,محطة طرود طيب الإسم - خميس مشيط - سبل,18.314878,42.699881,https://goo.gl/maps/neYWYrYemxMQMabE8,YES,SPL Retail,8.99664181911766E+018,Retail,AKMD6956,6956,Abdulrahman Ibn Azhar Ibn Aouf Street,طريق عبد الرحمن ابن أزهر ابن عوف,,,62456,3315,Address Incomplete,1,4,24 Hours,Old SPL Machines,Completed
56,Southern,,الجنوبية,,Baha,الباحة,Remote,PSBH1060,,225931,216956,1278349644,An Nuzhah Parcel Station - Baha - SPL,محطة طرود النزهة - الباحة - سبل,20.016575,41.475029,https://goo.gl/maps/1QYnCCNRrBxvUvDbA,YES,SPL Retail,8.99664181911766E+018,Retail,BADA7039,7039,Abdullah Ibn Abdullah Ibn Abi Malik Street,طريق عبد الله بن عبد الله بن أبي مالك,,,65528,2871,Address Incomplete,1,4,24 Hours,Old SPL Machines,Completed
57,Southern,,الجنوبية,,Najran,نجران,Remote,PSNJ1061,,225932,216922,518148491,Al Faisaliyah Parcel Station - Najran - SPL,محطة طرود الفيصلية - نجران - سبل,17.526163,44.204976,https://goo.gl/maps/JVKfxzhYwaRBpo3Z8,YES,SPL Retail,8.99664181911766E+018,Retail,NJSB4816,4816,King Abdul Aziz Street,طريق الملك عبد العزيز,,,66271,7429,Address Incomplete,1,4,24 Hours,Old SPL Machines,Completed
58,Southern,,الجنوبية,,Jizan,جازان,Remote,PSJZ1062,,225933,216647,1489815295,Al Rawdah Parcel Station - Jizan - SPL,محطة طرود الروضة - جازان - سبل,16.914361,42.562056,https://goo.gl/maps/JkG8wLN7ACCvVcYb6,YES,SPL Retail,8.99664181911766E+018,Retail,GGDA4117,4117,Nassib Ibn Rabah Street,طريق نصيب بن رباح,,,82727,8487,Address Incomplete,1,4,24 Hours,Old SPL Machines,Completed
59,Western,,الغربية,,Jeddah,جدة,Main,PSJD1063,,225934,152439,1157678865,Al Balad Parcel Station - Jeddah - SPL,محطة طرود البلد - جدة - سبل,21.482643,39.182716,https://goo.gl/maps/LQidkrdujza7dH5C6,YES,SPL Retail,8.99664181911766E+018,Retail,JACD6671,6671,Baishin Street,طريق باعشن,,,22233,2672,Address Incomplete,1,4,24 Hours,Old SPL Machines,Completed
60,Western,,الغربية,,Jeddah,جدة,Main,PSJD1065,,225936,120415,88851400,Al Safa Parcel Station - Jeddah - SPL,محطة طرود الصفا - جدة - سبل,21.60073,39.197941,https://goo.gl/maps/XGiucMKDMpuxGoty5,YES,SPL Retail,8.99664181911766E+018,Retail,JDSA8319,8319,Saleh Ibn Fairouz Street,طريق صالح بن فيروز,,,23452,2601,Address Incomplete,1,4,24 Hours,Old SPL Machines,Completed
61,Western,,الغربية,,Jeddah,جدة,Main,PSJD1066,,225937,-,1210359058,Al Nuzla Parcel Station - Jeddah - SPL,محطة طرود النزلة - جدة - سبل,21.467056,39.21275,https://goo.gl/maps/eaBnmfAz4E3WnTU67,YES,SPL LM,8.99664181911766E+018,LM,JINB3571,3571,Al Idhaah Street,طريق الإذاعة ,,,22334,7179,Address Incomplete,1,4,24 Hours,Old SPL Machines,Completed
62,Western,,الغربية,,Jeddah,جدة,Main,PSJD1067,,225938,120401,1202848539,Prince Abdulmajeed Parcel Station - Jeddah - SPL,محطة طرود حي الأمير عبد المجيد - جدة - سبل,21.423835,39.285671,https://goo.gl/maps/Yt6DppBcrujZhKRG6,YES,SPL Retail,8.99664181911766E+018,Retail,JJAA5003,5003,Hussain Mufti Street, طريق حسين مفتي,,,22432,7391,Address Incomplete,1,4,24 Hours,Old SPL Machines,Completed
63,Western,,الغربية,,Jeddah,جدة,Main,PSJD1068,,225939,120431,1715806800,Al Bawadi Parcel Station - Jeddah - SPL,محطة طرود البوادي - جدة - سبل,21.596361,39.166816,https://goo.gl/maps/y9cTaQywqggkNqNs7,YES,SPL Retail,8.99664181911766E+018,Retail,JDBB7855,7855,Habib Ibn Saad Street,طريق حبيب بن سعد,,,23443,2723,Address Incomplete,1,4,24 Hours,Old SPL Machines,Completed
64,Western,,الغربية,,Makkah,مكة المكرمة,Remote,PSMK1069,,225940,220972,1380082885,Ar Rusayfah Parcel Station - Makkah - Al Jerooshi Mall,محطة طرود الرصيفة - مكة المكرمة - الجروشي مول,21.40267,39.78738,https://goo.gl/maps/7nxQ2F14H5euiMLGA,NO,SPL Retail,8.99664181911766E+018,Retail,MCCB2800,2800,Prince Naif Ibn Abdulaziz Street,طريق الأمير نايف ابن عبدالعزيز,,,24232,6862,Address Incomplete,1,4,24 Hours,Old SPL Machines,Completed
65,Western,,الغربية,,Makkah,مكة المكرمة,Remote,PSMK1070,,225941,126501,1408999551,Al Awali Parcel Station - Makkah - SPL,محطة طرود العوالي - مكة المكرمة - سبل,21.357432,39.876645,https://goo.gl/maps/qms6R2rv7v7KGiUM7,YES,SPL Retail,8.99664181911766E+018,Retail,MDAA2277,2277,Al Hadarat Street,طريق الحضارات,,,24372,8289,Address Incomplete,1,4,24 Hours,Old SPL Machines,Completed
66,Western,,الغربية,,Makkah,مكة المكرمة,Remote,PSMK1071,,225942,215259,1482120859,Al Rashidiyah Parcel Station - Makkah - SPL,محطة طرود الراشدية - مكة المكرمة - سبل,21.459843,39.94865,https://goo.gl/maps/H6tTJWjCDJxuyttaA,YES,SPL Retail,8.99664181911766E+018,Retail,MERB8554,8554,Al Muhandes Umar Qadi Street,طريق المهندس عمر قاضي,,,24268,2085,Address Incomplete,1,4,24 Hours,Old SPL Machines,Completed
67,Western,,الغربية,,Taif,الطائف,Remote,PSTA1072,,225943,218698,1611813624,Jabrah Parcel Station - Taif - SPL,محطة طرود جبرة - الطائف - سبل,21.299108,40.428269,https://goo.gl/maps/qnYJNWUU39aXzFJ69,YES,SPL Retail,8.99664181911766E+018,Retail,TADA8889,8889,Airport Street,طريق المطار,,,26523,3557,Address Incomplete,1,4,24 Hours,Old SPL Machines,Completed
68,Western,,الغربية,,Madinah,المدينة المنورة,Remote,PSMD1073,,225944,217459,1115437899,Al Aziziyah Parcel Station - Madinah - SPL,محطة طرود العزيزية - المدينة المنورة - سبل,24.415473,39.526524,https://goo.gl/maps/sBqNkLGB61q3AHew5,YES,SPL Retail,8.99664181911766E+018,Retail,DMSD8308,8308,Prince Naif Ibn Abdulaziz Street,طريق الأمير نايف بن عبدالعزيز,,,42376,5570,Address Incomplete,1,4,24 Hours,Old SPL Machines,Completed
69,Western,,الغربية,,Madinah,المدينة المنورة,Remote,PSMD1074,,225945,61250,1271717096,Al Khalidiyah Parcel Station - Madinah - SPL,محطة طرود الخالدية - المدينة المنورة - سبل ,24.453999,39.6625,https://goo.gl/maps/HC2muV9Rzjhvu2Cr8,YES,SPL Retail,8.99664181911766E+018,Retail,DMAF4818,4818,Suhail Ibn Rafi Street,طريق سهيل بن رافع,,,42317,7050,Address Incomplete,1,4,24 Hours,Old SPL Machines,Completed
70,Western,,الغربية,,Madinah,المدينة المنورة,Remote,PSMD1075,,225946,60610,1115437899,Al Qiblatayn Parcel Station - Madinah - SPL,محطة طرود القبلتين - المدينة المنورة - سبل,24.485139,39.573996,https://goo.gl/maps/eWAUw1kBR8DDJ5XP7,NO,SPL Retail,8.99664181911766E+018,Retail,DMMB4492,4492,Abu Bakr Al Siddiq Street,طريق أبو بكر الصديق ,,,42351,8009,Address Incomplete,1,4,24 Hours,Old SPL Machines,Completed
71,Central,,الوسطى,,Riyadh,الرياض,Main,PSRU1076,,225947,10201,1769273730,Al Nahdah Parcel Station - Riyadh - SASCO,محطة طرود النهضة - الرياض - ساسكو,24.759278,46.83225,https://maps.app.goo.gl/iHUX382fxZGMy1FX6,NO,Sasco Palm,,LM,RFNA4495,4495,Al Taqwa Street,طريق التقوى,,,13222,6997,Address Incomplete,1,1,24 Hours,Order #1,Completed
72,Central,,الوسطى,,Riyadh,الرياض,Main,PSRU1077,,225948,10301,1412713354,Al Andalus Parcel Station - Riyadh - SASCO,محطة طرود الأندلس - الرياض - ساسكو,24.734389,46.78425,https://maps.app.goo.gl/w8BCyWBAPtSiCwiZ8,NO,Sasco Palm,,LM,RFSA6503,6503,Khalid Ibn Al Waleed Street,طريق خالد بن الوليد,,,13212,3047,Address Incomplete,1,1,24 Hours,Order #1,Completed
73,Central,,الوسطى,,Riyadh,الرياض,Main,PSRU1078,,225949,10601,1255026302,Al Sahafah Parcel Station - Riyadh - SASCO,محطة طرود الصحافة - الرياض - ساسكو,24.797972,46.651139,https://maps.app.goo.gl/2qz1CzHVpweBwigC6,NO,Sasco Palm,,LM,RASC8290,8290,Al Thumamah Rd,طريق الثمامة,Al Sahafah Dist.,,13315,4065,"8290 Al Thumamah Rd, Al Sahafah Dist., Riyadh, 13315 - 4065",1,1,24 Hours,Order #1,Completed
74,Central,,الوسطى,,Riyadh,الرياض,Main,PSRU1079,,225950,10901,1660922113,Al Raed Parcel Station - Riyadh - SASCO,محطة طرود الرائد - الرياض - ساسكو,24.708278,46.627972,https://maps.app.goo.gl/TNpac1bWG2MLRDJZ8,NO,Sasco Palm,,LM,RGDA2481,2481,Amr Bin Aws Street,طريق عمرو بن اوس,,,12356,7552,Address Incomplete,1,1,24 Hours,Order #1,Completed
75,Central,,الوسطى,,Riyadh,الرياض,Main,PSRU1080,,225951,11301,197034309,Al Wadi Parcel Station - Riyadh - SASCO,محطة طرود الوادي - الرياض - ساسكو,24.798056,46.697306,https://maps.app.goo.gl/CUe7gj6nByNMCVHN8,NO,Sasco Palm,,LM,RAWA8300,8300,Othman Ibn Afaan Branch Street,طريق عثمان بن عفان الفرعي,,,13313,3910,Address Incomplete,1,1,24 Hours,Order #1,Completed
76,Central,,الوسطى,,Riyadh,الرياض,Main,PSRU1081,,225952,11401,1004295013,Al Munisiyah Parcel Station - Riyadh - SASCO,محطة طرود المونسية - الرياض - ساسكو,24.820556,46.786333,https://maps.app.goo.gl/d4ARxpttqTAY7ZLL7,NO,Sasco Palm,,LM,RUMB3896,3896,Al Dammam Branch Street,طريق الدمام الفرعي,,,13253,6587,Address Incomplete,1,1,24 Hours,Order #1,Completed
77,Central,,الوسطى,,Riyadh,الرياض,Main,PSRU1082,,225953,12901,1815967218,King Khalid Airport Road Parcel Station - Riyadh - SASCO,محطة طرود طريق مطار الملك خالد - الرياض - ساسكو,24.847111,46.733694,https://maps.app.goo.gl/sQUStntWGhzXiJz56,NO,Sasco Palm,,LM,RUKA8391,8391,Airport Street,طريق المطار,,,13413,3515,Address Incomplete,1,1,24 Hours,Order #1,Completed
78,Central,Riyadh,الوسطى,منطقة الرياض,Riyadh,الرياض,Main,PSRU1083,,225954,125,1304929661,Al Nakheel Parcel Station - Riyadh - Panda,محطة طرود النخيل - الرياض - بنده,24.744262,46.621259,https://maps.app.goo.gl/uH88iVj7WA41upYB8,No,Panda,,LM,RGNA5119,5119,Prince Turki Bin Abdulaziz Al Awwal,الامير تركي بن عبدالعزيز الاول,Al Nakheel Dist.,حي النخيل,12391,8254,"5119 Prince Turki Bin Abdulaziz Al Awwal, Al Nakheel Dist., Riyadh, 12391 - 8254",1,1,24 Hours,Order #1,Completed
79,Central,,الوسطى,,Riyadh,الرياض,Main,PSRU1084,,225955,13601,1417042509,Sultanah Parcel Station - Riyadh - SASCO,محطة طرود سلطانة - الرياض - ساسكو,24.601167,46.696194,https://maps.app.goo.gl/Ww4StQpSY9KZRSYJ9,NO,Sasco Palm,,LM,RBSA4650,4650,As Suwaidi Al Am street,طريق السويدي العام,,,12775,6478,Address Incomplete,1,1,24 Hours,Order #1,Completed
80,Central,,الوسطى,,Riyadh,الرياض,Main,PSRU1085,,225956,16501,1147919354,Al Rawabi Parcel Station - Riyadh - SASCO,محطة طرود الروابي - الرياض - ساسكو,24.6875,46.797583,https://maps.app.goo.gl/fJCteLUoKJpXNAdv6,NO,Sasco Palm,,LM,RQWA4450,4450,Prince Saad Bin Abdulrahman Street,طريق الأمير سعد بن عبد الرحمن,,,14216,6889,Address Incomplete,1,1,24 Hours,Order #1,Completed
81,Central,,الوسطى,,Riyadh,الرياض,Main,PSRU1086,,225957,16601,1521928615,Ar Rabie Parcel Station - Riyadh - SASCO,محطة طرود الربيع - الرياض - ساسكو,24.806278,46.671361,https://maps.app.goo.gl/bpc3j7HLKUAfgVp78,NO,Sasco Palm,,LM,RARA8212,8212,Abi Bakr Al Siddiq Branch Street,طريق أبي بكر الصديق,,,13316,3947,Address Incomplete,1,1,24 Hours,Order #1,Completed
82,Central,,الوسطى,,Riyadh,الرياض,Main,PSRU1087,,225958,17401,1431544363,Irqah Parcel Station - Riyadh - SASCO,محطة طرود عرقة - الرياض - ساسكو,24.689917,46.587861,https://maps.app.goo.gl/sVqdMe3E8Y9tLExAA,NO,Sasco Palm,,LM,RYIA6315,6315,Hassan Malki Street,طريق حسن مالكي,,,12586,3151,Address Incomplete,1,1,24 Hours,Order #1,Completed
83,Central,,الوسطى,,Riyadh,الرياض,Main,PSRU1088,,225959,18301,1883008881,Al Ezdihar Parcel Station - Riyadh - SASCO,محطة طرود الإزدهار- الرياض - ساسكو,24.771278,46.712167,https://maps.app.goo.gl/BRpPx7pBqArzU5ZJ8,NO,Sasco Palm,,LM,RHZA6313,6313,Othman Ibn Afaan Branch Street,طريق عثمان بن عفان الفرعي,,,12485,2774,Address Incomplete,1,1,24 Hours,Order #1,Completed
84,Central,,الوسطى,,Riyadh,الرياض,Main,PSRU1089,,225960,17901,1385482676,Utayqah Parcel Station - Riyadh - SASCO,محطة طرود عتيقة - الرياض - ساسكو,24.601473,46.705296,https://maps.app.goo.gl/SuHB3pa8nDggSUQ26,NO,Sasco Palm,,LM,RCAA7769,7769,King Fahad Street,طريق الملك فهد,,,12671,2202,Address Incomplete,1,1,24 Hours,Order #1,Completed
85,Central,,الوسطى,,Riyadh,الرياض,Main,PSRU1090,,225961,19701,1897450151,Al Narjis Parcel Station - Riyadh - SASCO,محطة طرود النرجس - الرياض - ساسكو,24.821257,46.685279,https://maps.app.goo.gl/nw1Tbh328sfpdwCu8,NO,Sasco Palm,,LM,RAND7402,7402,Othman Ibn Afaan Branch Street,طريق عثمان بن عفان الفرعي,,,13323,4478,Address Incomplete,1,1,24 Hours,Order #1,Completed
86,Central,,الوسطى,,Riyadh,الرياض,Main,PSRU1091,,225962,10141,1551085852,Al Malaz Parcel Station - Riyadh - SASCO,محطة طرود الملز - الرياض - ساسكو,24.662812,46.730213,https://maps.app.goo.gl/veJDuyFYwJSeBzix7,NO,Sasco Palm,,LM,REMB3557,3557,Al Jamiah Street,طريق الجامعة,,,12642,6997,Address Incomplete,1,1,24 Hours,Order #1,Completed
87,Central,,الوسطى,,Riyadh,الرياض,Main,PSRU1092,,225963,17701,1595414327,Al Murabba Parcel Station - Riyadh - SASCO,محطة طرود المربع - الرياض - ساسكو,24.66225,46.708556,https://maps.app.goo.gl/PmkKG8CxQukr6SnX7,NO,Sasco Palm,,LM,RCRA7314,7314,Prince Abdul Aziz Bin Musaid Bin Jalawi Street,طريق الأمير عبد العزيز بن مساعد بن جلوي,,,12613,4020,Address Incomplete,1,1,24 Hours,Order #1,Completed
88,Central,,الوسطى,,Riyadh,الرياض,Main,PSRU1093,,225964,11010,567136321,Al Mishael Parcel Station - Riyadh - SASCO,محطة طرود المشاعل - الرياض - ساسكو,24.608214,46.830847,https://maps.app.goo.gl/2bGzt1WdSf7DJLpK7,NO,Sasco Palm,,LM,RNMA2718,2718,Eastern Ring  Street,طريق الدائري الشرقي,,,14325,6931,Address Incomplete,1,1,24 Hours,Order #1,Completed
89,Central,,الوسطى,,Riyadh,الرياض,Main,PSRU1094,,225965,19903,1099184238,Al Olaya Pacrel Station - Riyadh - SASCO,محطة طرود العليا - الرياض - ساسكو,24.6960591,46.6943892,https://maps.app.goo.gl/cGveS1G7UgJVieQa7,NO,Sasco Palm,,LM,RHOA7770,7770,Abdullah Bin Sulaiman Al Hamadan Street,طريق عبد الله بن سليمان الحمدان,,,12222,3081,Address Incomplete,1,1,24 Hours,Order #1,Completed
90,Central,Riyadh,الوسطى,منطقة الرياض,Riyadh,الرياض,Main,PSRU1095,,225966,118,1956506861,Al Aziziyah Parcel Station - Riyadh - Panda,محطة طرود العزيزية - الرياض - بنده,24.586399,46.759886,https://maps.app.goo.gl/bKUsfXsjbF55CEc28,No,Panda,,LM,RMAB3345,3345,An Nasr Rd,طريق النصر,Al Aziziyah Dist.,حي العزيزية,14515,8765,"3345 An Nasr Rd, Al Aziziyah Dist., Riyadh, 14515 - 8765",1,1,7 AM to 11 PM,Order #1,Completed
91,Central,,الوسطى,,Riyadh,الرياض,Main,PSRU1096,,225967,19301,1482741285,West Oraija Parcel Station - Riyadh - SASCO,محطة طرود العريجاء الغربية - الرياض - ساسكو,24.583236,46.60125,https://maps.app.goo.gl/8fwjgArUSJcsQNVh9,NO,Sasco Palm,,LM,RIUD6719,6719,Westren Ring Street,طريق الدائري الغربي,,,12978,2653,Address Incomplete,1,1,24 Hours,Order #1,Completed
92,Central,,الوسطى,,Riyadh,الرياض,Main,PSRU1097,,225968,10691,1580689199,Al Maseef Parcel Station - Riyadh - SASCO,محطة طرود المصيف - الرياض - ساسكو,24.762611,46.672472,https://maps.app.goo.gl/qowA5enR7mW2a2RZ9,NO,Sasco Palm,,LM,RHYB7027,7072,King Abdul Aziz Street,طريق الملك عبد العزيز,,,12467,2432,Address Incomplete,1,1,7 AM to 11 PM,Order #1,Completed
93,Central,,الوسطى,,Riyadh,الرياض,Main,PSRU1098,,225969,10681,1993823175,Al Duraihemiyah Parcel Station - Riyadh - SASCO,محطة طرود الدريهمية - الرياض - ساسكو,24.593306,46.703389,https://maps.app.goo.gl/J7nA6K2ynnvDsZDu5,NO,Sasco Palm,,LM,RBDA6858,6858,King Fahad Street,طريق الملك فهد,,,12796,3334,Address Incomplete,1,1,7 AM to 11 PM,Order #1,Completed
94,Central,,الوسطى,,Riyadh,الرياض,Main,PSRU1099,,225970,19601,1781832815,Ar Rabwah Parcel Station - Riyadh - SASCO,محطة طرود الربوة - الرياض - ساسكو,24.701505,46.741944,https://maps.app.goo.gl/WQj2DpeXBTJTCAJX9,NO,Sasco Palm,,LM,RERD3897,3897,Makkah Al Mukarramah Street,طريق مكة المكرمة,,,12813,8519,Address Incomplete,1,1,24 Hours,Order #1,Completed
95,Eastern,,الشرقية,,Dammam,الدمام,Main,PSDM1100,,225971,37121,1701199624,Al Aziziyah Parcel Station - Dammam - SASCO,محطة طرود العزيزية - الدمام - ساسكو,26.453197,50.067853,https://maps.app.goo.gl/S5yeaawHv3QFfAPC7,NO,Sasco Palm,,LM,EMDA2670,2670,King Abdul Aziz Street,طريق الملك عبد العزيز,,,32424,7367,Address Incomplete,1,1,7 AM to 11 PM,Order #1,Completed
96,Eastern,,الشرقية,,Dammam,الدمام,Main,PSDM1101,,225972,30901,1605530112,Ash Shati Ash Sharqi Parcel Station - Dammam - SASCO,محطة طرود الشاطئ الشرقي - الدمام - ساسكو,26.464777,50.132111,https://maps.app.goo.gl/Mtynab7r8V1YZCGx9,NO,Sasco Palm,,LM,EMAB4268,4268,King Abdullah Street,طريق الملك عبدالله,,,32413,6957,Address Incomplete,1,1,24 Hours,Order #1,Completed
97,Eastern,,الشرقية,,Dammam,الدمام,Main,PSDM1102,,225973,31601,1238736155,Al Khalij Parcel Station - Dammam - SASCO,محطة طرود الخليج - الدمام - ساسكو,26.44347,50.092399,https://maps.app.goo.gl/5umNUpiF2srXspSf8,NO,Sasco Palm,,LM,EMDA5081,5081,Al Malek Saud Street,طريق الملك سعود,,,32425,6273,Address Incomplete,1,1,6 AM to 4 AM,Order #1,Completed
98,Eastern,,الشرقية,,Dammam,الدمام,Main,PSDM1103,,225974,32201,1772589389,Al Athir Parcel Station - Dammam - SASCO,محطة طرود الأثير - الدمام - ساسكو,26.438823,50.064851,https://maps.app.goo.gl/2BSRumxR16GUFMBi8,NO,Sasco Palm,,LM,EDJB9182,9182,Al Amir Naif Bin Abdul Aziz Street,طريق الأمير نايف بن عبد العزيز,,,32248,3427,Address Incomplete,1,1,24 Hours,Order #1,Completed
99,Eastern,,الشرقية,,Dammam,الدمام,Main,PSDM1104,,225975,32301,1596290269,1st Industrial Parcel Station - Dammam - SASCO,محطة طرود المدينة الصناعية الأولى - الدمام - ساسكو,26.388333,50.149594,https://maps.app.goo.gl/xSYEPdzBCvPGHPuw9,NO,Sasco Palm,,LM,EDGA5101,5101,Ibn Al Baytar Street,طريق ابن البيطار,,,32234,6650,Address Incomplete,1,1,24 Hours,Order #1,Completed
100,Eastern,,الشرقية,,Dammam,الدمام,Main,PSDM1105,,225976,32601,124740092,Taibah Parcel Station - Dammam - SASCO,محطة طرود طيبة - الدمام - ساسكو,26.36085,50.04455,https://maps.app.goo.gl/uTwhr2CraQG4cRUV7,NO,Sasco Palm,,LM,EDSA3635,3635,King Abdullah Street,طريق الملك عبدالله,Taibah Dist.,حي طيبة,32275,8350,"3635 King Abdullah Street, Taibah Dist., Dammam, 32275 - 8350",1,1,24 Hours,Order #1,Completed
101,Eastern,,الشرقية,,Dammam,الدمام,Main,PSDM1106,,225977,34201,1922239058,Al Anud Parcel Station - Dammam - SASCO,محطة طرود العنود - الدمام - ساسكو,26.4517256,50.0726358,https://maps.app.goo.gl/sUKL2A2FXXHn193m8,NO,Sasco Palm,,LM,EMDB3137,3137,King Abdul Aziz Street,طريق الملك عبد العزيز,,,32426,7178,Address Incomplete,1,1,6 AM to 4 AM,Order #1,Completed
102,Central,Riyadh,الوسطى,منطقة الرياض,Riyadh,الرياض,Main,PSRU1107,PSDM1107,225978,104,,Al Ezdihar Parcel Station - Riyadh - Panda,محطة طرود الازدهار - الرياض - بنده,24.778156,46.710408,https://goo.gl/maps/sqKjbyDwAE12,No,Panda,,LM,RHZA2667,2667,Al Hussain Bin Ali,الحسين بن على,Al Ezdihar Dist.,حي الازدهار,12485,7061,"2667 Al Hussain Bin Ali, Al Ezdihar Dist., Riyadh, 12485 - 7061",1,2,24 Hours,Order #1,Completed
103,Eastern,,الشرقية,,Dammam,الدمام,Main,PSDM1108,,225979,30601,1824598725,Ash Shifa Parcel Station - Dammam - SASCO,محطة طرود الشفاء - الدمام - ساسكو,26.398664,50.117337,https://maps.app.goo.gl/Ut2cbJEz1gohVSJj8,NO,Sasco Palm,,LM,EDGB2790,2790,Al Amir Muhammed Bin Fahd Street,طريق الأمير محمد بن فهد,,,32236,6292,Address Incomplete,1,1,6 AM to 4 AM,Order #1,Completed
104,Western,,الغربية,,Jeddah,جدة,Main,PSJD1109,,225980,27201,1417042509,An Nahdah Parcel Station - Jeddah - SASCO,محطة طرود النهضة - جدة - ساسكو,21.609667,39.120583,https://maps.app.goo.gl/p1Htzrc4wURpgfho7,NO,Sasco Palm,,LM,JENA8137,8137,King Abdull Aziz Branch Street,طريق الملك عبد العزيز الفرعي,,,23523,2268,Address Incomplete,1,1,24 Hours,Order #1,Completed
105,Western,,الغربية,,Jeddah,جدة,Main,PSJD1110,,225981,21401,1679126916,Al Marwah Parcel Station - Jeddah - SASCO,محطة طرود المروة - جدة - ساسكو,21.616167,39.215472,https://maps.app.goo.gl/cWofYJEqEJVp3bBDA,NO,Sasco Palm,,LM,JDMF7824,7824,Abu Qatada Al Ansari Street,طريق أبو قتادة الأنصاري,,,23545,5487,Address Incomplete,1,1,24 Hours,Order #1,Completed
106,Western,,الغربية,,Jeddah,جدة,Main,PSJD1111,,225982,27321,1737653572,An Naim Parcel Station - Jeddah - SASCO,محطة طرود النعيم - جدة - ساسكو,21.63025,39.145,https://maps.app.goo.gl/LFsaQU1jtqzU4esS7,NO,Sasco Palm,,LM,JENB6869,6869,Amenah Bint Wahab Street,طريق آمنه بنت وهب,,,23622,4001,Address Incomplete,1,1,7 AM to 11 PM,Order #1,Completed
107,Western,,الغربية,,Jeddah,جدة,Main,PSJD1112,,225983,27341,1833816993,Al Wahah Parcel Station - Jeddah - SASCO,محطة طرود الواحة - جدة - ساسكو,21.548194,39.236889,https://maps.app.goo.gl/4mUuv743SfWzZPRe8,NO,Sasco Palm,,LM,JCWA6925,6925,Falastin Branch Street,طريق فلسطين الفرعي ,,,23351,2624,Address Incomplete,1,1,7 AM to 11 PM,Order #1,Completed
108,Western,,الغربية,,Jeddah,جدة,Main,PSJD1113,,225984,24301,,Al Basatin Parcel Station - Jeddah - SASCO,محطة طرود البساتين - جدة - ساسكو,21.677826,39.125005,https://maps.app.goo.gl/wkXSBxi1zqNkJ5hD9,NO,Sasco Palm,,LM,JETA8052,8052,Ismail Bin Kathir St.,شارع اسماعيل بن كثير,Al Basatin Dist.,حي البساتين,23717,5674,"8052 Ismail Bin Kathir St., Al Basatin Dist., Jeddah, 23717 - 5674",1,1,7 AM to 11 PM,Order #1,Completed
109,Eastern,,الشرقية,,Dammam,الدمام,Main,PSDM1114,,225985,36911,,Al Amamrah Parcel Station - Dammam - SASCO Palm,محطة طرود العمامرة - الدمام - نخلة ساسكو,26.442717,50.111873,https://maps.app.goo.gl/mJTAUQLWqNkNkSJc9,NO,Sasco Palm,,LM,EMAA3537,3537,Uqbah Ibn Nafi,شارع عقبة ابن نافع,Al Amamrah Dist.,حي العمامرة,32415,7141,"3537 Uqbah Ibn Nafi, Al Amamrah Dist., Dammam, 32415 - 7141",1,1,7 AM to 11 PM,Order #1,Completed
110,Western,,الغربية,,Jeddah,جدة,Main,PSJD1115,,225986,20801,1592631462,Al Naseem Parcel Station - Jeddah - SASCO,محطة طرود النسيم - جدة - ساسكو,21.513444,39.239257,https://maps.app.goo.gl/YvDxvxAuCrEvW86o9,NO,Sasco Palm,,LM,JBNA4214,4214,Ahmad Ibrahim At Taibi Street,طريق أحمد إبراهيم الطيبي,Al Naseem Dist.,حي النسيم,23233,6449,"4214 Ahmad Ibrahim At Taibi Street, Al Naseem Dist., Jeddah, 23233 - 6449",1,1,24 Hours,Order #1,Completed
111,Western,,الغربية,,Jeddah,جدة,Main,PSJD1116,,225987,21301,166134690,Al Safa Parcel Station - Jeddah - SASCO,محطة طرود الصفا - جدة - ساسكو,21.58633,39.20736,https://maps.app.goo.gl/WkqSoAM1ixkRcJf16,NO,Sasco Palm,,LM,JDSE6710,6710,Al Ameer Metib Street,طريق الأمير متعب,,,23455,3573,Address Incomplete,1,1,24 Hours,Order #1,Completed
112,Western,,الغربية,,Jeddah,جدة,Main,PSJD1117,,225988,20901,1431994281,Ghulail Parcel Station - Jeddah - SASCO,محطة طرود غليل - جدة - ساسكو,21.4474121,39.2070216,https://maps.app.goo.gl/tsXEwzMqjWoS6f4V6,NO,Sasco Palm,,LM,JJGA4904,4904,Al Mahjar Street,طريق المحجر,,,22413,7708,Address Incomplete,1,1,6 AM to 2 AM,Order #1,Completed
113,Western,,الغربية,,Makkah,مكة المكرمة,Remote,PSMK1118,,225989,23801,1879700523,Al Buhayrat Parcel Station - Makkah - SASCO,محطة طرود البحيرات - مكة المكرمة - ساسكو,21.470361,39.797056,https://maps.app.goo.gl/FZ1AGmCsagdmM7tP9,NO,Sasco Palm,,LM,MWBB7500,7500,Makkah - Al Madinah Munawarah Street,طريق مكة - المدينة المنورة,,,24227,5658,Address Incomplete,1,1,24 Hours,Order #1,Completed
114,Western,,الغربية,,Jeddah,جدة,Main,PSJD1119,,225990,27131,1595022305,Al Hamdaniyah Parcel Station - Jeddah - SASCO,محطة طرود الحمدانية - جدة - ساسكو,21.756497,39.197575,https://maps.app.goo.gl/KcPqQh5vmVExAfKu9,NO,Sasco Palm,,LM,JGAF6919,6919,Al Hamdaniyah  Street,طريق الحمدانية ,,,23761,4086,Address Incomplete,1,1,24 Hours,Order #1,Completed
115,Western,,الغربية,,Jeddah,جدة,Main,PSJD1120,,225991,27191,1571052355,Ash Sheraa Parcel Station - Jeddah - SASCO,محطة طرود الشراع - جدة - ساسكو,21.768194,39.110528,https://maps.app.goo.gl/tmcYXwUoJUKhdXZW6,NO,Sasco Palm,,LM,JHYC4616,4616,Abdullah Bin Hamad Al Khalifah Street,طريق عبدالله بن حمد آل خليفة,,,23816,7491,Address Incomplete,1,1,,Order #1,Completed
116,Western,,الغربية,,Taif,الطائف,Remote,PSTA1121,,225992,27111,1730321727,Al Jawharah Parcel Station - Taif - SASCO,محطة طرود الجوهرة - الطائف - ساسكو,21.422106,40.495455,https://maps.app.goo.gl/3pmRAFq8C4XfhcEVA,NO,Sasco Palm,,LM,TAMA9137,9137,Airport Street,طريق المطار,,,26559,4027,Address Incomplete,1,1,,Order #1,Completed
117,Western,,الغربية,,Taif,الطائف,Remote,PSTA1122,,225993,27171,1775745518,Al Akhbab Parcel Station - Taif - SASCO,محطة طرود الأخباب - الطائف - ساسكو,21.234194,40.375556,https://maps.app.goo.gl/FK5ZxxnStcptbxkt8,NO,Sasco Palm,,LM,,,King Fahad Ring Street,طريق الملك فهد الدائري,,,26711,,Address Incomplete,1,1,,Order #1,Completed
118,Western,,الغربية,,Madinah,المدينة المنورة,Remote,PSMD1123,,225994,44271,1228879428,Mahzur Parcel Station - Madinah - SASCO,محطة طرود مهزور - المدينة المنورة - ساسكو,24.440139,39.662722,https://maps.app.goo.gl/dcU41wqs6YMN9dhJA,NO,Sasco Palm,,LM,DMAJ8018,8018,King Abdullah Branch Street,طريق الملك عبد الله الفرعي,,,42319,5153,Address Incomplete,1,1,,Order #1,Completed
119,Western,,الغربية,,Madinah,المدينة المنورة,Remote,PSMD1124,,225995,44281,1571253593,Al Qalah Parcel Station - Madinah - SASCO,محطة طرود القلعة - المدينة المنورة - ساسكو,24.501306,39.649194,https://maps.app.goo.gl/6ZxPzcjwHVwYxXoL9,NO,Sasco Palm,,LM,DMDD6786,6786,Isa Bin Masud Street,طريق عيسى بن مسعود,,,42322,3784,Address Incomplete,1,1,,Order #1,Completed
120,Western,,الغربية,,Makkah,مكة المكرمة,Remote,PSMK1125,,225996,27331,348431943,King Fahad Parcel Station - Makkah - SASCO,محطة طرود الملك فهد - مكة المكرمة - ساسكو,21.399833,39.741056,https://maps.app.goo.gl/shCceas2sJJjPdBp7,NO,Sasco Palm,,LM,MDFC3400,3400,Prince Naif Ibn Abdulaziz Street,طريق الأمير نايف بن عبد العزيز,,,24343,6681,Address Incomplete,1,1,,Order #1,Completed
121,Central,,الوسطى,,Riyadh,الرياض,Main,PSRU1127,,225999,61133,,Al Falah Parcel Station - Riyadh - Meed,محطة طرود الفلاح - الرياض - ميد,24.80049944,46.6972236,https://maps.app.goo.gl/QUGxBMkBuxM81vwo8,NO,Meed,,LM,RAFB7699,7699,Prince Muhammad Ibn Salman Ibn Abdulaziz,الأمير محمد بن سلمان بن عبدالعزيز,Al Falah Dist.,حي الفلاح,13314,2109,"7699 Prince Muhammad Ibn Salman Ibn Abdulaziz, Al Falah Dist., Riyadh, 13314 - 2109",1,2,24 Hours,24 Parcel Stations,Completed
122,Central,,الوسطى,,Riyadh,الرياض,Main,PSRU1128,,226000,61067,,Al Zahra Parcel Station - Riyadh - Meed,محطة طرود الزهراء - الرياض - ميد,24.68443844,46.7335641,https://maps.app.goo.gl/AScR81EKSrsHEdLQ8,NO,Meed,,LM,REZC6620,6620,Al Ahsa,الاحساء,Al Zahra Dist.,حي الزهراء,12812,3058,"6620 Al Ahsa, Al Zahra Dist., Riyadh, 12812 - 3058",1,2,24 Hours,24 Parcel Stations,Completed
123,Central,ArRiyad,الوسطى,منطقة الرياض,Riyadh,الرياض,Main,PSRU1129,,226001,61200,1826680512,Al Rimal Parcel Station - Riyadh - Meed,محطة طرود الرمال - الرياض - ميد,24.838416,46.828682,https://maps.app.goo.gl/JzS4WydJ7UipCBXp6,No,Meed,,LM,RURB6934,6934,Ali Al Bjdadi,علي البجادي,Al Rimal Dist.,حي الرمال,13263,4645,"6934 Ali Al Bjdadi, Al Rimal Dist., Riyadh, 13263 - 4645",Err:522,Err:522,24 Hours,24 Parcel Stations,Completed
124,Central,ArRiyad,الوسطى,منطقة الرياض,Riyadh,الرياض,Main,PSRU1130,,226002,61219,691191968,Al Dhubbat Parcel Station - Riyadh - Meed,محطة طرود الضباط - الرياض - ميد,24.687083,46.723917,https://maps.app.goo.gl/wbwsUSo96x4CNspPA,No,Meed,,LM,RCTA8564,8564,Salah Al Din Al Ayoubi Rd,طريق صلاح الدين الايوبي,Al Dhubbat Dist.,حي الضباط,12623,4449,"8564 Salah Al Din Al Ayoubi Rd, Al Dhubbat Dist., Riyadh, 12623 - 4449",Err:522,Err:522,24 Hours,24 Parcel Stations,Completed
125,Central,,الوسطى,,Riyadh,الرياض,Main,PSRU1131,,226003,61037,,Olaishah Parcel Station - Riyadh - Meed,محطة طرود عليشة - الرياض - ميد,24.62583496,46.6863843,https://maps.app.goo.gl/sZGt7k8iaGbP76At7,NO,Meed,,LM,RBNA3146,3146,Prince Fahd Bin Faisal Bin Farhan Al Saud,الامير فهد بن فيصل بن فرحان ال سعود,Olaishah Dist.,حي عليشة,12746,7435,"3146 Prince Fahd Bin Faisal Bin Farhan Al Saud, Olaishah Dist., Riyadh, 12746 - 7435",1,2,24 Hours,24 Parcel Stations,Completed
126,Central,,الوسطى,,Riyadh,الرياض,Main,PSRU1132,,226004,61182,,Tuwaiq Parcel Station 1 - Riyadh - Meed,محطة طرود طويق 1 - الرياض - ميد,24.58047184,46.539694,https://maps.app.goo.gl/HxvGcTrqu7tSQv5T8,NO,Meed,,LM,RKTB2969,2969,Bilal Bin  Rabah,بلال بن رباح,Tuwaiq Dist.,حي طويق,14923,6790,"2969 Bilal Bin  Rabah, Tuwaiq Dist., Riyadh, 14923 - 6790",1,2,24 Hours,24 Parcel Stations,Completed
127,Central,,الوسطى,,Riyadh,الرياض,Main,PSRU1133,,226005,61192,,Dhahrat Laban Parcel Station - Riyadh - Meed,محطة طرود ظهرة لبن - الرياض - ميد,24.65413645,46.5785005,https://goo.gl/maps/LvzLcLSkv9PTAhrU8,NO,Meed,,LM,RDLG4240,4240,Al Taif St,الطائف,Dhahrat Laban Dist.,حي ظهرة لبن,12555,6103,"4240 Al Taif St, Dhahrat Laban Dist., Riyadh, 12555 - 6103",1,2,24 Hours,24 Parcel Stations,Completed
128,Central,ArRiyad,الوسطى,منطقة الرياض,Riyadh,الرياض,Main,PSRU1134,,226006,61223,1712016123,Tuwaiq Parcel Station 2 - Riyadh - Meed,محطة طرود طويق 2 - الرياض - ميد,24.544195,46.467183,https://maps.app.goo.gl/Y9rth2KrpYmnCSxo8,No,Meed,,LM,RKQB3772,3772,Jeddah Rd,جده,Tuwaiq Dist.,حي طويق,13795,6730,"3772 Jeddah Rd, Tuwaiq Dist., Riyadh, 13795 - 6730",1,2,24 Hours,24 Parcel Stations,Completed
129,Central,,الوسطى,,Riyadh,الرياض,Main,PSRU1135,,226007,61015,,Skirinah Parcel Station - Riyadh - Meed,محطة طرود سكيرينة - الرياض - ميد,24.619963,46.71776,https://maps.app.goo.gl/FZTPb8TsW3ngW7DG6,NO,Meed,,LM,RCCA3175,3175,Al Asha Str.,شارع الأحساء,Skirinah Dist.,حي سكيرينة,12654,7725,"3175 Al Asha Str., Skirinah Dist., Riyadh, 12654 - 7725",1,2,24 Hours,24 Parcel Stations,Completed
130,Central,ArRiyad,الوسطى,منطقة الرياض,Riyadh,الرياض,Main,PSRU1136,,226008,61218,141756273,Al Rayan Parcel Station - Riyadh - Meed,محطة طرود الريان - الرياض - ميد,24.698301,46.772801,https://maps.app.goo.gl/mktMAhiZxVbA84546,No,Meed,,LM,RQRA7037,7037,Eastern Ring Rd,الطريق الدائري الشرقي,Al Rayan Dist.,حي الريان,14213,2834,"7037 Eastern Ring Rd, Al Rayan Dist., Riyadh, 14213 - 2834",1,2,24 Hours,24 Parcel Stations,Completed
131,Central,,الوسطى,,Riyadh,الرياض,Main,PSRU1137,,226009,61062,,Al Mathar Parcel Station - Riyadh - Meed,محطة طرود المعذر - الرياض - ميد,24.6746913,46.665939,https://maps.app.goo.gl/Hfon2JtQxnEZfdhM9,NO,Meed,,LM,RBMC4295,4295,Makkah Al Mukarramah,طريق مكة المكرمة,Al Mathar Dist.,حي المعذر,12721,8803,"4295 Makkah Al Mukarramah, Al Mathar Dist., Riyadh, 12721 - 8803",1,2,24 Hours,24 Parcel Stations,Completed
132,Central,,الوسطى,,Riyadh,الرياض,Main,PSRU1138,,226010,61068,,Al Maseef Parcel Station - Riyadh - Meed,محطة طرود المصيف - الرياض - ميد,24.76138445,46.6745779,https://maps.app.goo.gl/GdYK4XqHZeEbFvQx5,NO,Meed,,LM,RHYA2643,2643,Ibn Sina,ابن سينا,Al Maseef Dist.,حي المصيف,12465,6871,"2643 Ibn Sina, Al Maseef Dist., Riyadh, 12465 - 6871",1,2,24 Hours,24 Parcel Stations,Completed
133,Central,,الوسطى,,Riyadh,الرياض,Main,PSRU1139,,226011,61035,,Al Rawdah Parcel Station - Riyadh - Meed,محطة طرود الروضة - الرياض - ميد,24.74335532,46.776971,https://maps.app.goo.gl/EkY2iJKd1SVBPcTw5,NO,Meed,,LM,RFRB7818,7818,Khalid Bin  Al Walid,خالد بن الوليد,Al Rawdah Dist.,حي الروضة,13213,4831,"7818 Khalid Bin  Al Walid, Al Rawdah Dist., Riyadh, 13213 - 4831",1,2,24 Hours,24 Parcel Stations,Completed
134,Central,,الوسطى,,Riyadh,الرياض,Main,PSRU1140,,226012,61123,,Al Rawdah Parcel Station 2 - Riyadh - Meed,محطة طرود الروضة 2 - الرياض - ميد,24.72469615,46.7599364,https://maps.app.goo.gl/JFLwETU177wJ1VKM9,NO,Meed,,LM,RFRA2482,2482,Hafsa Bint Umar,حفصة بنت عمر,Al Rawdah Dist.,حي الروضة,13211,7131,"2482 Hafsa Bint Umar, Al Rawdah Dist., Riyadh, 13211 - 7131",1,2,24 Hours,24 Parcel Stations,Completed
135,Central,,الوسطى,,Riyadh,الرياض,Main,PSRU1141,,226013,61147,,Al Andalus Parcel Station - Riyadh - Meed,محطة طرود الاندلس - الرياض - ميد,24.75321502,46.7926655,https://maps.app.goo.gl/NxjwoZU9z34swTDz5,NO,Meed,,LM,RFSA3833,3833,Abdulraheem Al Khazraji,عبدالرحيم الخزرجي,Al Andalus Dist.,حي الاندلس,13212,8516,"3833 Abdulraheem Al Khazraji, Al Andalus Dist., Riyadh, 13212 - 8516",1,2,24 Hours,24 Parcel Stations,Completed
136,Central,,الوسطى,,Riyadh,الرياض,Main,PSRU1142,,226014,61150,,Al Khaleej Parcel Station - Riyadh - Meed,محطة طرود الخليج - الرياض - ميد,24.77294805,46.7842313,https://maps.app.goo.gl/zUA7x9kxuzF51xLu5,NO,Meed,,LM,RFKB2793,2793,Al Shaikh Abdulaziz Ibn Abdulrahman Ibn Bashar,الشيخ عبدالعزيز بن عبدالرحمن بن بشر,Al Khaleej Dist.,حي الخليج,13223,7768,"2793 Al Shaikh Abdulaziz Ibn Abdulrahman Ibn Bashar, Al Khaleej Dist., Riyadh, 13223 - 7768",1,2,24 Hours,24 Parcel Stations,Completed
137,Central,,الوسطى,,Riyadh,الرياض,Main,PSRU1143,,226015,61151,,Al Nahdah Parcel Station - Riyadh - Meed,محطة طرود النهضة - الرياض - ميد,24.7692512,46.8170004,https://maps.app.goo.gl/b5WKCv7jEcroAV3d6,NO,Meed,,LM,RFNA8077,8077,Al Jubail,الجبيل,Al Nahdah Dist.,حي النهضة,13222,2979,"8077 Al Jubail, Al Nahdah Dist., Riyadh, 13222 - 2979",1,2,24 Hours,24 Parcel Stations,Completed
138,Southern,,الجنوبية,,Khamis Mushait,خميس مشيط,Remote,PSKM1144,,226016,1064,,Al Musa Parcel Station - Khamis Mushayt - Al Dawaa,محطة طرود مخطط الموسى - خميس مشيط - الدواء,18.337597,42.778307,"https://www.google.com/maps/?q=18.337597, 42.778307",NO,Al Dawaa,,LM,AKPA9486,9486,,,Al Musa Subdivision Plan,مخطط الموسى,62463,4999,Address Incomplete,1,1,,Order #2,Completed
139,Southern,,الجنوبية,,Khamis Mushait,خميس مشيط,Remote,PSKM1145,,226017,1050,,Al Raqi Parcel Station - Khamis Mushayt - Al Dawaa,محطة طرود حي الراقي - خميس مشيط - الدواء,18.324472,42.752528,"https://www.google.com/maps/?q=18.324472, 42.752528",NO,Al Dawaa,,LM,AKUB4414,4414,,,Al Raqi Dist.,حي الراقي,62481,6926,Address Incomplete,1,1,,Order #2,Completed
140,Central,,الوسطى,,Buraydah,بريدة,Remote,PSBR1146,,226018,P623,,An Nakhil  Parcel Station - Buraidah - Al Dawaa,محطة طرود النخيل - بريدة - الدواء,26.373207,43.89999,"https://www.google.com/maps/?q=26.373207, 43.89999",NO,Al Dawaa,,LM,QBUF7067,7067,Al Nakheel 4,النخيل 4,An Nakhil Dist.,حي النخيل,52375,3620,"7067 Al Nakheel 4, An Nakhil Dist., Buraydah, 52375 - 3620",1,1,,Order #2,Completed
141,Central,,الوسطى,,Riyadh,الرياض,Main,PSRU1147,,226019,P601,,Al Quds Parcel Station - Riyadh - Al Dawaa,محطة طرود حي القدس - الرياض - الدواء,24.76127,46.763514,https://maps.app.goo.gl/C3hYrpWCMmCPPgpa7,No,Al Dawaa,,LM,RFQA8374,8374,Khalid Bin  Al Walid,خالد بن الوليد,Al Quds Dist.,حي القدس,13214,4487,"8374 Khalid Bin  Al Walid, Al Quds Dist., Riyadh, 13214 - 4487",1,1,,Order #2,Completed
142,Central,,الوسطى,,Riyadh,الرياض,Main,PSRU1148,,226020,P669,,Al Muruj  Parcel Station - Riyadh - Al Dawaa,محطة طرود المروج - الرياض - الدواء,24.758184,46.660858,"https://www.google.com/maps/?q=24.758184, 46.660858",NO,Al Dawaa,,LM,RHGA3058,3058,Prince Turki Bin  Abdulaziz Al Thani,الامير تركي بن عبدالعزيز الثاني,Al Muruj Dist.,حي المروج,12283,7354,"3058 Prince Turki Bin  Abdulaziz Al Thani, Al Muruj Dist., Riyadh, 12283 - 7354",1,1,,Order #2,Completed
143,Eastern,,الشرقية,,Tarut,تاروت,Remote,PSTT1149,,226021,P235,,Al Andalus Parcel Station - Tarut - Al Dawaa,محطة طرود حي الاندلس - تاروت - الدواء,26.55798,50.075175,https://maps.app.goo.gl/mxa28VRQ4TPArUfr8,No,Al Dawaa,,LM,EGAB3601,3601,Riyadh Rd,الرياض,Al Andalus Dist.,حي الاندلس,32612,8074,"3601 Riyadh Rd, Al Andalus Dist., Tarut, 32612 - 8074",1,1,,Order #2,Completed
144,Eastern,,الشرقية,,Sihat,سيهات,Remote,PSST1150,,226022,P0231,,Al Muntazah  Parcel Station - Sayhat - Al Dawaa,محطة طرود المنتزة - سيهات - الدواء,26.484406,50.052511,"https://www.google.com/maps/?q=26.484406, 50.052511",NO,Al Dawaa,,LM,EMMB6522,6522,Al Khaleej,الخليج,Al Muntazah Dist.,حي المنتزة,32452,4387,"6522 Al Khaleej, Al Muntazah Dist., Sihat, 32452 - 4387",1,1,,Order #2,Completed
145,Western,,الغربية,,Taif,الطائف,Remote,PSTA1151,,226023,1206,,Al Halqah Asharqiyyah Parcel Station - At Taif - Al Dawaa,محطة طرود الحلقة الشرقية - الطائف - الدواء,21.344139,40.461583,"https://www.google.com/maps/?q=21.344139, 40.461583",NO,Al Dawaa,,LM,TAMD7734,7734,Mustafa Albdulrazzaq St,شارع مصطفي عبدالرازق,Al Halqah Asharqiyyah Dist.,حي الحلقة الشرقية,26553,4091,"7734 Mustafa Albdulrazzaq St, Al Halqah Asharqiyyah Dist., Taif, 26553 - 4091",1,1,,Order #2,Completed
146,Western,,الغربية,,Jeddah,جدة,Main,PSJD1152,,226024,P912,,As Samir Parcel Station - Jeddah - Al Dawaa,محطة طرود السامر - جدة - الدواء,21.58178,39.238882,"https://www.google.com/maps/?q=21.58178, 39.238882",NO,Al Dawaa,,LM,JDSA7543,7543,Al Samir,السامر,As Samir Dist.,حي السامر,23464,3071,"7543 Al Samir, As Samir Dist., Jeddah, 23464 - 3071",1,1,,Order #2,Completed
147,Western,,الغربية,,Jeddah,جدة,Main,PSJD1153,,226025,P906,,An Nuzhah Parcel Station - Jeddah - Al Dawaa,محطة طرود النزهة - جدة - الدواء,21.618974,39.159912,"https://www.google.com/maps/?q=21.618974, 39.159912",NO,Al Dawaa,,LM,JFNA2850,2850,Sultan Bin  Salman,سلطان بن سلمان,An Nuzhah Dist.,حي النزهة,23532,6568,"2850 Sultan Bin  Salman, An Nuzhah Dist., Jeddah, 23532 - 6568",1,1,,Order #2,Completed
148,Western,,الغربية,,Makkah,مكة المكرمة,Remote,PSMK1154,,226026,P962,,Al Buhayrat Parcel Station - Makkah - Al Dawaa,محطة طرود حي البحيرات - مكة المكرمة - الدواء,21.51211,39.787238,https://maps.app.goo.gl/fDhKZ11VqNbPCVQv7,No,Al Dawaa,,LM,MWBA8832,8832,JLD ALRWAH,جلد الرواية,Al Buhayrat Dist.,حي البحيرات,24211,4739,"8832 JLD ALRWAH, Al Buhayrat Dist., Makkah, 24211 - 4739",1,1,,Order #2,Completed
149,Western,,الغربية,,Jeddah,جدة,Main,PSJD1155,,226027,P948,,Al Ajaweed Parcel Station - Jeddah - Al Dawaa,محطة طرود حي الاجاويد - جدة - الدواء,21.41207,39.289526,https://maps.app.goo.gl/BE1PRxcxdqvQt6cf6,No,Al Dawaa,,LM,JJDB8827,8827,Al Mundhir Bin  Harithah,المنذر بن حارثه,Al Ajaweed Dist.,حي الاجاويد,22442,3098,"8827 Al Mundhir Bin  Harithah, Al Ajaweed Dist., Jeddah, 22442 - 3098",1,1,,Order #2,Completed
150,Western,,الغربية,,Jeddah,جدة,Main,PSJD1156,,226028,P902,,Al Manar Parcel Station - Jeddah - Al Dawaa,محطة طرود المنار - جدة - الدواء,21.594161,39.236071,"https://www.google.com/maps/?q=21.594161, 39.236071",NO,Al Dawaa,,LM,JDJF7285,7285,Wahib Bin Omir,وهيب بن عمير,Al Manar Dist.,حي المنار,23462,3554,"7285 Wahib Bin Omir, Al Manar Dist., Jeddah, 23462 - 3554",1,1,,Order #2,Completed
151,Western,,الغربية,,Jeddah,جدة,Main,PSJD1157,,226029,P928,,Al Wahah Parcel Station - Jeddah - Al Dawaa,محطة طرود الواحة - جدة - الدواء,21.566484,39.248651,"https://www.google.com/maps/?q=21.566484, 39.248651",NO,Al Dawaa,,LM,JCWA8948,8948,Al Wahah,الواحة,Al Wahah Dist.,حي الواحة,23354,3809,"8948 Al Wahah, Al Wahah Dist., Jeddah, 23354 - 3809",1,1,,Order #2,Completed
152,Central,,الوسطى,,Hail,حائل,Remote,PSHA1158,,226030,P595,,Al Khuzama Parcel Station - Hail - Al Dawaa,محطة طرود الخزامى - حائل - الدواء,27.568217,41.730101,"https://www.google.com/maps/?q=27.568217, 41.730101",NO,Al Dawaa,,LM,HAUA7490,7490,,,Al Khuzama Dist.,حي الخزامى,55481,4634,Address Incomplete,1,1,,Order #2,Completed
153,Eastern,,الشرقية,,Dammam,الدمام,Main,PSDM1159,,226031,1247,,Al Manar Parcel Station 1 - Dammam - Al Dawaa,محطة طرود المنار 1 - الدمام - الدواء,26.372488,50.040262,"https://www.google.com/maps/?q=26.372488, 50.040262",NO,Al Dawaa,,LM,EDSF3828,3828,Al Imam Mohammed Bin  Suad,الامام محمد بن سعود,Al Manar Dist.,حي المنار,32274,7010,"3828 Al Imam Mohammed Bin  Suad, Al Manar Dist., Dammam, 32274 - 7010",1,1,,Order #2,Completed
154,Eastern,,الشرقية,,Al Hofuf,الهفوف,Remote,PSHU1160,,226032,P146,,Al Naseem Parcel Station - Al Hafuf - Al Dawaa,محطة طرود النسيم - الهفوف - الدواء,25.332433,49.614128,"https://www.google.com/maps/?q=25.332433, 49.614128",NO,Al Dawaa,,LM,FHDE9342,9342,King Abdullah Rd,طريق الملك عبدلله,Al Naseem Dist.,حي النسيم,36363,3708,"9342 King Abdullah Rd, Al Naseem Dist., Al Hofuf, 36363 - 3708",1,1,,Order #2,Completed
155,Eastern,,الشرقية,,Khobar,الخبر,Main,PSKH1161,,226033,1228,,Ash Sheraa Parcel Station - Al Khobar - Al Dawaa,محطة طرود الشراع - الخبر - الدواء,26.174858,50.147439,"https://www.google.com/maps/?q=26.174858, 50.147439",NO,Al Dawaa,,LM,ECJA9175,9175,Al Bara Bin Malek,البراء بن مالك,Ash Sheraa Dist.,حي الشراع,34741,2520,"9175 Al Bara Bin Malek, Ash Sheraa Dist., Khobar, 34741 - 2520",1,1,,Order #2,Completed
156,Eastern,,الشرقية,,Khobar,الخبر,Main,PSKH1162,,226034,P324,,Al Kurnaish Parcel Station - Al Khobar - Al Dawaa,محطة طرود الكورنيش - الخبر - الدواء,26.330035,50.214677,"https://www.google.com/maps/?q=26.330035, 50.214677",NO,Al Dawaa,,LM,EKAB7587,7587,King Faisal Rd,طريق الملك فيصل,Al Kurnaish Dist.,حي الكورنيش,34412,2341,"7587 King Faisal Rd, Al Kurnaish Dist., Khobar, 34412 - 2341",1,1,,Order #2,Completed
157,Eastern,,الشرقية,,Khobar,الخبر,Main,PSKH1163,,226035,1216,,Al Khuzama Parcel Station - Al Khobar - Al Dawaa,محطة طرود الخزامى - الخبر - الدواء,26.207838,50.196423,"https://www.google.com/maps/?q=26.207838, 50.196423",NO,Al Dawaa,,LM,ECAA3450,3450,King Khalid Rd,طريق الملك خالد,Al Khuzama Dist.,حي الخزامى,34719,7307,"3450 King Khalid Rd, Al Khuzama Dist., Khobar, 34719 - 7307",1,1,,Order #2,Completed
158,Northern,,الشمالية,,Tabuk,تبوك,Remote,PSTB1164,,226036,P491,,Al Hamra Parcel Station 1 - Tabuk - Al Dawaa,محطة طرود الحمراء 1 - تبوك - الدواء,28.362305,36.573179,"https://www.google.com/maps/?q=28.362305, 36.573179",NO,Al Dawaa,,LM,KGAC6216,6216,Al Imam Turki Bin Abdullah Rd,طريق الامام تركي بن عبدالله,Al Hamra Dist.,حي الحمراء,47914,4755,"6216 Al Imam Turki Bin Abdullah Rd, Al Hamra Dist., Tabuk, 47914 - 4755",1,1,,Order #2,Completed
159,Eastern,,الشرقية,,Al Khafji,الخفجي,Remote,PSKF1165,,226037,1220,,Al Hamra Parcel Station - Al Khafji - Al Dawaa,محطة طرود حي الحمراء - الخفجي - الدواء,28.419492,48.477407,"https://www.google.com/maps/?q=28.419492, 48.477407",NO,Al Dawaa,,LM,CAMA2223,2223,Ashba As Salmi,شارع اشبع السلمي,Al Hamra Dist.,حي الحمراء,39254,6398,"2223 Ashba As Salmi, Al Hamra Dist., Al Khafji, 39254 - 6398",1,1,,Order #2,Completed
160,Eastern,,الشرقية,,Hafr Al Batin,حفر الباطن,Remote,PSHF1166,,226038,P396,,At Talal Parcel Station - Hafar Al Batin - Al Dawaa,محطة طرود حي التلال - حفر الباطن - الدواء,28.429403,45.948079,"https://www.google.com/maps/?q=28.429403, 45.948079",NO,Al Dawaa,,LM,CNMB4490,4490,King Khalid Bin Abd Al Azez,الملك خالد بن عبدالعزيز,At Talal Dist.,حي التلال,39957,6441,"4490 King Khalid Bin Abd Al Azez, At Talal Dist., Hafr Al Batin, 39957 - 6441",1,1,,Order #2,Completed
161,Northern,,الشمالية,,Rafha,رفحاء,Remote,PSRF1167,,226039,P512,,Al Jumayma Parcel Station - Rafha - Al Dawaa,محطة طرود الجميماء - رفحاء - الدواء,29.634014,43.547044,"https://www.google.com/maps/?q=29.634014, 43.547044",NO,Al Dawaa,,LM,SRYA9863,9863,Saud Bin Jalawi St,شارع سعود بن جلوي,Al Jumayma Dist.,حي الجميماء,76312,3207,"9863 Saud Bin Jalawi St, Al Jumayma Dist., Rafha, 76312 - 3207",1,1,,Order #2,Completed
162,Southern,,الجنوبية,,Abha,أبها,Remote,PSAB1168,,226040,1094,,Mahala Parcel Station - Abha - Al Dawaa,محطة طرود حي المحالة - ابها - الدواء,18.2792,42.593353,https://maps.app.goo.gl/unKTBUTZabZtHyHo9,No,Al Dawaa,,LM,,,MAHLAL,المحالة ,MAHLAL Dist.,حي المحالة,,,Address Incomplete,1,1,,Order #2,Completed
163,Southern,,الجنوبية,,Sarat Abidah,سراة عبيدة,Remote,PSSR1169,,226041,1049,,Al Fahd Parcel Station - Sarat Abidah - Al Dawaa,محطة طرود الفهد - سراة عبيدة - الدواء,18.085333,43.129778,"https://www.google.com/maps/?q=18.085333, 43.129778",NO,Al Dawaa,,LM,AOPA3162,3162,King Khalid Ibn Abdulaziz Rd,طريق الملك خالد بن عبدالعزيز,Al Fahd Dist.,حي الفهد,64731,6145,"3162 King Khalid Ibn Abdulaziz Rd, Al Fahd Dist., Sarat Abidah, 64731 - 6145",1,1,,Order #2,Completed
164,Southern,,الجنوبية,,Baish,بيش,Remote,PSBI1170,,226042,1086,,An Nahdah Parcel Station - Bish - Al Dawaa,محطة طرود النهضة - بيش - الدواء,17.387956,42.542315,"https://www.google.com/maps/?q=17.387956, 42.542315",NO,Al Dawaa,,LM,GEMA8388,8388,King Abdulaziz Rd,طريق الملك عبدالعزيز,An Nahdah Dist.,حي النهضة,87311,3614,"8388 King Abdulaziz Rd, An Nahdah Dist., Baish, 87311 - 3614",1,1,,Order #2,Completed
165,Southern,,الجنوبية,,Bishah,بيشة,Remote,PSBS1171,,226043,1084,,Al Fahd Parcel Station - Bishah - Al Dawaa,محطة طرود حي الفهد - بيشة - الدواء,19.98831,42.607076,https://maps.app.goo.gl/K2nKgJryP7w7B3Ly8,No,Al Dawaa,,LM,ALAD6898,6898,King Saud,طريق الملك سعود,Al Fahd Dist.,حي الفهد,67712,4282,"6898 King Saud, Al Fahd Dist., Bishah, 67712 - 4282",1,1,,Order #2,Completed
166,Southern,,الجنوبية,,Abha,أبها,Remote,PSAB1172,,226044,1300,,Al Badi Parcel Station - Abha - Al Dawaa,محطة طرود حي البديع - ابها - الدواء,18.22713,42.593403,https://maps.app.goo.gl/imEtUGhueBG8pnMM9,No,Al Dawaa,,LM,ABUA3297,3297,Al Termithi St,شارع الترمذي,Al Badi Dist.,حي البديع,62584,9265,"3297 Al Termithi St, Al Badi Dist., Abha, 62584 - 9265",1,1,,Order #2,Completed
167,Northern,,الشمالية,,Tabuk,تبوك,Remote,PSTB1173,,226045,P411,,Al Wurud Parcel Station - Tabuk - Al Dawaa,محطة طرود الورود - تبوك - الدواء,28.409536,36.566474,"https://www.google.com/maps/?q=28.409536, 36.566474",NO,Al Dawaa,,LM,KAAD7373,7373,Prince Abdul Majid Ibn Abdulaziz,الامير عبد المجيد ابن عبدالعزيز,Al Wurud Dist.,حي الورود,47312,2838,"7373 Prince Abdul Majid Ibn Abdulaziz, Al Wurud Dist., Tabuk, 47312 - 2838",1,1,,Order #2,Completed
168,Northern,,الشمالية,,Arar,عرعر,Remote,PSAR1174,,226046,P544,,An Naseem Parcel Station - Arar - Al Dawaa,محطة طرود النسيم - عرعر - الدواء,30.956179,41.041677,"https://www.google.com/maps/?q=30.956179, 41.041677",NO,Al Dawaa,,LM,SMJA8015,8015,Prince Fahad Bin Jalawi,الامير فهد بن جلوي,An Naseem Dist.,حي النسيم,73242,2385,"8015 Prince Fahad Bin Jalawi, An Naseem Dist., Arar, 73242 - 2385",1,1,,Order #2,Completed
169,Central,,الوسطى,,Riyadh,الرياض,Main,PSRU1175,,226047,P865,,Dhahrat Laban Parcel Station - Riyadh - Al Dawaa,محطة طرود ظهرة لبن - الرياض - الدواء,24.61825,46.505667,"https://www.google.com/maps/?q=24.61825, 46.505667",NO,Al Dawaa,,LM,RDLA4858,4858,Al Taif,الطائف,Dhahrat Laban Dist.,حي ظهرة لبن,13761,7090,"4858 Al Taif, Dhahrat Laban Dist., Riyadh, 13761 - 7090",1,1,,Order #2,Completed
170,Central,,الوسطى,,Riyadh,الرياض,Main,PSRU1176,,226048,P858,,Al Marwah Parcel Station - Riyadh - Al Dawaa,محطة طرود المروة - الرياض - الدواء,24.537965,46.660021,"https://www.google.com/maps/?q=24.537965, 46.660021",NO,Al Dawaa,,LM,RLMA7425,7425,Dirab Rd,طريق ديراب,Al Marwah Dist.,حي المروة,14722,2139,"7425 Dirab Rd, Al Marwah Dist., Riyadh, 14722 - 2139",1,1,,Order #2,Completed
171,Central,,الوسطى,,Al Kharj,الخرج,Remote,PSKA1177,,226049,P618,,Al Andalus Parcel Station - Al Kharj - Al Dawaa,محطة طرود حي الاندلس - الخرج - الدواء,24.154343,47.352029,"https://www.google.com/maps/?q=24.154343, 47.352029",NO,Al Dawaa,,LM,OAGD7488,7488,Sultan Ibn Abdulaziz,سلطان بن عبدالعزيز,Al Andalus Dist.,حي الاندلس,16439,5408,"7488 Sultan Ibn Abdulaziz, Al Andalus Dist., Al Kharj, 16439 - 5408",1,1,,Order #2,Completed
172,Central,,الوسطى,,Al Kharj,الخرج,Remote,PSKA1178,,226050,1149,,An Nahdah Parcel Station - Al Kharj - Al Dawaa,محطة طرود حي النهضة - الخرج - الدواء,24.15882,47.326956,https://maps.app.goo.gl/QHwsE5XYoZGpqhMt5,No,Al Dawaa,,LM,OAGA2861,2861,King Fahad Ibn Abdulaziz Rd,طريق الملك فهد بن عبدالعزيز,An Nahdah Dist.,حي النهضة,16439,7948,"2861 King Fahad Ibn Abdulaziz Rd, An Nahdah Dist., Al Kharj, 16439 - 7948",1,1,,Order #2,Completed
173,Central,,الوسطى,,Riyadh,الرياض,Main,PSRU1179,,226051,P809,,East Naseem Parcel Station - Riyadh - Al Dawaa,محطة طرود النسيم الشرقي - الرياض - الدواء,24.750784,46.846996,"https://www.google.com/maps/?q=24.750784, 46.846996",NO,Al Dawaa,,LM,RQNC7610,7610,Al Karamah,الكرامه,East Naseem Dist.,حي النسيم الشرقي,14242,4690,"7610 Al Karamah, East Naseem Dist., Riyadh, 14242 - 4690",1,1,,Order #2,Completed
174,Central,,الوسطى,,Riyadh,الرياض,Main,PSRU1180,,226052,P271,,Al Salam Parcel Station - Riyadh - Al Dawaa,محطة طرود حي السلام - الرياض - الدواء,24.69359,46.809269,"https://www.google.com/maps/?q=24.69359, 46.809269",NO,Al Dawaa,,LM,RQSA6087,6087,Al Imam Al Shafie,الامام الشافعي,Al Salam Dist.,حي السلام,14226,3511,"6087 Al Imam Al Shafie, Al Salam Dist., Riyadh, 14226 - 3511",1,1,,Order #2,Completed
175,Central,,الوسطى,,Riyadh,الرياض,Main,PSRU1181,,226053,1147,,West Naseem Parcel Station 1 - Riyadh - Al Dawaa,محطة طرود النسيم الغربي 1 - الرياض - الدواء,24.73591,46.81375,"https://www.google.com/maps/?q=24.73591, 46.81375",NO,Al Dawaa,,LM,RQNE7179,7179,Saad Bin Abi Waqqas,سعد بن ابي وقاص,West Naseem Dist.,حي النسيم الغربي,14231,3009,"7179 Saad Bin Abi Waqqas, West Naseem Dist., Riyadh, 14231 - 3009",1,1,,Order #2,Completed
176,Central,,الوسطى,,Riyadh,الرياض,Main,PSRU1182,,226054,P603,,Tuwaiq Parcel Station - Riyadh - Al Dawaa,محطة طرود حي طويق - الرياض - الدواء,24.583794,46.578827,"https://www.google.com/maps/?q=24.583794, 46.578827",NO,Al Dawaa,,LM,RKTA2305,2305,Khadeejah Bint Khuwaylid,خديجة بنت خويلد,Tuwaiq Dist.,حي طويق,14921,7210,"2305 Khadeejah Bint Khuwaylid, Tuwaiq Dist., Riyadh, 14921 - 7210",1,1,,Order #2,Completed
177,Central,,الوسطى,,Riyadh,الرياض,Main,PSRU1183,,226055,P272,,Al Zahrah Parcel Station - Riyadh - Al Dawaa,محطة طرود الزهرة - الرياض - الدواء,24.582956,46.656298,"https://www.google.com/maps/?q=24.582956, 46.656298",NO,Al Dawaa,,LM,RIZB8422,8422,Ayshah Bin Abi Bakr,عائشة بنت ابي بكر,Al Zahrah Dist.,حي الزهرة,12985,4641,"8422 Ayshah Bin Abi Bakr, Al Zahrah Dist., Riyadh, 12985 - 4641",1,1,,Order #2,Completed
178,Western,,الغربية,,Madinah,المدينة المنورة,Remote,PSMD1184,,226056,P954,,Wadi Mudhainib Parcel Station - Madinah - Al Dawaa,محطة طرود وادي مذينب - المدينة المنورة - الدواء,24.451995,39.67702,"https://www.google.com/maps/?q=24.451995, 39.67702",NO,Al Dawaa,,LM,DMPB8216,8216,Zayd Bin Hatib,حميضه بن رقيم,Wadi Mudhainib Dist.,حي وادي مذينب,42364,3186,"8216 Zayd Bin Hatib, Wadi Mudhainib Dist., Madinah, 42364 - 3186",1,1,,Order #2,Completed
179,Western,,الغربية,,Madinah,المدينة المنورة,Remote,PSMD1185,,226057,P942,,King Fahd Parcel Station - Madinah - Al Dawaa,محطة طرود حي الملك فهد - المدينة المنورة - الدواء,24.49506,39.703227,https://maps.app.goo.gl/ZeoKavhinAV4bxd88,No,Al Dawaa,,LM,DMPB4468,4468,Khaled Bin Oqbah Al Qurashi,خالد بن عقبه القرشي,King Fahd Dist.,حي الملك فهد,42367,8273,"4468 Khaled Bin Oqbah Al Qurashi, King Fahd Dist., Madinah, 42367 - 8273",1,1,,Order #2,Completed
180,Western,,الغربية,,Yanbu,ينبع,Remote,PSYN1186,,226058,1042,,Al Sumayri Parcel Station - Yanbu - Al Dawaa,محطة طرود حي السميري - ينبع - الدواء,24.09829,38.050897,https://maps.app.goo.gl/dCtUwMuHURQT3vX17,No,Al Dawaa,,LM,YADH8497,8497,Abu Bakr As Siddiq,ابو بكر الصديق رضي الله عنه,Al Sumayri Dist.,حي السميري,46424,3178,"8497 Abu Bakr As Siddiq, Al Sumayri Dist., Yanbu, 46424 - 3178",1,1,,Order #2,Completed
181,Central,,الوسطى,,Riyadh,الرياض,Main,PSRU1187,,226059,P614,,Al Nadwah Parcel Station - Riyadh - Al Dawaa,محطة طرود الندوة - الرياض - الدواء,24.795634,46.865092,"https://www.google.com/maps/?q=24.795634, 46.865092",NO,Al Dawaa,,LM,RSRD7565,7565,Khurais Rd,طريق خريص,Al Nadwah Dist.,حي الندوة,14813,2356,"7565 Khurais Rd, Al Nadwah Dist., Riyadh, 14813 - 2356",1,1,,Order #2,Completed
182,Central,,الوسطى,,Riyadh,الرياض,Main,PSRU1188,,226060,1133,,Qurtubah Parcel Station - Riyadh - Al Dawaa,محطة طرود قرطبة - الرياض - الدواء,24.831737,46.731551,"https://www.google.com/maps/?q=24.831737, 46.731551",NO,Al Dawaa,,LM,RUQA2577,2577,Al Thumamah Rd,طريق الثمامة,Qurtubah Dist.,حي قرطبة,13248,7650,"2577 Al Thumamah Rd, Qurtubah Dist., Riyadh, 13248 - 7650",1,1,,Order #2,Completed
183,Central,,الوسطى,,Unayzah,عنيزة,Remote,PSON1189,,226061,245,,Al Wafa Parcel Station - Unayzah - Al Dawaa,محطة طرود الوفاء - عنيزة - الدواء,26.072861,44.010472,"https://www.google.com/maps/?q=26.072861, 44.010472",NO,Al Dawaa,,LM,QAPC3719,3719,Sheikh Mohammad Bin Othaimeen Rd,طريق الشيخ محمد بن عثيمين,Al Wafa Dist.,حي الوفاء,56467,7087,"3719 Sheikh Mohammad Bin Othaimeen Rd, Al Wafa Dist., Unayzah, 56467 - 7087",1,1,,Order #2,Completed
184,Central,,الوسطى,,Al Badayea,البدائع,Remote,PSBE1190,,226062,1131,,Al Khalij Parcel Station - Al Badai - Al Dawaa,محطة طرود الخليج - البدائع - الدواء,25.999552,43.740365,"https://www.google.com/maps/?q=25.999552, 43.740365",NO,Al Dawaa,,LM,QEMA8748,8748,Ommar Bin  Al Khatab St,شارع عمر بن الخطاب,Al Khalij Dist.,حي الخليج,56353,3529,"8748 Ommar Bin  Al Khatab St, Al Khalij Dist., Al Badayea, 56353 - 3529",1,1,,Order #2,Completed
185,Central,,الوسطى,,Riyadh,الرياض,Main,PSRU1191,,226063,P660,,Al Yarmuk Parcel Station 1 - Riyadh - Al Dawaa,محطة طرود اليرموك 1 - الرياض - الدواء,24.804798,46.772048,"https://www.google.com/maps/?q=24.804798, 46.772048",NO,Al Dawaa,,LM,RFYB7519,7519,Rajiyah,راجيه,Al Yarmuk Dist.,حي اليرموك,13243,3413,"7519 Rajiyah, Al Yarmuk Dist., Riyadh, 13243 - 3413",1,1,,Order #2,Completed
186,Central,,الوسطى,,Riyadh,الرياض,Main,PSRU1192,,226064,P646,,Al Munisiyah Parcel Station 1 - Riyadh - Al Dawaa,محطة طرود المونسية 1 - الرياض - الدواء,24.825936,46.780515,"https://www.google.com/maps/?q=24.825936, 46.780515",NO,Al Dawaa,,LM,RUMD7171,7171,Ali Al Fazari,علي الفزاري,Al Munisiyah Dist.,حي المونسية,13253,3312,"7171 Ali Al Fazari, Al Munisiyah Dist., Riyadh, 13253 - 3312",1,1,,Order #2,Completed
187,Central,,الوسطى,,Dariaa,الدرعية,Remote,PSDR1193,,226065,1116,,Al Asemah Parcel Station - Ad Dir'Iyah - Al Dawaa,محطة طرود العاصمة - الدرعية - الدواء,24.751873,46.574967,"https://www.google.com/maps/?q=24.751873, 46.574967",NO,Al Dawaa,,LM,RDAB5118,5118,King Abdulaziz,الملك عبدالعزيز,Al Asemah Dist.,حي العاصمة,13713,6987,"5118 King Abdulaziz, Al Asemah Dist., Dariaa, 13713 - 6987",1,1,,Order #2,Completed
188,Central,,الوسطى,,Riyadh,الرياض,Main,PSRU1194,,226066,61136,,West Naseem Parcel Station - Riyadh - Meed,محطة طرود النسيم الغربي - الرياض - ميد,24.7265499439376,46.8146863533732,https://maps.app.goo.gl/iaNWMiw5WF92jEDb7,NO,Meed,,LM,RQNA6113,6113,Abdullah Bin  Masoud,عبدالله بن مسعود,West Naseem Dist.,حي النسيم الغربي,14231,3138,"6113 Abdullah Bin  Masoud, West Naseem Dist., Riyadh, 14231 - 3138",1,1,24 Hours,Order #2,Completed
189,Central,,الوسطى,,Riyadh,الرياض,Main,PSRU1195,,226067,61030,,King Fahd Parcel Station - Riyadh - Meed,محطة طرود الملك فهد - الرياض - ميد,24.7397448783251,46.6694317497788,https://maps.app.goo.gl/odJFevMeyjYqEXcq9,NO,Meed,,LM,RHFA3094,3094,Al Ameer Nayif Bin Abdulaziz,الامير نايف بن عبدالعزيز,King Fahd Dist.,حي الملك فهد,12273,7182,"3094 Al Ameer Nayif Bin Abdulaziz, King Fahd Dist., Riyadh, 12273 - 7182",1,1,24 Hours,Order #2,Completed
190,Central,Riyadh,الوسطى,منطقة الرياض,Riyadh,الرياض,Main,PSRU1196,,226068,136,,Al Fayha Parcel Station - Riyadh - Panda,محطة طرود الفيحاء - الرياض - بنده,24.681912,46.814946,https://goo.gl/maps/PhKQxTwGwhk,No,Panda,,LM,RQFE7555,7555,Al Imam Al Shafie,الامام الشافعي,Al Fayha Dist.,حي الفيحاء,14253,3930,"7555 Al Imam Al Shafie, Al Fayha Dist., Riyadh, 14253 - 3930",1,1,24 Hours,Order #2,Completed
191,Central,,الوسطى,,Riyadh,الرياض,Main,PSRU1197,,226069,61078,,Al Maseef Parcel Station - Riyadh - Meed,محطة طرود المصيف 2 - الرياض - ميد,24.7681816508802,46.6849785423287,https://goo.gl/maps/89Wja6nt76LeapmM7,NO,Meed,,LM,RHYA3678,3678,Al Hussain Ibn Ali,الحسين بن على,Al Maseef Dist.,حي المصيف,12468,7645,"3678 Al Hussain Ibn Ali, Al Maseef Dist., Riyadh, 12468 - 7645",1,1,24 Hours,Order #2,Completed
192,Western,,الغربية,,Jeddah,جدة,Main,PSJD1198,,226070,62007,,Al Hamra Parcel Station 2 - Jeddah - Meed,محطة طرود الحمراء 2 - جدة - ميد,21.5262354353373,39.1618093699662,https://maps.app.goo.gl/qDaLY1H38Kqaq9vv7,NO,Meed,,LM,JCHA6872,6872,Al Andalus,الاندلس,Al Hamra Dist.,حي الحمراء,23321,3243,"6872 Al Andalus, Al Hamra Dist., Jeddah, 23321 - 3243",1,1,24 Hours,Order #2,Completed
193,Western,Makkah,الغربية,منطقة مكة المكرمة,Jeddah,جدة,Main,PSJD1199,,226071,62107,,As Safa Parcel Station - Jeddah - Meed,محطة طرود الصفا - جدة - ميد,21.58242,39.21849,https://maps.app.goo.gl/JfQhXVV45XmacktP7,No,Meed,,LM,JDSC8245,8245,Um Al Qura,ام القرى,As Safa Dist.,حي الصفا,23454,4069,"8245 Um Al Qura, As Safa Dist., Jeddah, 23454 - 4069",1,1,24 Hours,Order #2,Completed
194,Western,,الغربية,,Jeddah,جدة,Main,PSJD1200,,226072,62064,,Al Hamra Parcel Station - Jeddah - Meed,محطة طرود الحمراء - جدة - ميد,21.522223,39.161095,https://maps.app.goo.gl/gN1Kai7tsXVz9Fvk7,NO,Meed,,LM,JCHA6872,6872,Al Andalus,الاندلس,Al Hamra Dist.,حي الحمراء,23321,3243,"6872 Al Andalus, Al Hamra Dist., Jeddah, 23321 - 3243",1,1,24 Hours,Order #2,Completed
195,Western,Makkah,الغربية,منطقة مكة المكرمة,Jeddah,جدة,Main,PSJD1201,PSRG1201,226073,62096,,Al Frosyah Parcel Station - Jeddah - Meed,محطة طرود الفروسية - جدة - ميد,21.82166,39.19,https://maps.app.goo.gl/A245EZuR8uMouHB39,No,Meed,,LM,JGFA2374,2374,Abdulmajid Al Khati,عبدالمجيد الخطي,Al Frosyah Dist.,حي الفروسية,23783,8146,"2374 Abdulmajid Al Khati, Al Frosyah Dist., Jeddah, 23783 - 8146",1,2,24 Hours,Order #2,Completed
196,Western,,الغربية,,Jeddah,جدة,Main,PSJD1202,,226074,62098,,Al Amwaj Parcel Station - Jeddah - Meed,محطة طرود الامواج - جدة - ميد,21.7617042669194,39.0753952423287,https://goo.gl/maps/1WLX2FuQUoJdNMAo7,NO,Meed,,LM,JHYB3744,3744,Abu Al Mugheerah Bin Hazm,أبو المغيرة بن حزم,Al Amwaj Dist.,حي الامواج,23814,9005,"3744 Abu Al Mugheerah Bin Hazm, Al Amwaj Dist., Jeddah, 23814 - 9005",1,1,24 Hours,Order #2,Completed
197,Western,,الغربية,,Jeddah,جدة,Main,PSJD1203,,226075,62015,,Madain Al Fahd Parcel Station - Jeddah - Meed,محطة طرود مدائن الفهد - جدة - ميد,21.4639377839107,39.22414924298,https://maps.app.goo.gl/uv5yhwiaUPPjdAfg9,NO,Meed,,LM,JIMC6911,6911,Madain Al Fahd,مدائن ال فهد,Madain Al Fahd Dist.,حي مدائن الفهد,22336,2824,"6911 Madain Al Fahd, Madain Al Fahd Dist., Jeddah, 22336 - 2824",1,1,24 Hours,Order #2,Completed
198,Western,,الغربية,,Jeddah,جدة,Main,PSJD1204,,226076,62090,,Al Ajaweed Parcel Station - Jeddah - Meed,محطة طرود الاجاويد - جدة - ميد,21.3999871696447,39.3006951448295,https://maps.app.goo.gl/sJS9mathPLvuR3q29,NO,Meed,,LM,JJDA7469,7469,Ibn Al Muhallab,ابن المهلب,Al Ajaweed Dist.,حي الاجاويد,22443,4247,"7469 Ibn Al Muhallab, Al Ajaweed Dist., Jeddah, 22443 - 4247",1,1,24 Hours,Order #2,Completed
199,Western,Makkah,الغربية,منطقة مكة المكرمة,Jeddah,جدة,Main,PSJD1205,,226077,62110,,Ar Rabwah Parcel Station 1 - Jeddah - Meed,محطة طرود الربوة 1 - جدة - ميد,21.61671,39.17207,https://maps.app.goo.gl/aABb7st5CpuqRchG8,No,Meed,,LM,JDBB3715,3715,Hira,حراء,Ar Rabwah Dist.,حي الربوة,23533,8110,"3715 Hira, Ar Rabwah Dist., Jeddah, 23533 - 8110",1,1,24 Hours,Order #2,Completed
200,Western,,الغربية,,Jeddah,جدة,Main,PSJD1206,,226078,62089,,Ar Rabwah Parcel Station 2 - Jeddah - Meed,محطة طرود الربوة 2 - جدة - ميد,21.6032505104839,39.1833888999999,https://maps.app.goo.gl/nZ8eQKtK3RTSdikN8,NO,Meed,,LM,JDBA8627,8627,Al Makaronah,المكرونة,Ar Rabwah Dist.,حي الربوة,23449,4386,"8627 Al Makaronah, Ar Rabwah Dist., Jeddah, 23449 - 4386",1,1,24 Hours,Order #2,Completed
201,Western,,الغربية,,Taif,الطائف,Remote,PSTA1207,,226079,62041,,Huwaya Ash Shamaliyyah Parcel Station - At Taif - Meed,محطة طرود حي حوايا الشمالية - الطائف - ميد,21.2691115130566,40.4124216742642,https://maps.app.goo.gl/NY1Ydb56u3YK5h6c8,NO,Meed,,LM,TAAB2399,2399,Al Janub Al Baha Rd,طريق الجنوب الباحة,Huwaya Ash Shamaliyyah Dist.,حي حوايا الشمالية,26513,8914,"2399 Al Janub Al Baha Rd, Huwaya Ash Shamaliyyah Dist., Taif, 26513 - 8914",1,1,24 Hours,Order #2,Completed
202,Western,,الغربية,,Taif,الطائف,Remote,PSTA1208,,226080,62092,,Al Siana Parcel Station - At Taif - Meed,محطة طرود الصيانة - الطائف - ميد,21.3372225736494,40.4542493183901,https://maps.app.goo.gl/i4WpWRMSKt71NRbh9,NO,Meed,,LM,TAMB4251,4251,Al Shaikh Sulayman Al Rajihi St,شارع الشيخ سليمان الراجحي,Al Siana Dist.,حي الصيانة,26551,9185,"4251 Al Shaikh Sulayman Al Rajihi St, Al Siana Dist., Taif, 26551 - 9185",1,1,24 Hours,Order #2,Completed
203,Western,Makkah,الغربية,منطقة مكة المكرمة,Taif,الطائف,Remote,PSTA1209,,226081,62132,,Al Faisaliyyah Parcel Station - Taif - Meed,محطة طرود الفيصلية - الطائف - ميد,21.296127,40.417953,https://maps.app.goo.gl/E1JSb8AKGhDU6yQP7,No,Meed,,LM,,,Al Sail Rd,طريق السيل,Al Faisaliyyah,حي الفيصلية,,,Address Incomplete,1,1,24 Hours,Order #2,Completed
204,Eastern,,الشرقية,,Dammam,الدمام,Main,PSDM1210,,226082,63001,,At Tubayshi Parcel Station - Dammam - Meed,محطة طرود الطبيشي - الدمام - ميد,26.4398012020047,50.1183860349831,https://maps.app.goo.gl/eX9nanC4T8HxYXHK9,NO,Meed,,LM,EDGA9683,9683,Al Amir Muhammed Bin  Fahd Rd,طريق الامير محمد بن فهد,At Tubayshi Dist.,حي الطبيشي,32233,2332,"9683 Al Amir Muhammed Bin  Fahd Rd, At Tubayshi Dist., Dammam, 32233 - 2332",1,1,24 Hours,Order #2,Completed
205,Eastern,Eastern Province,الشرقية,المنطقة الشرقية,Dammam,الدمام,Main,PSDM1211,,226083,3061,,Al Jalawiyah Parcel Station - Dammam - Meed,محطة طرود الجلوية - الدمام - ميد,26.431128,50.068085,https://maps.app.goo.gl/ePZb1MF1kSUDgWyS7,No,Meed,,LM,EDJA8341,8341,Al Amir Naif Bin  Abdul Aziz Rd,طريق الامير نايف بن عبد العزيز,Al Jalawiyah Dist.,حي الجلوية,32246,3730,"8341 Al Amir Naif Bin  Abdul Aziz Rd, Al Jalawiyah Dist., Dammam, 32246 - 3730",1,1,24 Hours,Order #2,Completed
206,Eastern,,الشرقية,,Dammam,الدمام,Main,PSDM1212,,226084,63036,,Ar Rakah Al Janubiyah Parcel Station - Al Khobar - Meed,محطة طرود الراكة الجنوبية - الخبر - ميد,26.3613548674546,50.1962392711643,https://maps.app.goo.gl/X7odux3RoqRHhdZD8,NO,Meed,,LM,EADA3781,3781,Khalid Bin  Al Walid,خالد بن الوليد,Ar Rakah Al Janubiyah Dist.,حي الراكة الجنوبية,34226,7523,"3781 Khalid Bin  Al Walid, Ar Rakah Al Janubiyah Dist., Dammam, 34226 - 7523",1,1,24 Hours,Order #2,Completed
207,Eastern,Eastern Province,الشرقية,المنطقة الشرقية,Al Khobar,الخبر,Main,PSKH1213,,226085,3058,,Al Olaya Parcel Station - Al Khobar - Meed,محطة طرود العليا - الخبر - ميد,26.299366,50.181658,https://maps.app.goo.gl/DxsiS5vsj7pLJ1XLA,No,Meed,,LM,EKJA7909,7909,Feras Bin Al Nadr,فراس بن النضر,Al Olaya Dist.,حي العليا,34445,2135,"7909 Feras Bin Al Nadr, Al Olaya Dist., Al Khobar, 34445 - 2135",1,1,24 Hours,Order #2,Completed
208,Eastern,,الشرقية,,Qatif,القطيف,Remote,PSQT1214,,226086,63047,,Ash Shati Parcel Station - Tarut - Meed,محطة طرود الشاطئ - تاروت - ميد,26.5574365804156,50.042160804298,https://maps.app.goo.gl/n9hkdAu8dhbFEAS19,NO,Meed,,LM,EGAA4050,4050,Al Riyadh,الرياض,Ash Shati Dist.,حي الشاطئ,32617,6133,"4050 Al Riyadh, Ash Shati Dist., Qatif, 32617 - 6133",1,1,24 Hours,Order #2,Completed
209,Eastern,,الشرقية,,Dammam,الدمام,Main,PSDM1215,,226087,63054,,Al Jawharah Parcel Station - Dammam - Meed,محطة طرود الجوهرة - الدمام - ميد,26.459957659962,50.0809811025008,https://maps.app.goo.gl/isi6DnC6a99GfZhA6,NO,Meed,,LM,EMDA2676,2676,Al Khalij Rd,طريق الخليج,Al Jawharah Dist.,حي الجوهرة,32422,6104,"2676 Al Khalij Rd, Al Jawharah Dist., Dammam, 32422 - 6104",1,1,24 Hours,Order #2,Completed
210,Central,,الوسطى,,Buraydah,بريدة,Remote,PSBR1216,,226088,61014,,As Subaihiya Parcel Station - Buraidah - Meed,محطة طرود الصبيحية - بريدة - ميد,26.3453485485678,43.9589722,https://maps.app.goo.gl/T5DDGMz8x7gvYXu1A,NO,Meed,,LM,QBMB8098,8098,Al Maari,المعري,As Subaihiya Dist.,حي الصبيحية,52359,3419,"8098 Al Maari, As Subaihiya Dist., Buraydah, 52359 - 3419",1,1,24 Hours,Order #2,Completed
211,Central,,الوسطى,,Buraydah,بريدة,Remote,PSBR1217,,226089,61087,,Az Zahrah Parcel Station - Buraidah - Meed,محطة طرود الزهرة - بريدة - ميد,26.359058218358,43.9473686307374,https://maps.app.goo.gl/idScz58YsGC4rqJx6,NO,Meed,,LM,QBWE3961,3961,Qatadah Ibn Al Noaman,قتادة ابن النعمان,Az Zahrah Dist.,حي الزهرة,52381,7644,"3961 Qatadah Ibn Al Noaman, Az Zahrah Dist., Buraydah, 52381 - 7644",1,1,24 Hours,Order #2,Completed
212,Central,,الوسطى,,Buraydah,بريدة,Remote,PSBR1218,,226090,61095,,Ad Dahi Al Sharqi Parcel Station - Buraidah - Meed,محطة طرود حي الضاحي الشرقي - بريدة - ميد,26.3080257869365,44.0446531245899,https://maps.app.goo.gl/95H16j8RRmi54BqY6,NO,Meed,,LM,QBJD2517,2517,Omar Ibn Abdulaziz,عمر بن عبدالعزيز,Ad Dahi Al Sharqi Dist.,حي الضاحي الشرقي,52344,7330,"2517 Omar Ibn Abdulaziz, Ad Dahi Al Sharqi Dist., Buraydah, 52344 - 7330",1,1,24 Hours,Order #2,Completed
213,Central,,الوسطى,,Buraydah,بريدة,Remote,PSBR1219,,226091,61107,,Al Iskan Parcel Station - Buraidah - Meed,محطة طرود الإسكان - بريدة - ميد,26.392744838517,43.9270161122949,https://maps.app.goo.gl/3ZdiQUAZ27WC4dKx9,NO,Meed,,LM,QBWC9135,9135,Omar Bin  Al Khattab,عمر بن الخطاب,Al Iskan Dist.,حي الإسكان,52386,2049,"9135 Omar Bin  Al Khattab, Al Iskan Dist., Buraydah, 52386 - 2049",1,1,24 Hours,Order #2,Completed
214,Central,,الوسطى,,Buraydah,بريدة,Remote,PSBR1220,,226092,61109,,Al Fayziyah Parcel Station - Buraidah - Meed,محطة طرود حي الفايزية - بريدة - ميد,26.3666752542474,43.9657656633493,https://maps.app.goo.gl/aXUJHnkniZUpnZoVA,NO,Meed,,LM,QBWB3997,3997,Sultan Ibn Abdulaziz,سلطان بن عبدالعزيز,Al Fayziyah Dist.,حي الفايزية,52383,7954,"3997 Sultan Ibn Abdulaziz, Al Fayziyah Dist., Buraydah, 52383 - 7954",1,1,24 Hours,Order #2,Completed
215,Central,,الوسطى,,Unayzah,عنيزة,Remote,PSON1221,,226093,61163,,Al Ashrafiyah Parcel Station - Unayzah - Meed,محطة طرود الاشرفية - عنيزة - ميد,26.0934313675124,44.0032761184947,https://maps.app.goo.gl/2sm5MADeXrSsVSxi9,NO,Meed,,LM,QAGB4014,4014,Ash Shabili,طريق السفير الشبيلي,Al Ashrafiyah Dist.,حي الاشرفية,56438,6285,"4014 Ash Shabili, Al Ashrafiyah Dist., Unayzah, 56438 - 6285",1,1,24 Hours,Order #2,Completed
216,Central,Riyadh,الوسطى,منطقة الرياض,Riyadh,الرياض,Main,PSRU1222,PSSK1222,226094,146,,West Naseem Parcel Station - Riyadh - Panda,محطة طرود النسيم الغربي - الرياض - بنده,24.725258,46.816199,https://goo.gl/maps/9fqznQ41ykq,No,Panda,,LM,RQNA2071,2071,Al Imam Ahmad Bin   Hanbal,الامام احمد بن حنبل,West Naseem Dist.,حي النسيم الغربي,14233,8455,"2071 Al Imam Ahmad Bin   Hanbal, West Naseem Dist., Riyadh, 14233 - 8455",1,2,24 Hours,Order #2,Completed
217,Northern,,الشمالية,,Sakaka,سكاكا,Remote,PSSK1223,,226095,61186,,An Nasriyah Parcel Station - Sakaka - Meed,محطة طرود الناصرية - سكاكا - ميد,29.9296792185738,40.2034623288356,https://maps.app.goo.gl/xNonNpdezWmQBA2K8,NO,Meed,,LM,WRJB5242,5242,Al Amthal,الأمثال,An Nasriyah Dist.,حي الناصرية,72345,6156,"5242 Al Amthal, An Nasriyah Dist., Sakaka, 72345 - 6156",1,1,24 Hours,Order #2,Completed
218,Northern,,الشمالية,,Dumat Al Jandal,دومة الجندل,Remote,PSDJ1224,,226096,61188,,An Nuzhah Parcel Station - Dawmat Al Jandal - Meed,محطة طرود النزهة - دومة الجندل - ميد,29.7980248252986,39.8571332036989,https://maps.app.goo.gl/AoezubSDk7Frrr8g8,NO,Meed,,LM,WTDA2369,2369,King Abdulaziz Rd,طريق الملك عبد العزيز,An Nuzhah Dist.,حي النزهة,74821,9752,"2369 King Abdulaziz Rd, An Nuzhah Dist., Dumat Al Jandal, 74821 - 9752",1,1,24 Hours,Order #2,Completed
219,Northern,,الشمالية,,Tabuk,تبوك,Remote,PSTB1225,,226097,43701,,Sultanah Parcel Station - Tabuk - Sasco Palm,محطة طرود سلطانة - تبوك - نخلة ساسكو,28.390611,36.590306,"https://www.google.com/maps/?q=28.390611, 36.590306",NO,Sasco Palm,,LM,KAAA6382,6382,Dufafah Al Rae,دفافة الراعي,Sultanah Dist.,حي سلطانة,47311,3166,"6382 Dufafah Al Rae, Sultanah Dist., Tabuk, 47311 - 3166",1,1,,Order #2,Completed
220,Northern,,الشمالية,,Tabuk,تبوك,Remote,PSTB1226,,226098,44241,,Al Rayan Parcel Station - Tabuk - Sasco Palm,محطة طرود حي الريان - تبوك - نخلة ساسكو,28.456222,36.552667,"https://www.google.com/maps/?q=28.456222, 36.552667",NO,Sasco Palm,,LM,KADA4412,4412,,,Al Rayan Dist.,حي الريان,47325,6485,Address Incomplete,1,1,,Order #2,Completed
221,Western,,الغربية,,Madinah,المدينة المنورة,Remote,PSMD1227,,226099,43401,,Abu Burayqa Parcel Station - Madinah - Sasco Palm,محطة طرود ابو بريقاء - المدينة المنورة - نخلة ساسكو,24.412139,39.548833,"https://www.google.com/maps/?q=24.412139, 39.548833",NO,Sasco Palm,,LM,DMWB6307,6307,Al Hijrah Rd,طريق الهجرة,Abu Burayqa Dist.,حي ابو بريقاء,42393,3112,"6307 Al Hijrah Rd, Abu Burayqa Dist., Madinah, 42393 - 3112",1,1,,Order #2,Completed
222,Western,,الغربية,,Madinah,المدينة المنورة,Remote,PSMD1228,,226100,43301,,Dhu Al Hulayfah Parcel Station - Madinah - Sasco Palm,محطة طرود ذو الحليفة - المدينة المنورة - نخلة ساسكو,24.414306,39.548611,"https://www.google.com/maps/?q=24.414306, 39.548611",NO,Sasco Palm,,LM,DMWE3034,3034,Makkah Jeddah Express Rd - Al Hijrah Rd,طريق مكة - جدة السريع - طريق الهجرة,Dhu Al Hulayfah Dist.,حي ذو الحليفة,42393,6532,"3034 Makkah Jeddah Express Rd - Al Hijrah Rd, Dhu Al Hulayfah Dist., Madinah, 42393 - 6532",1,1,,Order #2,Completed
223,Western,,الغربية,,Madinah,المدينة المنورة,Remote,PSMD1229,,226101,44331,,Urwah Parcel Station - Madinah - Sasco Palm,محطة طرود عروة - المدينة المنورة - نخلة ساسكو,24.451889,39.586806,"https://www.google.com/maps/?q=24.451889, 39.586806",NO,Sasco Palm,,LM,DMWF4007,4007,Omar Bin  Al Khattab Rd,طريق عمر بن الخطاب,Urwah Dist.,حي عروة,42391,9505,"4007 Omar Bin  Al Khattab Rd, Urwah Dist., Madinah, 42391 - 9505",1,1,,Order #2,Completed
224,Western,,الغربية,,Madinah,المدينة المنورة,Remote,PSMD1230,,226102,44321,,Al Iskan Parcel Station - Madinah - Sasco Palm,محطة طرود الاسكان - المدينة المنورة - نخلة ساسكو,24.470167,39.643722,"https://www.google.com/maps/?q=24.470167, 39.643722",NO,Sasco Palm,,LM,DMAA2923,2923,King Abdulaziz Branch Rd,طريق الملك عبدالعزيز الفرعي,Al Iskan Dist.,حي الاسكان,42317,8825,"2923 King Abdulaziz Branch Rd, Al Iskan Dist., Madinah, 42317 - 8825",1,1,,Order #2,Completed
225,Western,,الغربية,,Madinah,المدينة المنورة,Remote,PSMD1231,,226103,44311,,Wadi Mudhainib Parcel Station - Madinah - Sasco Palm,محطة طرود وادي مذينب - المدينة المنورة - نخلة ساسكو,24.4397015887797,39.6703745842305,"https://www.google.com/maps/?q=24.439701, 39.670374",NO,Sasco Palm,,LM,DMPE6853,6853,Hassan Bin  Shaddad,حسان بن شداد,Wadi Mudhainib Dist.,حي وادي مذينب,42364,2521,"6853 Hassan Bin  Shaddad, Wadi Mudhainib Dist., Madinah, 42364 - 2521",1,1,,Order #2,Completed
226,Western,,الغربية,,Yanbu,ينبع,Remote,PSYN1232,,226104,44361,,Al Muruj Parcel Station - Yanbu - Sasco Palm,محطة طرود المروج - ينبع - نخلة ساسكو,24.1043754981736,38.0206943962758,"https://www.google.com/maps/?q=24.104375, 38.020694",NO,Sasco Palm,,LM,YFAB4918,4918,Al Ameer Miqren Bin Abdulaziz,الامير مقرن بن عبدالعزيز,Al Muruj Dist.,حي المروج,46511,7190,"4918 Al Ameer Miqren Bin Abdulaziz, Al Muruj Dist., Yanbu, 46511 - 7190",1,1,,Order #2,Completed
227,Western,,الغربية,,Jeddah,جدة,Main,PSJD1233,,226105,****,,Ash Sheraa Parcel Station - Jeddah - Sasco Palm,محطة طرود الشراع - جدة - نخلة ساسكو,21.7608500199363,39.0819077755671,"https://www.google.com/maps/?q=21.76085, 39.081907",NO,Sasco Palm,,LM,JHYA4400,4400,Prince Naif Rd,طريق الأمير نايف,Ash Sheraa Dist.,حي الشراع,23814,8916,"4400 Prince Naif Rd, Ash Sheraa Dist., Jeddah, 23814 - 8916",1,1,,Order #2,Completed
228,Eastern,,الشرقية,,Dammam,الدمام,Main,PSDM1234,,226106,****,,Al Andalus Parcel Station - Tarut - Sasco Palm,محطة طرود حي الاندلس - تاروت - نخلة ساسكو,26.557285,50.071961,"https://www.google.com/maps/?q=26.557285, 50.071961",NO,Sasco Palm,,LM,EGAD3301,3301,,,Al Andalus Dist.,حي الاندلس,32612,7975,Address Incomplete,1,1,,Order #2,Completed
229,Southern,,الجنوبية,,Sabya,صبيا,Remote,PSSB1235,,226107,****,,Al Majd Parcel Station - Sabya - Sasco Palm,محطة طرود حي المجد - صبيا - نخلة ساسكو,17.1519490196149,42.650860242344,"https://www.google.com/maps/?q=17.151949, 42.65086",NO,Sasco Palm,,LM,GBPB2605,2605,King Faisal Ibn Abdulaziz St,شارع الملك فيصل بن عبدالعزيز,Al Majd Dist.,حي المجد,85534,6301,"2605 King Faisal Ibn Abdulaziz St, Al Majd Dist., Sabya, 85534 - 6301",1,1,,Order #2,Completed
230,Western,,الغربية,,Makkah,مكة المكرمة,Remote,PSMK1236,,226108,****,,Al Muhamadiyah Parcel Station - Makkah - Sasco Palm,محطة طرود حي المحمدية - مكة المكرمة - نخلة ساسكو,21.365667,39.797167,"https://www.google.com/maps/?q=21.365667, 39.797167",NO,Sasco Palm,,LM,MDWA7980,7980,Muhammad Ibn Khalid,محمد بن خالد,Al Muhamadiyah Dist.,حي المحمدية,24353,5317,"7980 Muhammad Ibn Khalid, Al Muhamadiyah Dist., Makkah, 24353 - 5317",1,1,,Order #2,Completed
231,Western,,الغربية,,Jeddah,جدة,Main,PSJD1237,,226109,****,,Ar Riyadh Parcel Station - Jeddah - Sasco Palm,محطة طرود الرياض - جدة - نخلة ساسكو,21.833972,39.193056,"https://www.google.com/maps/?q=21.833972, 39.193056",NO,Sasco Palm,,LM,JHRB2724,2724,Asfan Rd,طريق عسفان,Ar Riyadh Dist.,حي الرياض,23839,6195,"2724 Asfan Rd, Ar Riyadh Dist., Jeddah, 23839 - 6195",1,1,,Order #2,Completed
232,Central,Qassim,الوسطى,منطقة القصيم,Unayzah,عنيزة,Remote,PSON1238,PSBR1238,226110,10771,,Ar Rawghani Parcel Station - Unayzah - Sasco Palm,محطة طرود الروغاني - عنيزة - نخلة ساسكو,26.12081,43.97545,https://maps.app.goo.gl/eqEmfFHSoGyw7ckX7,No,Sasco Palm,,LM,QCAC3806,3806,Othman Bin Affan,طريق عثمان بن عفان,Ar Rawghani Dist.,حي الروغاني,56217,6185,"3806 Othman Bin Affan, Ar Rawghani Dist., Unayzah, 56217 - 6185",1,2,24 Hours,Order #2,Completed
233,Central,,الوسطى,,Buraydah,بريدة,Remote,PSBR1239,,226111,10821,,As Safra Parcel Station - Buraidah - Sasco Palm,محطة طرود الصفراء - بريدة - نخلة ساسكو,26.3652681399016,43.9657437557647,"https://www.google.com/maps/?q=26.365268, 43.965743",NO,Sasco Palm,,LM,QBWC7806,7806,King Khalid Rd,خالد بن عبدالعزيز,As Safra Dist.,حي الصفراء,52383,3971,"7806 King Khalid Rd, As Safra Dist., Buraydah, 52383 - 3971",1,1,,Order #2,Completed
234,Central,,الوسطى,,Buraydah,بريدة,Remote,PSBR1240,,226112,10851,,Az Zarqa Parcel Station - Buraidah - Sasco Palm,محطة طرود حي الزرقاء - بريدة - نخلة ساسكو,26.3408593479423,43.9295758544658,"https://www.google.com/maps/?q=26.340859, 43.929575",NO,Sasco Palm,,LM,QBUF3886,3886,King Fahad Branch Rd,طريق الملك فهد الفرعي,Az Zarqa Dist.,حي الزرقاء,52372,6780,"3886 King Fahad Branch Rd, Az Zarqa Dist., Buraydah, 52372 - 6780",1,1,,Order #2,Completed
235,Central,,الوسطى,,Al Rass,الرس,Remote,PSRS1241,,226113,10861,,Bahjah Parcel Station - Ar Rass - Sasco Palm,محطة طرود حي بهجة - الرس - نخلة ساسكو,25.8503386468444,43.4905712378994,"https://www.google.com/maps/?q=25.850338, 43.490571",NO,Sasco Palm,,LM,QOUA3178,3178,King Salman Ibn Abdulaziz,الملك سلمان بن عبد العزيز,Bahjah Dist.,حي بهجة,58881,6362,"3178 King Salman Ibn Abdulaziz, Bahjah Dist., Al Rass, 58881 - 6362",1,1,,Order #2,Completed
236,Southern,,الجنوبية,,Khamis Mushait,خميس مشيط,Remote,PSKM1242,,226114,50891,,Al Mamurah Parcel Station - Khamis Mushayt - Sasco Palm,محطة طرود المعمورة - خميس مشيط - نخلة ساسكو,18.328583,42.73225,"https://www.google.com/maps/?q=18.328583, 42.73225",NO,Sasco Palm,,LM,AKMC7978,7978,,,Al Mamurah Dist.,حي المعمورة,62458,4747,Address Incomplete,1,1,,Order #2,Completed
237,Central,,الوسطى,,Riyadh,الرياض,Main,PSRU1243,,226115,11077,,Al Narjis Parcel Station 1 - Riyadh - Sasco Palm,محطة طرود حي النرجس 1 - الرياض - نخلة ساسكو,24.88839,46.657819,https://maps.app.goo.gl/9qb24tcwnBdSpjeS9,No,Sasco Palm,,LM,,,Prince Faisal bin Bandar Road,طريق الامير فيصل بن بندر,Al Narjis Dist.,حي النرجس,,,Address Incomplete,1,1,,Order #2,Completed
238,Central,Riyadh,الوسطى,منطقة الرياض,Riyadh,الرياض,Main,PSRU1244,,226116,10881,,Al Awaly Parcel Station - Riyadh - Sasco Palm,محطة طرود العوالي - الرياض - نخلة ساسكو,24.57225,46.59398,https://maps.app.goo.gl/2aLftQhAwupVCh3e8,No,Sasco Palm,,LM,RKAA4029,4029,Al Madinah Al Munawarah Rd,طريق المدينة المنورة,Al Awaly Dist.,حي العوالي,14926,8290,"4029 Al Madinah Al Munawarah Rd, Al Awaly Dist., Riyadh, 14926 - 8290",1,1,0,Order #2,Completed
239,Central,,الوسطى,,Riyadh,الرياض,Main,PSRU1245,,226117,11099,,Al Sulay Parcel Station - Riyadh - Sasco Palm,محطة طرود حي السلي - الرياض - نخلة ساسكو,24.68886,46.852391,https://goo.gl/maps/P4iKQMUbRxaqpRXk7 ,No,Sasco Palm,,LM,RQYB4543,4543,Abu Ubaydah Amir Bin  Al Jarrah,طريق ابو عبيدة عامر بن الجراح,Al Sulay Dist.,حي السلي,14267,9035,"4543 Abu Ubaydah Amir Bin  Al Jarrah, Al Sulay Dist., Riyadh, 14267 - 9035",1,1,,Order #2,Completed
240,Central,Riyadh,الوسطى,منطقة الرياض,Riyadh,الرياض,Main,PSRU1246,,226118,161,,Al Munisiyah Parcel Station - Riyadh - Panda,محطة طرود المونسية - الرياض - بنده,24.827912,46.782151,https://goo.gl/maps/bN7LE67eVDE2,No,Panda,,LM,RUMD3542,3542,Al Balqa,البلقاء,Al Munisiyah Dist.,حي المونسية,13253,7400,"3542 Al Balqa, Al Munisiyah Dist., Riyadh, 13253 - 7400",1,1,0,Order #2,Completed
241,Central,,الوسطى,,Riyadh,الرياض,Main,PSRU1247,,226119,-,,King Abdulaziz Medical City Parcel Station - Riyadh - Gate 2,محطة طرود مدينة الملك عبدالعزيز الطبية - الرياض - بوابة 2,24.748158,46.854615,https://maps.app.goo.gl/PAxndf1wndf7TBPy6,NO,King Abdulaziz Medical City,,LM,RSRA6874,6874,Jabir Bin u Hayan Rd,طريق جابر بن حيان,Al Rimayah Dist.,حي الرماية,14611,3672,"6874 Jabir Bin u Hayan Rd, Al Rimayah Dist., Riyadh, 14611 - 3672",1,6,,24 Parcel Stations,Completed
242,Central,,الوسطى,,Riyadh,الرياض,Main,PSRU1248,,226120,-,,King Abdullah Specialist Children's Hospital Parcel Station - Riyadh,محطة طرود مستشفى الملك عبدالله التخصصي للأطفال - الرياض,24.752482,46.861623,https://maps.app.goo.gl/CDrLrsvgaKuNTc2a7,NO,King Abdullah Specialist Hospital for Children,,LM,RSRA6874,6874,Jabir Bin u Hayan Rd,طريق جابر بن حيان,Al Rimayah Dist.,حي الرماية,14611,3672,"6874 Jabir Bin u Hayan Rd, Al Rimayah Dist., Riyadh, 14611 - 3672",1,6,,24 Parcel Stations,Completed
243,Central,,الوسطى,,Riyadh,الرياض,Main,PSRU1249,,226121,1002,,Al Aqiq Parcel Station - Riyadh - Trolley,محطة طرود حي العقيق - الرياض - ترولي,24.7840615,46.63477843,https://maps.app.goo.gl/nDQqR6cUEXdUrPkB7,No,Trolley,,LM,,,King Fahad Ibn Abdulaziz Rd,طريق الملك فهد بن عبدالعزيز,Al Aqiq Dist.,حي العقيق,,,Address Incomplete,1,1,,Order #2,Completed
244,Central,,الوسطى,,Riyadh,الرياض,Main,PSRU1250,,226122,1021,,As Sahafah Parcel Station - Riyadh - Trolley,محطة طرود حي الصحافة - الرياض - ترولي,24.791304,46.632549,https://maps.app.goo.gl/hwwew8YK3Ryvfg337,No,Trolley,,LM,,,Airport Rd,طريق المطار,As Sahafah Dist.,حي الصحافة,,,Address Incomplete,1,1,,Order #2,Completed
245,Central,,الوسطى,,Riyadh,الرياض,Main,PSRU1251,,226123,1015,,Irqah Parcel Station - Riyadh - Trolley,محطة طرود حي عرقة - الرياض - ترولي,24.68214055,46.56448616,https://maps.app.goo.gl/PQz3D1XsH9nmvU6Y6,No,Trolley,,LM,,,Prince Mishaal bin Abdulaziz Road,طريق الامير مشعل بن عبدالعزيز,Irqah Dist.,حي عرقة,,,Address Incomplete,1,1,,Order #2,Completed
246,Central,Riyadh,الوسطى,منطقة الرياض,Riyadh,الرياض,Main,PSRU1252,,226124,1017,,Al Muhammadiyah Parcel Station - Riyadh - Trolley,محطة طرود المحمدية - الرياض - ترولي,24.7279065,46.652361,https://goo.gl/maps/NL72sQUg2MbNYANUA,No,Trolley,,LM,RGHA6833,6833,At Takhassusi,التخصصي,Al Muhammadiyah Dist.,حي المحمدية,12361,3896,"6833 At Takhassusi, Al Muhammadiyah Dist., Riyadh, 12361 - 3896",1,1,,Order #3,Completed 
247,Central,Riyadh,الوسطى,منطقة الرياض,Riyadh,الرياض,Main,PSRU1253,,226125,1028,,Al Yarmuk Parcel Station - Riyadh - Trolley,محطة طرود اليرموك - الرياض - ترولي,24.819993,46.789387,https://maps.app.goo.gl/WvPEynzNnnAAvN2U9,No,Trolley,,LM,RFYC3303,3303,Al Dammam Rd,طريق الدمام,Al Yarmuk Dist.,حي اليرموك,13251,8332,"3303 Al Dammam Rd, Al Yarmuk Dist., Riyadh, 13251 - 8332",1,1,,Order #3,Completed 
248,Central,Riyadh,الوسطى,منطقة الرياض,Riyadh,الرياض,Main,PSRU1254,,226126,1006,,Al Aqeeq Parcel Station 1 - Riyadh - Trolley,محطة طرود العقيق 1 - الرياض - ترولي,24.764107,46.624444,https://goo.gl/maps/ACDKfsWx6L1GEH1b9,No,Trolley,,LM,RRAB7201,7201,Prince Mohammed Ibn Saad Ibn Abdulaziz Rd,طريق الامير محمد بن سعد بن عبد العزيز,Al Aqeeq Dist.,حي العقيق,13511,2315,"7201 Prince Mohammed Ibn Saad Ibn Abdulaziz Rd, Al Aqeeq Dist., Riyadh, 13511 - 2315",1,1,,Order #3,Completed 
249,Central,Riyadh,الوسطى,منطقة الرياض,Riyadh,الرياض,Main,PSRU1255,,226127,1008,,Al Narjis Parcel Station - Riyadh - Trolley,محطة طرود النرجس - الرياض - ترولي,24.835478,46.684094,https://maps.app.goo.gl/fAzs9PpoTetW5RQWA,No,Trolley,,LM,RANB4262,4262,Street No. 254,شارع رقم 254,Al Narjis Dist.,حي النرجس,13324,8804,"4262 Street No. 254, Al Narjis Dist., Riyadh, 13324 - 8804",1,1,,Order #3,Completed 
250,Central,Riyadh,الوسطى,منطقة الرياض,Riyadh,الرياض,Main,PSRU1256,,226128,1018,,Al Malqa Parcel Station - Riyadh - Trolley,محطة طرود الملقا - الرياض - ترولي,24.8114947,46.600575,https://maps.app.goo.gl/oipCjGmnRvzafjbGA,No,Trolley,,LM,RRMA6989,6989,Prince Mohammed Ibn Saad Ibn Abdulaziz Rd,طريق الامير محمد بن سعد بن عبد العزيز,Al Malqa Dist.,حي الملقا,13524,2456,"6989 Prince Mohammed Ibn Saad Ibn Abdulaziz Rd, Al Malqa Dist., Riyadh, 13524 - 2456",1,1,,Order #3,Completed 
251,Central,Riyadh,الوسطى,منطقة الرياض,Riyadh,الرياض,Main,PSRU1257,,226129,1020,,Al Mughrazat Parcel Station - Riyadh - Trolley,محطة طرود المغرزات - الرياض - ترولي,24.758864,46.734984,https://maps.app.goo.gl/BFhbjKeNNRSrLpQb6,No,Trolley,,LM,RHRA4270,4270,King Abdullah,طريق الملك عبد الله,Al Mughrazat Dist.,حي المغرزات,12482,6787,"4270 King Abdullah, Al Mughrazat Dist., Riyadh, 12482 - 6787",1,1,,Order #3,Completed 
252,Central,Riyadh,الوسطى,منطقة الرياض,Riyadh,الرياض,Main,PSRU1258,,226130,1022,,Al Mahdiyah Parcel Station - Riyadh - Trolley,محطة طرود المهدية - الرياض - ترولي,24.6676867,46.541051,https://maps.app.goo.gl/aR5MRkaxLbVdvSSb8,No,Trolley,,LM,RDMD2513,2513,Al Sail Al Kabir,السيل الكبير,Al Mahdiyah Dist.,حي المهدية,13752,8077,"2513 Al Sail Al Kabir, Al Mahdiyah Dist., Riyadh, 13752 - 8077",1,1,,Order #3,Completed 
253,Central,Riyadh,الوسطى,منطقة الرياض,Riyadh,الرياض,Main,PSRU1259,,226131,1004,,Ishbiliyah Parcel Station - Riyadh - Trolley,محطة طرود اشبيلية - الرياض - ترولي,24.7796638,46.784041,https://maps.app.goo.gl/mhTc7HbTLudD6mwL6,No,Trolley,,LM,RFBA6376,6376,Al Khaznzh,الخزنه,Ishbiliyah Dist.,حي اشبيلية,13225,3809,"6376 Al Khaznzh, Ishbiliyah Dist., Riyadh, 13225 - 3809",1,1,,Order #3,Completed 
254,Central,Riyadh,الوسطى,منطقة الرياض,Riyadh,الرياض,Main,PSRU1260,,226132,1013,,Al Aqeeq Parcel Station 2 - Riyadh - Trolley,محطة طرود العقيق 2 - الرياض - ترولي,24.7711296,46.622693,https://goo.gl/maps/9DA28qEe2sQcBC1o7,No,Trolley,,LM,RRAA3022,3022,Prince Mohammed Bin  Salman Bin  Abdulaziz Rd,طريق الامير محمد بن سلمان بن عبدالعزيز,Al Aqeeq Dist.,حي العقيق,13515,6142,"3022 Prince Mohammed Bin  Salman Bin  Abdulaziz Rd, Al Aqeeq Dist., Riyadh, 13515 - 6142",1,1,,Order #3,Completed 
255,Central,Riyadh,الوسطى,منطقة الرياض,Riyadh,الرياض,Main,PSRU1261,,226133,1003,,Al Qadisiyah Parcel Station - Riyadh - Trolley,محطة طرود القادسية - الرياض - ترولي,24.8178411,46.824061,https://goo.gl/maps/GY9xsw8fmMoWL3Db8,No,Trolley,,LM,RFJB3244,3244,Al Imam Abdullah Bin  Saud Bin  Abdulaziz Rd,طريق الامام عبدالله بن سعود بن عبدالعزيز,Al Qadisiyah Dist.,حي القادسية,13261,6433,"3244 Al Imam Abdullah Bin  Saud Bin  Abdulaziz Rd, Al Qadisiyah Dist., Riyadh, 13261 - 6433",1,1,,Order #3,Completed 
256,Central,Riyadh,الوسطى,منطقة الرياض,Riyadh,الرياض,Main,PSRU1262,,226134,1031,,King Salman Parcel Station - Riyadh - Trolley,محطة طرود الملك سلمان - الرياض - ترولي,24.7360852,46.707652,https://goo.gl/maps/e1aX2zaR3veRs8PJA,No,Trolley,,LM,RHHA7719,7719,Abi Bakr As Siddiq,ابي بكر الصديق,King Salman Dist.,حي الملك سلمان,12443,2480,"7719 Abi Bakr As Siddiq, King Salman Dist., Riyadh, 12443 - 2480",1,1,,Order #3,Not Started
257,Northern,Tabuk,الشمالية,منطقة تبوك,Neom,نيوم,Main,PSNU1263,,226135,NC1,,NC1 Parcel Station - Neom - Post Office,محطة طرود مجمع نيوم السكني 1 - المكتب البريدي,28.109895,35.113812,https://maps.app.goo.gl/KcpvxT5oyEjbjZB89,No,Neom,,LM,,,Neom Community 1,مجمع نيوم السكني 1,,,49639,,Neom Community 1 - Post Office,1,1,,Order #3,Completed 
258,Central,Riyadh,الوسطى,منطقة الرياض,Riyadh,الرياض,Main,PSRU1264,,226136,,,Al Rabie Parcel Station - Riyadh - Al Jazeerah Market,محطة طرود الربيع - الرياض - الجزيرة ماركت,24.799398,46.663302,https://maps.app.goo.gl/P1d8KrsGcfUjxYxw5,No,Al Jazeerah Market,,LM,RARA3190,3190,Al Qalam,القلم,Al Rabie Dist.,حي الربيع,13316,7408,"3190 Al Qalam, Al Rabie Dist., Riyadh, 13316 - 7408",1,1,,Order #3,Completed 
259,Central,Riyadh,الوسطى,منطقة الرياض,Riyadh,الرياض,Main,PSRU1265,,226137,,,Al Yasmeen Parcel Station - Riyadh - Al Jazeerah Market,محطة طرود الياسمين - الرياض - الجزيرة ماركت,24.821939,46.630323,https://maps.app.goo.gl/qekFS9NGd4p2bSeL9,No,Al Jazeerah Market,,LM,RAYB7325,7325,Prince Abdullah Bin  Saud Bin  Abdullah Sunaitan Al Saud,الامير عبدالله بن سعود بن عبدالله صنيتان ال سعود,Al Yasmeen Dist.,حي الياسمين,13325,3632,"7325 Prince Abdullah Bin  Saud Bin  Abdullah Sunaitan Al Saud, Al Yasmeen Dist., Riyadh, 13325 - 3632",1,1,,Order #3,Completed 
260,Central,Riyadh,الوسطى,منطقة الرياض,Riyadh,الرياض,Main,PSRU1266,,226138,,,Al Aqeeq Parcel Station - Riyadh - Al Jazeerah Market,محطة طرود العقيق - الرياض - الجزيرة ماركت,24.767234,46.622948,https://maps.app.goo.gl/nGxM8rQb7Vs5k2zJA,No,Al Jazeerah Market,,LM,RRAA7503,7503,Prince Mohammed Ibn Saad Ibn Abdulaziz Rd,طريق الامير محمد بن سعد بن عبد العزيز,Al Aqeeq Dist.,حي العقيق,13511,2170,"7503 Prince Mohammed Ibn Saad Ibn Abdulaziz Rd, Al Aqeeq Dist., Riyadh, 13511 - 2170",1,1,,Order #3,Completed 
261,Central,Riyadh,الوسطى,منطقة الرياض,Riyadh,الرياض,Main,PSRU1267,,226139,,,Al Ghadeer Parcel Station - Riyadh - Al Jazeerah Market,محطة طرود الغدير - الرياض - الجزيرة ماركت,24.772864,46.65506,https://maps.app.goo.gl/aHz38yEJgkCdkTdx9,No,Al Jazeerah Market,,LM,RAGA3623,3623,Alsail Alkabeer St,شارع السيل الكبير,Al Ghadeer Dist.,حي الغدير,13311,7323,"3623 Alsail Alkabeer St, Al Ghadeer Dist., Riyadh, 13311 - 7323",1,1,,Order #3,Completed 
262,Central,Riyadh,الوسطى,منطقة الرياض,Riyadh,الرياض,Main,PSRU1268,,226140,,,Al Mursalat Parcel Station - Riyadh - Al Jazeerah Market,محطة طرود المرسلات - الرياض - الجزيرة ماركت,24.756154,46.683811,https://maps.app.goo.gl/sydM4hTqFTBxQ6BN7,No,Al Jazeerah Market,,LM,RHMA2729,2729,Imam Saud Bin  Abdulaziz Bin  Mohammed Rd,طريق الامام سعود بن عبدالعزيز بن محمد,Al Mursalat Dist.,حي المرسلات,12464,8124,"2729 Imam Saud Bin  Abdulaziz Bin  Mohammed Rd, Al Mursalat Dist., Riyadh, 12464 - 8124",1,1,,Order #3,Completed 
263,Central,Riyadh,الوسطى,منطقة الرياض,Riyadh,الرياض,Main,PSRU1269,,226141,,,Al Olaya Parcel Station - Riyadh - Al Jazeerah Market,محطة طرود العليا - الرياض - الجزيرة ماركت,24.706016,46.688497,https://maps.app.goo.gl/ENt6oAbynLXWy4TR6,No,Al Jazeerah Market,,LM,RHOA3333,3333,Mousa Bin Naseer,موسى بن نصير,Al Olaya Dist.,حي العليا,12241,7039,"3333 Mousa Bin Naseer, Al Olaya Dist., Riyadh, 12241 - 7039",1,1,,Order #3,Completed 
264,Central,Riyadh,الوسطى,منطقة الرياض,Riyadh,الرياض,Main,PSRU1270,,226142,,,Al Nakheel Parcel Station - Riyadh - Al Jazeerah Market,محطة طرود النخيل - الرياض - الجزيرة ماركت,24.743024,46.644857,https://maps.app.goo.gl/sTaev8zf37vzbj1bA,No,Al Jazeerah Market,,LM,RGNC6880,6880,Wadi Rukba,وادي ركبة,Al Nakheel Dist.,حي النخيل,12381,4821,"6880 Wadi Rukba, Al Nakheel Dist., Riyadh, 12381 - 4821",1,1,,Order #3,Completed 
265,Central,Riyadh,الوسطى,منطقة الرياض,Riyadh,الرياض,Main,PSRU1271,,226143,1103,,Al-Maather Parcel Station - Riyadh - Saco,محطة طرود المعذر - الرياض - ساكو,24.6816735,46.676762,https://goo.gl/maps/Mjvz1fFLnU3U6j3N8,No,Saco,,LM,,,,,Al-Maather North District,حي المعذر الشمالي,,,Address Incomplete,1,1,,Order #3,Not Started
266,Central,Riyadh,الوسطى,منطقة الرياض,Riyadh,الرياض,Main,PSRU1272,,226144,1104,,Al Hamra Parcel Station - Riyadh - Saco,محطة طرود الحمراء - الرياض - ساكو,24.7716307,46.757019,https://goo.gl/maps/Gw691QEvVRh5Yq9z5,No,Saco,,LM,RFHB6441,6441,Khalid Bin  Al Walid ,خالد بن الوليد,Al Hamra Dist.,حي الحمراء,13217,2856,"6441 Khalid Bin  Al Walid , Al Hamra Dist., Riyadh, 13217 - 2856",1,1,,Order #3,Completed 
267,Central,Riyadh,الوسطى,منطقة الرياض,Riyadh,الرياض,Main,PSRU1273,,226145,1105,,Al Ghadeer Parcel Station - Riyadh - Saco,محطة طرود الغدير - الرياض - ساكو,24.7696079,46.664183,https://goo.gl/maps/diMnX32vzhBtkjdr9,No,Saco,,LM,RAGA4574,4574,Northern Ring Rd,الطريق الدائري الشمالي,Al Ghadeer Dist.,حي الغدير,13311,6955,"4574 Northern Ring Rd, Al Ghadeer Dist., Riyadh, 13311 - 6955",1,1,,Order #3,Completed 
268,Central,Riyadh,الوسطى,منطقة الرياض,Riyadh,الرياض,Main,PSRU1274,,226146,1106,,West Oraija Parcel Station - Riyadh - Saco,محطة طرود العريجاء الغربي - الرياض - ساكو,24.5779121,46.606056,https://goo.gl/maps/ukgPr3NR6BnZxNsz6,No,Saco,,LM,RIUG3152,3152,Al Madinah Al Munawarah Rd,طريق المدينة المنورة,West Oraija Dist.,حي العريجاء الغربي,12978,6121,"3152 Al Madinah Al Munawarah Rd, West Oraija Dist., Riyadh, 12978 - 6121",1,1,,Order #3,Completed 
269,Central,Riyadh,الوسطى,منطقة الرياض,Riyadh,الرياض,Main,PSRU1275,,226147,1107,,Al Farouq Parcel Station - Riyadh - Saco,محطة طرود الفاروق - الرياض - ساكو,24.6612627,46.784648,https://goo.gl/maps/LLuP42wfALo62JfS7,No,Saco,,LM,,,,,"Al , Farouq District",حي الفاروق,,,Address Incomplete,1,1,,Order #3,Completed 
270,Central,Riyadh,الوسطى,منطقة الرياض,Riyadh,الرياض,Main,PSRU1276,,226148,1108,,Al Rawdah Parcel Station - Riyadh - Saco,محطة طرود الروضة - الرياض - ساكو,24.7307471,46.78589,https://goo.gl/maps/LSC4AgYkRxioPkFL6,No,Saco,,LM,RFRA5060,5060,Khurais Rd,طريق خريص,Al Rawdah Dist.,حي الروضة,13211,7794,"5060 Khurais Rd, Al Rawdah Dist., Riyadh, 13211 - 7794",1,1,,Order #3,Completed 
271,Central,Qassim,الوسطى,منطقة القصيم,Buraidah,بريدة,Remote,PSBR1277,,226149,1110,,Ar Rabwah Parcel Station - Buraidah - Saco,محطة طرود الربوة - بريدة - ساكو,26.3485179,43.976175,https://goo.gl/maps/J5JxabiPBB1s3JYU8,No,Saco,,LM,QBPC6322,6322,Obaid Al Masri,عبيد المصري,Ar Rabwah Dist.,حي الربوة,52367,2760,"6322 Obaid Al Masri, Ar Rabwah Dist., Buraidah, 52367 - 2760",1,1,,Order #3,Not Started
272,Central,Riyadh,الوسطى,منطقة الرياض,Riyadh,الرياض,Main,PSRU1278,,226150,1111,,Hiteen Parcel Station - Riyadh - Saco,محطة طرود حطين - الرياض - ساكو,24.753719,46.585208,https://goo.gl/maps/17HK3UZEzCuUkN4F6,No,Saco,,LM,RRHA7807,7807,King Khalid Rd,طريق الملك خالد,Hiteen Dist.,حي حطين,13514,2305,"7807 King Khalid Rd, Hiteen Dist., Riyadh, 13514 - 2305",1,1,,Order #3,Completed 
273,Central,Riyadh,الوسطى,منطقة الرياض,Riyadh,الرياض,Main,PSRU1279,,226151,1112,,Ar Rabie Parcel Station - Riyadh - Saco,محطة طرود الربيع - الرياض - ساكو,24.8086561,46.669809,https://goo.gl/maps/1FYRj3kofLChq7Dy7,No,Saco,,LM,RARC3769,3769,Al Thumamah Rd,طريق الثمامة,Ar Rabie Dist.,حي الربيع,13316,8580,"3769 Al Thumamah Rd, Ar Rabie Dist., Riyadh, 13316 - 8580",1,1,,Order #3,Completed 
274,Central,Qassim,الوسطى,منطقة القصيم,Unayzah,عنيزة,Remote,PSON1280,,226152,1113,,Al Naseem Parcel Station - Unayzah - Saco,محطة طرود النسيم - عنيزة - ساكو,26.112133,43.983175,https://goo.gl/maps/i8z32e5umM8Vh1gM7,No,Saco,,LM,QCAC6890,6890,King Abdulaziz Rd,طريق الملك عبدالعزيز,Al Naseem Dist.,حي النسيم,56218,4475,"6890 King Abdulaziz Rd, Al Naseem Dist., Unayzah, 56218 - 4475",1,1,,Order #3,Not Started
275,Central,Riyadh,الوسطى,منطقة الرياض,Al Kharj,الخرج,Remote,PSKA1281,,226153,1114,,Al Jamiah Parcel Station - Al Kharj - Saco,محطة طرود الجامعة - الخرج - ساكو,24.1318082,47.26869,https://goo.gl/maps/D41KYGzL5fMH4yQq9,No,Saco,,LM,OKSG3804,3804,King Abdullah Road,طريق الملك عبدالله,Al Jamiah Dist.,حي الجامعة,16272,7589,"3804 King Abdullah Road, Al Jamiah Dist., Al Kharj, 16272 - 7589",1,1,,Order #3,Not Started
276,Central,Riyadh,الوسطى,منطقة الرياض,Riyadh,الرياض,Main,PSRU1282,,226154,1115,,King Fahd Parcel Station - Riyadh - Saco,محطة طرود الملك فهد - الرياض - ساكو,24.7349435,46.679079,https://goo.gl/maps/XqjVssHFgo4YaifS9,No,Saco,,LM,RHFA4086,4086,King Abdullah,طريق الملك عبد الله,King Fahd Dist.,حي الملك فهد,12272,6650,"4086 King Abdullah, King Fahd Dist., Riyadh, 12272 - 6650",1,1,,Order #3,Completed 
277,Western,Makkah,الغربية,منطقة مكة المكرمة,Jeddah,جدة,Main,PSJD1283,,226155,1202,,Al Hamra Parcel Station - Jeddah - Saco,محطة طرود الحمراء - جدة - ساكو,21.5183401,39.16508,https://goo.gl/maps/ABh5WvMRZ8JJTMdq6,No,Saco,,LM,JCHB7330,7330,Al Andalus,الاندلس,Al Hamra Dist.,حي الحمراء,23212,3297,"7330 Al Andalus, Al Hamra Dist., Jeddah, 23212 - 3297",1,1,,Order #3,Completed 
278,Western,Makkah,الغربية,منطقة مكة المكرمة,Jeddah,جدة,Main,PSJD1284,,226156,1203,,As Safa Parcel Station - Jeddah - Saco,محطة طرود الصفا - جدة - ساكو,21.5636662,39.2048,https://goo.gl/maps/zhFqdLKZjDZZodxs7,No,Saco,,LM,JDSB2554,2554,Prince Mohammed Bin Abdulaziz,الامير محمد بن عبدالعزيز,As Safa Dist.,حي الصفا,23451,6115,"2554 Prince Mohammed Bin Abdulaziz, As Safa Dist., Jeddah, 23451 - 6115",1,1,,Order #3,Completed 
279,Western,Makkah,الغربية,منطقة مكة المكرمة,Jeddah,جدة,Main,PSJD1285,,226157,1204,,Al Muhammadiyah Parcel Station - Jeddah - Saco,محطة طرود المحمدية - جدة - ساكو,21.6615254,39.122005,https://goo.gl/maps/ZzDaEtsn8VSSi78R6,No,Saco,,LM,JEMA8136,8136,Prince Sultan,الامير سلطان,Al Muhammadiyah Dist.,حي المحمدية,23618,4482,"8136 Prince Sultan, Al Muhammadiyah Dist., Jeddah, 23618 - 4482",1,1,,Order #3,Completed 
280,Western,Madinah,الغربية,منطقة المدينة المنورة,Madinah,المدينة المنورة,Remote,PSMD1286,,226158,1205,,Al Hadiqah Parcel Station - Madinah - Saco,محطة طرود الحديقة - المدينة المنورة - ساكو,24.412336,39.619891,https://goo.gl/maps/by8bt9dQtvz2CJXf9,No,Saco,,LM,DMUA7868,7868,,,Al Hadiqah Dist.,حي الحديقة,42383,4323,Address Incomplete,1,1,,Order #3,Completed 
281,Western,Makkah,الغربية,منطقة مكة المكرمة,Jeddah,جدة,Main,PSJD1287,,226159,1207,,Az Zahra Parcel Station - Jeddah - Saco,محطة طرود الزهراء - جدة - ساكو,21.5821984,39.129933,https://goo.gl/maps/XgNXLGUMjDEtMu597,No,Saco,,LM,JEZA7100,7100,Ahmad Al Attas,احمد العطاس,Az Zahra Dist.,حي الزهراء,23425,2540,"7100 Ahmad Al Attas, Az Zahra Dist., Jeddah, 23425 - 2540",1,1,,Order #3,Completed 
282,Western,Makkah,الغربية,منطقة مكة المكرمة,At Taif,الطائف,Remote,PSTA1288,,226160,1208,,Al Jal  Parcel Station - At Taif - Saco,محطة طرود الجال - الطائف - ساكو,21.2801528,40.445958,https://goo.gl/maps/CYDf44Ka6RkeTkET9,No,Saco,,LM,TADB5270,5270,King Khalid Rd,طريق الملك خالد,Al Jal  Dist.,حي الجال,26523,6749,"5270 King Khalid Rd, Al Jal  Dist., At Taif, 26523 - 6749",1,1,,Order #3,Completed 
283,Western,Makkah,الغربية,منطقة مكة المكرمة,Jeddah,جدة,Main,PSJD1289,,226161,1209,,Ath Thaghr Parcel Station - Jeddah - Saco,محطة طرود الثغر - جدة - ساكو,21.4822493,39.23731,https://goo.gl/maps/TP37RVXF4AGmzYFS9?coh=178572&entry=tt,No,Saco,,LM,JIJB5135,5135,Abdullah Sulayman,عبدالله سليمان,Ath Thaghr Dist.,حي الثغر,22338,7258,"5135 Abdullah Sulayman, Ath Thaghr Dist., Jeddah, 22338 - 7258",1,1,,Order #3,Completed 
284,Western,Madinah,الغربية,منطقة المدينة المنورة,Yanbu,ينبع,Remote,PSYN1290,,226162,1210,,ALBANDER Parcel Station - Yanbu - Saco,محطة طرود البندر - ينبع - ساكو,24.1076626,38.026546,https://goo.gl/maps/pqqoTe7jVGV144yy5?coh=178572&entry=tt,No,Saco,,LM,,,,,ALBANDER,حي البندر,,,Address Incomplete,1,1,,Order #3,Completed 
285,Western,Makkah,الغربية,منطقة مكة المكرمة,Makkah,مكة المكرمة,Remote,PSMK1291,,226163,1211,,Al Awali Parcel Station - Makkah - Saco,محطة طرود العوالي - مكة المكرمة - ساكو,21.3616173,39.891932,https://goo.gl/maps/aBiJSLZMUURdLU3h6?coh=178572&entry=tt,No,Saco,,LM,MDAA3861,3861,Al Taif Rd,طريق الطائف,Al Awali Dist.,حي العوالي,24372,8750,"3861 Al Taif Rd, Al Awali Dist., Makkah, 24372 - 8750",1,1,,Order #3,Delayed
286,Eastern,Eastern Province,الشرقية,المنطقة الشرقية,Dammam,الدمام,Main,PSDM1292,,226164,1303,,Al Qadisiyah Parcel Station - Dammam - Saco,محطة طرود القادسية - الدمام - ساكو,26.4151529,50.075956,https://goo.gl/maps/QckQUyVY6WyTNcoPA,No,Saco,,LM,EDJB4552,4552,King Fahad Bin Abdul Aziz Rd,طريق الملك فهد بن عبد العزيز,Al Qadisiyah Dist.,حي القادسية,32247,6541,"4552 King Fahad Bin Abdul Aziz Rd, Al Qadisiyah Dist., Dammam, 32247 - 6541",1,1,,Order #3,Completed 
287,Eastern,Eastern Province,الشرقية,المنطقة الشرقية,Al Hafuf,الهفوف,Remote,PSHU1293,,226165,1305,,As Saifa Parcel Station - Al Hafuf - Saco,محطة طرود السيفة - الهفوف - ساكو,25.3868968,49.579751,https://goo.gl/maps/SD3RVKqqoUxHmMPq7,No,Saco,,LM,FHDH8894,8894,Prince Talal Bin Abdulaziz Street ,طريق الامير طلال بن عبدالعزيز,As Saifa Dist.,حي السيفة,36361,3885,"8894 Prince Talal Bin Abdulaziz Street , As Saifa Dist., Al Hafuf, 36361 - 3885",1,1,,Order #3,Completed 
288,Eastern,Eastern Province,الشرقية,المنطقة الشرقية,Dhahran,الظهران,Main,PSDH1294,,226166,1306,,Ad Dawhah Parcel Station - Dhahran - Saco,محطة طرود الدوحة - الظهران - ساكو,26.3052076,50.166902,https://goo.gl/maps/kU1g8ie28sXa29iDA,No,Saco,,LM,EKMA6864,6864,King Saud,طريق الملك سعود,Ad Dawhah Al Janubiyah Dist.,حي الدوحة الجنوبية,34457,3587,"6864 King Saud, Ad Dawhah Al Janubiyah Dist., Dhahran, 34457 - 3587",1,1,,Order #3,Completed 
289,Eastern,Eastern Province,الشرقية,المنطقة الشرقية,Dammam,الدمام,Main,PSDM1295,,226167,1308,,Al Faisaliyah Parcel Station - Dammam - Saco,محطة طرود الفيصلية - الدمام - ساكو,26.3877257,50.074674,https://goo.gl/maps/p5yoHWP1fvbAmmmv6,No,Saco,,LM,EDSA3957,3957,Hayyan Bin Mundhir,حيان بن المنذر,Al Faisaliyah Dist.,حي الفيصلية,32271,8673,"3957 Hayyan Bin Mundhir, Al Faisaliyah Dist., Dammam, 32271 - 8673",1,1,,Order #3,Completed 
290,Eastern,Eastern Province,الشرقية,المنطقة الشرقية,Al Jubail,الجبيل,Remote,PSJU1296,,226168,1309,, Parcel Station - Al Jubail - Saco,محطة طرود  - الجبيل - ساكو,27.087372,49.546377,https://goo.gl/maps/iZwMD4mPJTZa5DsX7,No,Saco,,LM,ETAD6697,6697,,,,,35812,4492,Address Incomplete,1,1,,Order #3,Completed 
291,Eastern,Eastern Province,الشرقية,المنطقة الشرقية,Dammam,الدمام,Main,PSDM1297,,226169,1310,,Al Aziziyah Parcel Station - Dammam - Saco,محطة طرود العزيزية - الدمام - ساكو,26.4614854,50.064926,https://maps.app.goo.gl/74UDU7SuakV5mKhe9,No,Saco,,LM,EMDA8340,8340,22A,22ا,Al Aziziyah Dist.,حي العزيزية,32424,2419,"8340 22A, Al Aziziyah Dist., Dammam, 32424 - 2419",1,1,,Order #3,Completed 
292,Eastern,Eastern Province,الشرقية,المنطقة الشرقية,Al Hafuf,الهفوف,Remote,PSHU1298,,226170,1311,,Al Wahah Parcel Station - Al Hafuf - Saco,محطة طرود الواحة - الهفوف - ساكو,25.3221052,49.615678,https://goo.gl/maps/6Gm3YtkvUZEyzZp1A?coh=178572&entry=tt,No,Saco,,LM,FHDG8175,8175,King Abudllah Road,طريق الملك عبدالله,Al Wahah Dist.,حي الواحة,36363,3895,"8175 King Abudllah Road, Al Wahah Dist., Al Hafuf, 36363 - 3895",1,1,,Order #3,Not Started
293,Northern,Hail,الشمالية,منطقة حائل,HAIL,حائل,Remote,PSHA1299,,226171,1403,,Al Matar Parcel Station - HAIL - Saco,محطة طرود المطار - حائل - ساكو,27.484718,41.692042,https://maps.app.goo.gl/PLNxzQh3S3PkMKF5A,No,Saco,,LM,HADC6390,6390,,,Al Matar Dist.,حي المطار,55421,4601,Address Incomplete,1,1,,Order #3,Completed 
294,Northern,Jawf,الشمالية,منطقة الجوف,Sakaka,سكاكا,Remote,PSSK1300,,226172,1404,,Al Matr Parcel Station - Sakaka - Saco,محطة طرود المطر - سكاكا - ساكو,29.9800397,40.214636,https://goo.gl/maps/k6UZJz9xtPvYnGEs7,No,Saco,,LM,WRJE4537,4537,Alarab St,شارع العرب,Al Matr Dist.,حي المطر,72341,9615,"4537 Alarab St, Al Matr Dist., Sakaka, 72341 - 9615",1,1,,Order #3,Completed 
295,Southern,Jazan,الجنوبية,المنطقة الجنوبية,Jazan,جازان,Remote,PSJZ1301,,226173,1503,,Al Shati Parcel Station - Jazan - Saco,محطة طرود الشاطئ - جازان - ساكو,16.9065172,42.549794,https://goo.gl/maps/JxiPFZiFpUNUi1Bq8,No,Saco,,LM,,,,,Al Shati District,حي الشاطئ,,,Address Incomplete,1,1,,Order #3,Completed 
296,Southern,Aseer,الجنوبية,المنطقة الجنوبية,Khamis Mushait,خميس مشيط,Remote,PSKM1302,,226174,1504,,Al-Zarafa Parcel Station - Khamis Mushait - Saco,محطة طرود الظرفة - خميس مشيط - ساكو,18.2999006,42.689621,https://goo.gl/maps/UtGjsikd41BT3qE9A?coh=178572&entry=tt,No,Saco,,LM,,,,,Al-Zarafa District,حي الظرفة,,,Address Incomplete,1,1,,Order #3,Completed 
297,Central,Riyadh,الوسطى,منطقة الرياض,Riyadh,الرياض,Main,PSRU1303,,226175,10004,,Hiteen Parcel Station - Riyadh - Panda,محطة طرود حطين - الرياض - بنده,24.7528259,46.585078,https://goo.gl/maps/ixFNH8u5sg2ZLB6w5,No,Panda,,LM,RRHA7807,7807,King Khalid Rd,طريق الملك خالد,Hiteen Dist.,حي حطين,13514,2305,"7807 King Khalid Rd, Hiteen Dist., Riyadh, 13514 - 2305",1,1,,Order #3,Completed 
298,Central,Riyadh,الوسطى,منطقة الرياض,Riyadh,الرياض,Main,PSRU1304,,226176,10007,,Al Hazm Parcel Station - Riyadh - Panda,محطة طرود الحزم - الرياض - بنده,24.5363941,46.656603,https://goo.gl/maps/4LftcxMRV8ske9xu5,No,Panda,,LM,RKHB6386,6386,Dirab Rd,طريق ديراب,Al Hazm Dist.,حي الحزم,14964,4380,"6386 Dirab Rd, Al Hazm Dist., Riyadh, 14964 - 4380",1,1,,Order #3,Completed 
299,Central,Riyadh,الوسطى,منطقة الرياض,Riyadh,الرياض,Main,PSRU1305,,226177,10008,,Al Rayan Parcel Station - Riyadh - Panda,محطة طرود الريان - الرياض - بنده,24.7028585,46.770928,https://goo.gl/maps/VoRZLKgprWviWCdw7,No,Panda,,LM,RQRA6913,6913,Eastern Ring Rd,الطريق الدائري الشرقي,Al Rayan Dist.,حي الريان,14213,2960,"6913 Eastern Ring Rd, Al Rayan Dist., Riyadh, 14213 - 2960",1,1,,Order #3,Completed 
300,Central,Riyadh,الوسطى,منطقة الرياض,Riyadh,الرياض,Main,PSRU1306,,226178,4,,Al Murabba Parcel Station - Riyadh - Panda,محطة طرود المربع - الرياض - بنده,24.6653196,46.711068,https://goo.gl/maps/t2VofcKA6FG2,No,Panda,,LM,RCRB2343,2343,Prince Faisal Bin  Turki Bin  Abdul Aziz,الامير فيصل بن تركي بن عبدالعزيز,Al Murabba Dist.,حي المربع,12628,7344,"2343 Prince Faisal Bin  Turki Bin  Abdul Aziz, Al Murabba Dist., Riyadh, 12628 - 7344",1,1,,Order #3,Not Started
301,Central,Riyadh,الوسطى,منطقة الرياض,Riyadh,الرياض,Main,PSRU1307,,226179,119,,Ishbiliyah Parcel Station - Riyadh - Panda,محطة طرود اشبيلية - الرياض - بنده,24.807866,46.806918,https://goo.gl/maps/V9ud4jKSMtQ2,No,Panda,,LM,RFBB4293,4293,Al Imam Abdullah Bin  Saud Bin  Abdulaziz Rd,طريق الامام عبدالله بن سعود بن عبدالعزيز,Ishbiliyah Dist.,حي اشبيلية,13226,8949,"4293 Al Imam Abdullah Bin  Saud Bin  Abdulaziz Rd, Ishbiliyah Dist., Riyadh, 13226 - 8949",1,1,,Order #3,Delayed
302,Central,Riyadh,الوسطى,منطقة الرياض,Riyadh,الرياض,Main,PSRU1308,,226180,10029,,West Umm Al Hamam Parcel Station - Riyadh - Panda,محطة طرود ام الحمام الغربي - الرياض - بنده,24.7026534,46.651813,https://goo.gl/maps/a5N4kHM8sDmhbDfL7,No,Panda,,LM,RGUA4207,4207,Al Urubah Rd,طريق العروبة,West Umm Al Hamam Dist.,حي ام الحمام الغربي,12326,9097,"4207 Al Urubah Rd, West Umm Al Hamam Dist., Riyadh, 12326 - 9097",1,1,,Order #3,Not Started
303,Eastern,Eastern Province,الشرقية,المنطقة الشرقية,Al Khobar,الخبر,Main,PSKH1309,,226181,P0004,,Al Yarmok Parcel Station - Al Khobar - Al Dawaa,محطة طرود اليرموك - الخبر - الدواء,26.315028,50.217111,"https://www.google.com/maps/?q=26.315028, 50.217111",No,Al Dawaa,,LM,EKDC6653,6653,King Faisal Rd,طريق الملك فيصل,Al Yarmok Dist.,حي اليرموك,34423,3719,"6653 King Faisal Rd, Al Yarmok Dist., Al Khobar, 34423 - 3719",1,1,,Order #3,Completed 
304,Eastern,Eastern Province,الشرقية,المنطقة الشرقية,Al Khobar,الخبر,Main,PSKH1310,,226182,P0038,,Ar Rakah Parcel Station - Al Khobar - Al Dawaa,محطة طرود الراكة - الخبر - الدواء,26.361728,50.196504,"https://www.google.com/maps/?q=26.361728, 50.196504",No,Al Dawaa,,LM,EADB3897,3897,Khalid Bin  Al Walid,خالد بن الوليد,Ar Rakah Al Janubiyah Dist.,حي الراكة الجنوبية,34226,7590,"3897 Khalid Bin  Al Walid, Ar Rakah Al Janubiyah Dist., Al Khobar, 34226 - 7590",1,1,,Order #3,Completed 
305,Eastern,Eastern Province,الشرقية,المنطقة الشرقية,Al Khobar,الخبر,Main,PSKH1311,,226183,P0060,,Al Aqrabiyah Parcel Station - Al Khobar - Al Dawaa,محطة طرود العقربية - الخبر - الدواء,26.293119,50.199265,"https://www.google.com/maps/?q=26.293119, 50.199265",No,Al Dawaa,,LM,EKJB7132,7132,Riyadh,الرياض,Al Aqrabiyah Dist.,حي العقربية,34446,3806,"7132 Riyadh, Al Aqrabiyah Dist., Al Khobar, 34446 - 3806",1,1,,Order #3,Completed 
306,Eastern,Eastern Province,الشرقية,المنطقة الشرقية,Al Hafuf,الهفوف,Remote,PSHU1312,,226184,P0072,,Al murqab district Parcel Station - Al Hafuf - Al Dawaa,محطة طرود المرقاب - الهفوف - الدواء,25.348836,49.579974,"https://www.google.com/maps/?q=25.348836, 49.579974",No,Al Dawaa,,LM,,,,,Al murqab district,حي المرقاب,,,Address Incomplete,1,1,,Order #3,Not Started
307,Eastern,Eastern Province,الشرقية,المنطقة الشرقية,Dammam,الدمام,Main,PSDM1313,,226185,P0112,,Ghirnatah Parcel Station - Dammam - Al Dawaa,محطة طرود غرناطة - الدمام - الدواء,26.419193,50.075231,"https://www.google.com/maps/?q=26.419193, 50.075231",No,Al Dawaa,,LM,EDJA6991,6991,Al Amir Naif Bin  Abdul Aziz Rd,طريق الامير نايف بن عبد العزيز,Ghirnatah Dist.,حي غرناطة,32245,4484,"6991 Al Amir Naif Bin  Abdul Aziz Rd, Ghirnatah Dist., Dammam, 32245 - 4484",1,1,,Order #3,Completed 
308,Eastern,Eastern Province,الشرقية,المنطقة الشرقية,Al Hafuf,الهفوف,Remote,PSHU1314,,226186,P0144,,Al Salmaniyah 1st Parcel Station - Al Hafuf - Al Dawaa,محطة طرود السلمانية الأول - الهفوف - الدواء,25.364906,49.54674,"https://www.google.com/maps/?q=25.364906, 49.54674",No,Al Dawaa,,LM,FHGI7023,7023,King Abdullah Rd,طريق الملك عبدالل,Al Salmaniyah 1st Dist.,حي السلمانية الأول,36421,3374,"7023 King Abdullah Rd, Al Salmaniyah 1st Dist., Al Hafuf, 36421 - 3374",1,1,,Order #3,Not Started
309,Eastern,Eastern Province,الشرقية,المنطقة الشرقية,Al Hafuf,الهفوف,Remote,PSHU1315,,226187,P0156,,Ar Rashidyah 2nd Parcel Station - Al Hafuf - Al Dawaa,محطة طرود الراشدية الثاني - الهفوف - الدواء,25.446272,49.582614,"https://www.google.com/maps/?q=25.446272, 49.582614",No,Al Dawaa,,LM,FMAC3499,3499,Al Madinah Al Munawwarah,المدينة المنورة,Ar Rashidyah 2nd Dist.,حي الراشدية الثاني,36342,8902,"3499 Al Madinah Al Munawwarah, Ar Rashidyah 2nd Dist., Al Hafuf, 36342 - 8902",1,1,,Order #3,Not Started
310,Northern,Hail,الشمالية,منطقة حائل,Hail,حائل,Remote,PSHA1316,,226188,P0201,,An Naqrah Parcel Station - Hail - Al Dawaa,محطة طرود النقرة - حائل - الدواء,27.451099,41.62621,"https://www.google.com/maps/?q=27.451099, 41.62621",No,Al Dawaa,,LM,,,,,An Naqrah,حي النقرة,,,Address Incomplete,1,1,,Order #3,Completed 
311,Northern,Tabuk,الشمالية,منطقة تبوك,Tabuk,تبوك,Remote,PSTB1317,,226189,P0202,,Al Hamra Parcel Station 2 - Tabuk - Al Dawaa,محطة طرود الحمراء 2 - تبوك - الدواء,28.353492,36.57265,"https://www.google.com/maps/?q=28.353492, 36.57265",No,Al Dawaa,,LM,KXAA8305,8305,King Fahd Rd,طريق الملك فهد,Al Hamra Dist.,حي الحمراء,47512,3393,"8305 King Fahd Rd, Al Hamra Dist., Tabuk, 47512 - 3393",1,1,,Order #3,Completed 
312,Eastern,Eastern Province,الشرقية,المنطقة الشرقية,Dammam,الدمام,Main,PSDM1318,,226190,P0237,,Al Mazruiyah Parcel Station - Dammam - Al Dawaa,محطة طرود المزروعية - الدمام - الدواء,26.450647,50.119178,"https://www.google.com/maps/?q=26.450647, 50.119178",No,Al Dawaa,,LM,EMAA7961,7961,Al Amir Muhammed Bin  Fahd Rd,طريق الامير محمد بن فهد,Al Mazruiyah Dist.,حي المزروعية,32414,4273,"7961 Al Amir Muhammed Bin  Fahd Rd, Al Mazruiyah Dist., Dammam, 32414 - 4273",1,1,,Order #3,Completed 
313,Central,Riyadh,الوسطى,منطقة الرياض,Riyadh,الرياض,Main,PSRU1319,,226191,P0251,,Al Malaz Parcel Station - Riyadh - Al Dawaa,محطة طرود الملز - الرياض - الدواء,24.662111,46.72925,"https://www.google.com/maps/?q=24.662111, 46.72925",No,Al Dawaa,,LM,REMD3431,3431,Al Jamiah,الجامعة,Al Malaz Dist.,حي الملز,12642,9553,"3431 Al Jamiah, Al Malaz Dist., Riyadh, 12642 - 9553",1,1,,Order #3,Completed 
314,Central,Riyadh,الوسطى,منطقة الرياض,Riyadh,الرياض,Main,PSRU1320,,226192,P0253,,Al Saadah Parcel Station 1 - Riyadh - Al Dawaa,محطة طرود السعادة 1 - الرياض - الدواء,24.6856,46.843423,"https://www.google.com/maps/?q=24.6856, 46.843423",No,Al Dawaa,,LM,RQAA4696,4696,Abu Ubaydah Amir Bin  Al Jarrah,طريق ابو عبيدة عامر بن الجراح,Al Saadah Dist.,حي السعادة,14256,6920,"4696 Abu Ubaydah Amir Bin  Al Jarrah, Al Saadah Dist., Riyadh, 14256 - 6920",1,1,,Order #3,Not Started
315,Central,Riyadh,الوسطى,منطقة الرياض,Riyadh,الرياض,Main,PSRU1321,,226193,P0260,,Al Taawun Parcel Station - Riyadh - Al Dawaa,محطة طرود التعاون - الرياض - الدواء,24.768972,46.691306,"https://www.google.com/maps/?q=24.768972, 46.691306",No,Al Dawaa,,LM,RHTA6893,6893,Abi Bakr As Siddiq,ابي بكر الصديق,Al Taawun Dist.,حي التعاون,12475,2494,"6893 Abi Bakr As Siddiq, Al Taawun Dist., Riyadh, 12475 - 2494",1,1,,Order #3,Completed 
316,Eastern,Eastern Province,الشرقية,المنطقة الشرقية,Ras Tannurah,راس تنورة,Remote,PSRT1322,,226194,P0273,,Al Montazah Parcel Station - Ras Tannurah - Al Dawaa,محطة طرود المنتزة - راس تنورة - الدواء,26.702637,50.054428,"https://www.google.com/maps/?q=26.702637, 50.054428",No,Al Dawaa,,LM,ERAA7416,7416,King Abdulaziz Rd,طريق الملك عبدالعزيز,Al Montazah Dist.,حي المنتزة,32819,5171,"7416 King Abdulaziz Rd, Al Montazah Dist., Ras Tannurah, 32819 - 5171",1,1,,Order #3,Completed 
317,Central,Riyadh,الوسطى,منطقة الرياض,Riyadh,الرياض,Main,PSRU1323,,226195,P0291,,Al Rimal Parcel Station - Riyadh - Al Dawaa,محطة طرود الرمال - الرياض - الدواء,24.850046,46.824146,"https://www.google.com/maps/?q=24.850046, 46.824146",No,Al Dawaa,,LM,RURB7739,7739,Ali Al Bijadi Rd,طريق علي البجادي,Al Rimal Dist.,حي الرمال,13265,2287,"7739 Ali Al Bijadi Rd, Al Rimal Dist., Riyadh, 13265 - 2287",1,1,,Order #3,Not Started
318,Central,Riyadh,الوسطى,منطقة الرياض,Riyadh,الرياض,Main,PSRU1324,,226196,P0292,,Al Shifa Parcel Station - Riyadh - Al Dawaa,محطة طرود الشفا - الرياض - الدواء,24.571243,46.699035,"https://www.google.com/maps/?q=24.571243, 46.699035",No,Al Dawaa,,LM,RLFA8198,8198,Al Tirmidhi,الترمذي,Al Shifa Dist.,حي الشفا,14713,3737,"8198 Al Tirmidhi, Al Shifa Dist., Riyadh, 14713 - 3737",1,1,,Order #3,Completed 
319,Eastern,Eastern Province,الشرقية,المنطقة الشرقية,Al Khobar,الخبر,Main,PSKH1325,,226197,P0317,,Al Buhayrah Parcel Station - Al Khobar - Al Dawaa,محطة طرود البحيرة - الخبر - الدواء,26.190363,50.187876,"https://www.google.com/maps/?q=26.190363, 50.187876",No,Al Dawaa,,LM,ECDB7826,7826,King Khalid,الملك خالد,Al Buhayrah Dist.,حي البحيرة,34722,3867,"7826 King Khalid, Al Buhayrah Dist., Al Khobar, 34722 - 3867",1,1,,Order #3,Completed 
320,Eastern,Eastern Province,الشرقية,المنطقة الشرقية,Dammam,الدمام,Main,PSDM1326,,226198,P0318,,Al Manar Parcel Station 2 - Dammam - Al Dawaa,محطة طرود المنار 2 - الدمام - الدواء,26.392835,50.046524,"https://www.google.com/maps/?q=26.392835, 50.046524",No,Al Dawaa,,LM,EDSA9232,9232,Abu Bakr Al Siddiq,ابو بكر الصديق,Al Manar Dist.,حي المنار,32274,4487,"9232 Abu Bakr Al Siddiq, Al Manar Dist., Dammam, 32274 - 4487",1,1,,Order #3,Completed 
321,Eastern,Eastern Province,الشرقية,المنطقة الشرقية,Dammam,الدمام,Main,PSDM1327,,226199,P0347,,Al Muhammadiyah Parcel Station - Dammam - Al Dawaa,محطة طرود المحمدية - الدمام - الدواء,26.458617,50.051095,"https://www.google.com/maps/?q=26.458617, 50.051095",No,Al Dawaa,,LM,EMGA8311,8311,Umar Bin  Abdul Aziz,عمر بن عبد العزيز,Al Muhammadiyah Dist.,حي المحمدية,32433,4128,"8311 Umar Bin  Abdul Aziz, Al Muhammadiyah Dist., Dammam, 32433 - 4128",1,1,,Order #3,Completed 
322,Eastern,Eastern Province,الشرقية,المنطقة الشرقية,Ras Tannurah,راس تنورة,Remote,PSRT1328,,226200,P0368,,Qurtubah Parcel Station - Ras Tannurah - Al Dawaa,محطة طرود قرطبة - راس تنورة - الدواء,26.710336,50.044358,"https://www.google.com/maps/?q=26.710336, 50.044358",No,Al Dawaa,,LM,ERJA4626,4626,Al Amir Nayif Bin  Abdul Aziz,شارع الامير نايف بن عبدالعزيز,Qurtubah Dist.,حي قرطبة,32848,7329,"4626 Al Amir Nayif Bin  Abdul Aziz, Qurtubah Dist., Ras Tannurah, 32848 - 7329",1,1,,Order #3,Completed 
323,Eastern,Eastern Province,الشرقية,المنطقة الشرقية,Dammam,الدمام,Main,PSDM1329,,226201,P0371,,Badr Parcel Station - Dammam - Al Dawaa,محطة طرود بدر - الدمام - الدواء,26.418877,50.020584,"https://www.google.com/maps/?q=26.418877, 50.020584",No,Al Dawaa,,LM,EDPD2833,2833,Al Malek Saud,الملك سعود,Badr Dist.,حي بدر,32266,7972,"2833 Al Malek Saud, Badr Dist., Dammam, 32266 - 7972",1,1,,Order #3,Completed 
324,Eastern,Eastern Province,الشرقية,المنطقة الشرقية,Al Hafuf,الهفوف,Remote,PSHU1330,,226202,P0386,,Al Salmaniyah 4th Parcel Station - Al Hafuf - Al Dawaa,محطة طرود السلمانية الرابع - الهفوف - الدواء,25.354927,49.539573,"https://www.google.com/maps/?q=25.354927, 49.539573",No,Al Dawaa,,LM,FHGK4367,4367,Al Riyadh,الرياض,Al Salmaniyah 4th Dist.,حي السلمانية الرابع,36444,9446,"4367 Al Riyadh, Al Salmaniyah 4th Dist., Al Hafuf, 36444 - 9446",1,1,,Order #3,Not Started
325,Eastern,Eastern Province,الشرقية,المنطقة الشرقية,Al Khafji,الخفجي,Remote,PSKF1331,,226203,P0392,,King Fahd Parcel Station - Al Khafji - Al Dawaa,محطة طرود الملك فهد - الخفجي - الدواء,28.405478,48.467079,"https://www.google.com/maps/?q=28.405478, 48.467079",No,Al Dawaa,,LM,CAMB8249,8249,Ommar Bin  Al Khatab St,شارع عمر بن الخطاب,King Fahd Dist.,حي الملك فهد,39255,2652,"8249 Ommar Bin  Al Khatab St, King Fahd Dist., Al Khafji, 39255 - 2652",1,1,,Order #3,Completed 
326,Northern,Tabuk,الشمالية,منطقة تبوك,Tabuk,تبوك,Remote,PSTB1332,,226204,P0410,,Faisaliyah Parcel Station - Tabuk - Al Dawaa,محطة طرود الفيصلية - تبوك - الدواء,28.376188,36.583111,"https://www.google.com/maps/?q=28.376188, 36.583111",No,Al Dawaa,,LM,KGAC6230,6230,Al Imam Turki Ibn Abdullah Rd,طريق الامام تركي بن عبدالله,Faisaliyah South Dist.,حي الفيصلية الجنوبية,47911,3809,"6230 Al Imam Turki Ibn Abdullah Rd, Faisaliyah South Dist., Tabuk, 47911 - 3809",1,1,,Order #3,Completed 
327,Northern,Hail,الشمالية,منطقة حائل,Hail,حائل,Remote,PSHA1333,,226205,P0433,,Al Matar Parcel Station - Hail - Al Dawaa,محطة طرود المطار - حائل - الدواء,27.492707,41.680495,"https://www.google.com/maps/?q=27.492707, 41.680495",No,Al Dawaa,,LM,HADC7325,7325,King Fahd Bin  Abdul Aziz Rd,طريق الملك فهد بن عبدالعزيز,Al Matar Dist.,حي المطار,55421,3466,"7325 King Fahd Bin  Abdul Aziz Rd, Al Matar Dist., Hail, 55421 - 3466",1,1,,Order #3,Completed 
328,Central,Riyadh,الوسطى,منطقة الرياض,Hautat Sudair ,حوطة سدير,Remote,PSSD1334,,226206,P0434,,Al Shifa Parcel Station - Hautat Sudair  - Al Dawaa,محطة طرود الشفا - حوطة سدير - الدواء,25.594783,45.617603,"https://www.google.com/maps/?q=25.594783, 45.617603",No,Al Dawaa,,LM,,,,,Al Shifa Dist.,حي الشفا,,,Address Incomplete,1,1,,Order #3,Not Started
329,Northern,SAKAKA,الشمالية,المنطقة الشمالية,Sakaka,سكاكا,Remote,PSSK1335,,226207,P0450,,Al Muhammadiyah Parcel Station - Sakaka - Al Dawaa,محطة طرود المحمدية - سكاكا - الدواء,29.935548,40.190072,https://maps.app.goo.gl/pLjDwNq9yskS4N2eA,No,Al Dawaa,,LM,WRJB6789,6789,Al Imam Ibn Saud,الامام بن سعود,Al Muhammadiyah Dist.,حي المحمدية,72345,3956,"6789 Al Imam Ibn Saud, Al Muhammadiyah Dist., Sakaka, 72345 - 3956",1,1,,Order #3,Completed 
330,Northern,ARAR,الشمالية,المنطقة الشمالية,Arar,عرعر,Remote,PSAR1336,,226208,P0475,,Salhiya Parcel Station - Arar - Al Dawaa,محطة طرود الصالحية - عرعر - الدواء,30.983507,41.054468,"https://www.google.com/maps/?q=30.983507, 41.054468",No,Al Dawaa,,LM,,,,,Salhiya District,حي الصالحية,,,Address Incomplete,1,1,,Order #3,Completed 
331,Central,Riyadh,الوسطى,منطقة الرياض,Al Artawiyah,الارطاوية,Remote,PSAT1337,,226209,P0506,,Al Masif Parcel Station - Al Artawiyah - Al Dawaa,محطة طرود المصيف - الارطاوية - الدواء,26.509032,45.350248,"https://www.google.com/maps/?q=26.509032, 45.350248",No,Al Dawaa,,LM,LEGA6987,6987,,,Al Masif Dist.,حي المصيف,15739,2509,Address Incomplete,1,1,,Order #3,Not Started
332,Central,Riyadh,الوسطى,منطقة الرياض,Alquwayiyah,القويعية,Remote,PSQW1338,,226210,P0507,,Al wahah Parcel Station - Alquwayiyah - Al Dawaa,محطة طرود الواحة - القويعية - الدواء,24.050023,45.261652,"https://www.google.com/maps/?q=24.050023, 45.261652",No,Al Dawaa,,LM,,,,,Al wahah Dist,حي الواحة,,,Address Incomplete,1,1,,Order #3,Completed 
333,Central,Riyadh,الوسطى,منطقة الرياض,Shaqra,شقراء,Remote,PSSQ1339,,226211,P0510,,Al Qarah Parcel Station - Shaqra - Al Dawaa,محطة طرود القارة - شقراء - الدواء,25.224984,45.255971,"https://www.google.com/maps/?q=25.224984, 45.255971",No,Al Dawaa,,LM,LSSA3986,3986,King Fahd Rd,طريق الملك فهد,Al Qarah Dist.,حي القارة,15571,6386,"3986 King Fahd Rd, Al Qarah Dist., Shaqra, 15571 - 6386",1,1,,Order #3,Not Started
334,Central,Riyadh,الوسطى,منطقة الرياض,Rumah,رماح,Remote,PSRM1340,,226212,P0518,,Az Zuhur Parcel Station - Rumah - Al Dawaa,محطة طرود الزهور - رماح - الدواء,25.553935,47.162865,"https://www.google.com/maps/?q=25.553935, 47.162865",No,Al Dawaa,,LM,LRMA7782,7782,,,Az Zuhur Dist.,حي الزهور,15855,5217,Address Incomplete,1,1,,Order #3,Not Started
335,Central,Riyadh,الوسطى,منطقة الرياض,Al Kharj,الخرج,Remote,PSKA1341,,226213,P0522,,Al Faisaliyah Parcel Station - Al Kharj - Al Dawaa,محطة طرود الفيصلية - الخرج - الدواء,24.163702,47.350222,"https://www.google.com/maps/?q=24.163702, 47.350222",No,Al Dawaa,,LM,OAJA7399,7399,King Salman Ibn Abdulaziz Rd,طريق الملك سلمان بن عبدالعزيز,Al Faisaliyah Dist.,حي الفيصلية,16441,2852,"7399 King Salman Ibn Abdulaziz Rd, Al Faisaliyah Dist., Al Kharj, 16441 - 2852",1,1,,Order #3,Not Started
336,Central,Riyadh,الوسطى,منطقة الرياض,Riyadh,الرياض,Main,PSRU1342,,226214,P0615,,West Naseem Parcel Station 2 - Riyadh - Al Dawaa,محطة طرود النسيم الغربي 2 - الرياض - الدواء,24.725741,46.821111,"https://www.google.com/maps/?q=24.725741, 46.821111",No,Al Dawaa,,LM,RQNC8505,8505,Saad Bin Abi Waqqas,سعد بن ابي وقاص,West Naseem Dist.,حي النسيم الغربي,14233,2616,"8505 Saad Bin Abi Waqqas, West Naseem Dist., Riyadh, 14233 - 2616",1,1,,Order #3,Not Started
337,Central,Riyadh,الوسطى,منطقة الرياض,Riyadh,الرياض,Main,PSRU1343,,226215,P0630,,Al Munisiyah Parcel Station 2 - Riyadh - Al Dawaa,محطة طرود المونسية 2 - الرياض - الدواء,24.819315,46.774246,"https://www.google.com/maps/?q=24.819315, 46.774246",No,Al Dawaa,,LM,RUMA6455,6455,Al Sahabah,الصحابة,Al Munisiyah Dist.,حي المونسية,13253,2700,"6455 Al Sahabah, Al Munisiyah Dist., Riyadh, 13253 - 2700",1,1,,Order #3,Completed 
338,Central,Riyadh,الوسطى,منطقة الرياض,Riyadh,الرياض,Main,PSRU1344,,226216,P0663,,Al Olaya Parcel Station - Riyadh - Al Dawaa,محطة طرود العليا - الرياض - الدواء,24.690553,46.688827,"https://www.google.com/maps/?q=24.690553, 46.688827",No,Al Dawaa,,LM,RHOB2500,2500,Prince Sultan Bin  Abdulaziz,الامير سلطان بن عبدالعزيز,Al Olaya Dist.,حي العليا,12222,7164,"2500 Prince Sultan Bin  Abdulaziz, Al Olaya Dist., Riyadh, 12222 - 7164",1,1,,Order #3,Completed 
339,Central,Riyadh,الوسطى,منطقة الرياض,Riyadh,الرياض,Main,PSRU1345,,226217,P0665,,Al Sahafah Parcel Station 1 - Riyadh - Al Dawaa,محطة طرود الصحافة 1 - الرياض - الدواء,24.801294,46.647384,"https://www.google.com/maps/?q=24.801294, 46.647384",No,Al Dawaa,,LM,RASA4528,4528,Al Imam Saud Bin Faisal Rd,طريق الامام سعود بن فيصل,Al Sahafah Dist.,حي الصحافة,13321,6854,"4528 Al Imam Saud Bin Faisal Rd, Al Sahafah Dist., Riyadh, 13321 - 6854",1,1,,Order #3,Completed 
340,Central,Riyadh,الوسطى,منطقة الرياض,Riyadh,الرياض,Main,PSRU1346,,226218,P0682,,Al Saadah Parcel Station 2 - Riyadh - Al Dawaa,محطة طرود السعادة 2 - الرياض - الدواء,24.695757,46.839588,"https://www.google.com/maps/?q=24.695757, 46.839588",No,Al Dawaa,,LM,RQAA6117,6117,Shibh Al Jazirah,شبه الجزيرة,Al Saadah Dist.,حي السعادة,14257,2558,"6117 Shibh Al Jazirah, Al Saadah Dist., Riyadh, 14257 - 2558",1,1,,Order #3,Not Started
341,Eastern,Eastern Province,الشرقية,المنطقة الشرقية,Al Jafr,الجفر,Remote,PSJF1347,,226219,P0702,,Al Jishah Parcel Station - Al Jafr - Al Dawaa,محطة طرود بلدة الجشة - الجفر - الدواء,25.384628,49.744015,"https://www.google.com/maps/?q=25.384628, 49.744015",No,Al Dawaa,,LM,FJSB6346,6346,,,Al Jishah,بلدة الجشة,36285,4018,Address Incomplete,1,1,,Order #3,Not Started
342,Central,Riyadh,الوسطى,منطقة الرياض,Riyadh,الرياض,Main,PSRU1348,,226220,P0875,,Ar Rabie Parcel Station - Riyadh - Al Dawaa,محطة طرود الربيع - الرياض - الدواء,24.799528,46.665083,"https://www.google.com/maps/?q=24.799528, 46.665083",No,Al Dawaa,,LM,RARA3328,3328,Al Qalam,القلم,Ar Rabie Dist.,حي الربيع,13316,7474,"3328 Al Qalam, Ar Rabie Dist., Riyadh, 13316 - 7474",1,1,,Order #3,Completed 
343,Central,Riyadh,الوسطى,منطقة الرياض,Riyadh,الرياض,Main,PSRU1349,,226221,P0876,,Al Yarmuk Parcel Station 2 - Riyadh - Al Dawaa,محطة طرود اليرموك 2 - الرياض - الدواء,24.811614,46.789231,"https://www.google.com/maps/?q=24.811614, 46.789231",No,Al Dawaa,,LM,RFYA3349,3349,Abi Jaafar Al Mansour,ابي جعفر المنصور,Al Yarmuk Dist.,حي اليرموك,13251,7407,"3349 Abi Jaafar Al Mansour, Al Yarmuk Dist., Riyadh, 13251 - 7407",1,1,,Order #3,Completed 
344,Central,Riyadh,الوسطى,منطقة الرياض,Riyadh,الرياض,Main,PSRU1350,,226222,P0896,,Al Mursalat Parcel Station - Riyadh - Al Dawaa,محطة طرود المرسلات - الرياض - الدواء,24.740399,46.69279,"https://www.google.com/maps/?q=24.740399, 46.69279",No,Al Dawaa,,LM,RHMA3598,3598,King Abdullah,طريق الملك عبد الل,Al Mursalat Dist.,حي المرسلات,12461,6413,"3598 King Abdullah, Al Mursalat Dist., Riyadh, 12461 - 6413",1,1,,Order #3,Completed 
345,Central,Riyadh,الوسطى,منطقة الرياض,Riyadh,الرياض,Main,PSRU1351,,226223,P1111,,Ishbiliyah Parcel Station - Riyadh - Al Dawaa,محطة طرود اشبيلية - الرياض - الدواء,24.798361,46.784028,"https://www.google.com/maps/?q=24.798361, 46.784028",No,Al Dawaa,,LM,RFBB3783,3783,Al Imam Abdullah Bin  Saud Bin  Abdulaziz Rd,طريق الامام عبدالله بن سعود بن عبدالعزيز,Ishbiliyah Dist.,حي اشبيلية,13225,8438,"3783 Al Imam Abdullah Bin  Saud Bin  Abdulaziz Rd, Ishbiliyah Dist., Riyadh, 13225 - 8438",1,1,,Order #3,Completed 
346,Central,Riyadh,الوسطى,منطقة الرياض,Riyadh,الرياض,Main,PSRU1352,,226224,P1138,,Al Mahdiyah Parcel Station - Riyadh - Al Dawaa,محطة طرود المهدية - الرياض - الدواء,24.652726,46.507128,"https://www.google.com/maps/?q=24.652726, 46.507128",No,Al Dawaa,,LM,RDMG3894,3894,Alsail Alkabeer Rd,طريق السيل الكبير,Al Mahdiyah Dist.,حي المهدية,13759,6505,"3894 Alsail Alkabeer Rd, Al Mahdiyah Dist., Riyadh, 13759 - 6505",1,1,,Order #3,Completed 
347,Central,Riyadh,الوسطى,منطقة الرياض,Riyadh,الرياض,Main,PSRU1353,,226225,P1140,,Al Arid Parcel Station - Riyadh - Al Dawaa,محطة طرود العارض - الرياض - الدواء,24.883851,46.610531,"https://www.google.com/maps/?q=24.883851, 46.610531",No,Al Dawaa,,LM,RRRA9000,9000,King Abdul Aziz Rd,طريق الملك عبدالعزيز,Al Arid Dist.,حي العارض,13337,4382,"9000 King Abdul Aziz Rd, Al Arid Dist., Riyadh, 13337 - 4382",1,1,,Order #3,Completed 
348,Central,Riyadh,الوسطى,منطقة الرياض,Al-Dawadmi,الدوادمي,Remote,PSDW1354,,226226,P1142,,Al Faisaliyah Parcel Station - Al-Dawadmi - Al Dawaa,محطة طرود الفيصلية - الدوادمي - الدواء,24.502381,44.385692,"https://www.google.com/maps/?q=24.502381, 44.385692",No,Al Dawaa,,LM,,,,,Al Faisaliyah Dist.,حي الفيصلية,,,Address Incomplete,1,1,,Order #3,Completed 
349,Central,Riyadh,الوسطى,منطقة الرياض,Riyadh,الرياض,Main,PSRU1355,,226227,P1143,,Al Sahafah Parcel Station 2 - Riyadh - Al Dawaa,محطة طرود الصحافة 2 - الرياض - الدواء,24.810554,46.635402,"https://www.google.com/maps/?q=24.810554, 46.635402",No,Al Dawaa,,LM,RASA7868,7868,Prince Abdullah Bin  Saud Bin  Abdullah Sunaitan Al Saud,الامير عبدالله بن سعود بن عبدالله صنيتان ال سعود,Al Sahafah Dist.,حي الصحافة,13321,3301,"7868 Prince Abdullah Bin  Saud Bin  Abdullah Sunaitan Al Saud, Al Sahafah Dist., Riyadh, 13321 - 3301",1,1,,Order #3,Completed 
350,Eastern,Eastern Province,الشرقية,المنطقة الشرقية,Al Khobar,الخبر,Main,PSKH1356,,226228,P1208,,Qurtubah Parcel Station - Al Khobar - Al Dawaa,محطة طرود قرطبة - الخبر - الدواء,26.336241,50.196609,"https://www.google.com/maps/?q=26.336241, 50.196609",No,Al Dawaa,,LM,EAGA4380,4380,Al Ameer Sultan,طريق الامير سلطان,Qurtubah Dist.,حي قرطبة,34235,6402,"4380 Al Ameer Sultan, Qurtubah Dist., Al Khobar, 34235 - 6402",1,1,,Order #3,Completed 
351,Eastern,Eastern Province,الشرقية,المنطقة الشرقية,An Nu'Ayriyah,النعيرية,Remote,PSNE1357,,226229,P1238,,Al Khalij Parcel Station - An Nu'Ayriyah - Al Dawaa,محطة طرود الخليج - النعيرية - الدواء,27.472694,48.512361,"https://www.google.com/maps/?q=27.472694, 48.512361",No,Al Dawaa,,LM,CCSA3573,3573,Al Amir Nasir Bin  Abdul Aziz Rd,طريق الامير ناصر بن عبدالعزيز,Al Khalij Dist.,حي الخليج,37471,6952,"3573 Al Amir Nasir Bin  Abdul Aziz Rd, Al Khalij Dist., An Nu'Ayriyah, 37471 - 6952",1,1,,Order #3,Not Started
352,Eastern,Eastern Province,الشرقية,المنطقة الشرقية,Dhahran,الظهران,Main,PSDH1358,,226230,P1263,,Al Qusur Parcel Station - Dhahran - Al Dawaa,محطة طرود القصور - الظهران - الدواء,26.347593,50.143688,"https://www.google.com/maps/?q=26.347593, 50.143688",No,Al Dawaa,,LM,EAJB7323,7323,Al Amir Muhammed Bin Fahd Rd,طريق الامير محمد بن فهد,Al Qusur Dist.,حي القصور,34245,2699,"7323 Al Amir Muhammed Bin Fahd Rd, Al Qusur Dist., Dhahran, 34245 - 2699",1,1,,Order #3,Completed 
